{"type":"Topology","arcs":[[[455,802],[0,-28]],[[455,774],[0,-115]],[[455,659],[-34,14],[-98,-17],[-128,-8]],[[195,648],[8,43],[142,257]],[[345,948],[4,2]],[[349,950],[13,-61],[-35,-59],[128,-28]],[[455,802],[1,50]],[[456,852],[94,-65]],[[550,787],[-2,-34],[-56,-18],[-37,39]],[[345,948],[6,13]],[[351,961],[17,1]],[[368,962],[147,-15],[63,-43],[-11,-122]],[[567,782],[-17,5]],[[456,852],[-79,55],[-28,43]],[[567,782],[153,-29]],[[720,753],[-61,1],[-59,-34],[25,-51],[-80,-9],[-40,-23],[-50,22]],[[351,961],[-37,13],[-157,-13],[-77,46],[-4,46],[-41,40]],[[35,1093],[137,210],[99,98],[61,19],[38,-33]],[[370,1387],[-11,-11]],[[359,1376],[-33,-47],[35,-45],[8,-78],[67,-90],[80,-35]],[[516,1081],[-46,-50],[-79,-19],[-23,-50]],[[516,1081],[76,24],[18,-153],[30,-52],[-1,-61],[27,-54],[54,-32]],[[195,648],[-45,17],[28,89],[-23,41],[-84,18],[-51,32],[-20,52],[13,56],[19,137],[3,3]],[[1460,1457],[-10,-35],[-98,-84],[-103,-204],[-97,-100]],[[1152,1034],[-30,34],[1,97],[-18,58],[-37,4],[-34,48]],[[1034,1275],[88,33],[7,84],[37,42]],[[1166,1434],[19,21],[45,-13],[25,1],[37,-16],[94,-15],[74,45]],[[996,1075],[30,-53],[-15,-87]],[[1011,935],[4,-44],[-37,-62]],[[978,829],[-21,-148]],[[957,681],[-36,-15]],[[921,666],[37,44],[-48,47],[-19,64],[-82,38],[-3,59],[91,46],[-39,77],[25,57]],[[883,1098],[104,-2],[9,-21]],[[1011,935],[75,-25]],[[1086,910],[-56,-111]],[[1030,799],[-52,30]],[[1030,799],[-34,-82]],[[996,717],[-14,-16]],[[982,701],[-25,-20]],[[1152,1034],[-11,-16]],[[1141,1018],[-49,-94]],[[1092,924],[-6,-14]],[[996,1075],[-1,104],[-24,29],[63,67]],[[370,1387],[81,-6],[89,-47],[103,53],[59,-19],[74,-22],[-1,-113],[56,-124],[-15,-14],[-105,39],[-2,57],[-89,44],[-61,-64],[-30,4],[-100,64],[-3,59],[-67,78]],[[883,1098],[-13,88],[-65,44],[27,97],[-108,58],[-37,41],[27,68],[-4,78],[-62,55],[17,37],[241,46],[138,-44],[35,23],[52,-33],[-14,-74],[22,-71],[63,-50],[-60,-18],[-10,21],[-41,6],[37,-38],[38,2]],[[1460,1457],[80,-58],[142,-15],[17,-27],[-80,-53],[-47,-73],[-101,-113],[-48,-75],[5,-48],[-43,-32]],[[1385,963],[-34,11]],[[1351,974],[-125,45],[-85,-1]],[[1092,924],[27,-7],[29,-96]],[[1148,821],[-98,-70]],[[1050,751],[-54,-34]],[[1351,974],[-14,-79],[-40,-44],[-149,-30]],[[1050,751],[74,-28],[27,-30]],[[1151,693],[-30,-39],[-50,30],[-89,17]],[[1151,693],[67,31],[55,-17]],[[1273,707],[-32,-73],[-63,-97],[-47,-32],[-107,-19],[-49,180],[-54,0]],[[1385,963],[33,-77],[-55,-62],[-61,-98],[-29,-19]],[[827,327],[-78,-28],[-32,-50]],[[717,249],[-46,50]],[[671,299],[57,89],[21,4],[78,-65]],[[717,249],[-43,-70]],[[674,179],[-75,25]],[[599,204],[62,44],[4,42]],[[665,290],[6,9]],[[599,204],[-69,-125]],[[530,79],[-132,140],[-62,-61],[-133,-6],[-14,73],[-27,13],[19,117],[42,33],[6,68],[84,33],[55,2],[50,-31],[52,60],[57,-32],[85,41],[31,-13],[7,-69],[64,-68],[-49,-89]],[[674,179],[79,-29],[77,-95]],[[830,55],[3,-18],[-157,-15],[-97,-22],[-49,79]],[[827,327],[96,-9],[7,-92],[-50,-103],[-50,-68]],[[761,708],[-14,-12],[38,-142],[38,-44],[79,-15]],[[902,495],[-38,-100],[2,-43]],[[866,352],[-115,135],[-47,20],[-12,93],[-46,57],[15,56],[47,-10],[31,35]],[[739,738],[22,-30]],[[761,708],[54,-66]],[[815,642],[65,-92],[34,-18]],[[914,532],[-12,-37]],[[914,532],[30,103]],[[944,635],[-9,-70],[44,-43],[17,-106],[-55,-23],[-23,-37],[-52,-4]],[[815,642],[83,24]],[[898,666],[46,-31]],[[739,738],[67,41],[52,-4],[80,-65],[-40,-44]]],"transform":{"scale":[0.00011608320315281315,0.00011533380410674979],"translate":[39.566644749739694,-4.119812256772664]},"objects":{"wards.001.final":{"type":"GeometryCollection","geometries":[{"arcs":[[0,1,2,3,4,5]],"type":"Polygon","properties":{"code":"0001","name":"Airport","constituency_code":"001","county_code":"001"}},{"arcs":[[-1,6,7,8]],"type":"Polygon","properties":{"code":"0002","name":"Chaani","constituency_code":"001","county_code":"001"}},{"arcs":[[-5,9,10,11,12,-8,13]],"type":"Polygon","properties":{"code":"0003","name":"Changamwe","constituency_code":"001","county_code":"001"}},{"arcs":[[-2,-9,-13,14,15]],"type":"Polygon","properties":{"code":"0004","name":"Kipevu","constituency_code":"001","county_code":"001"}},{"arcs":[[-6,-14,-7]],"type":"Polygon","properties":{"code":"0005","name":"Port Reitz","constituency_code":"001","county_code":"001"}},{"arcs":[[-11,16,17,18,19,20]],"type":"Polygon","properties":{"code":"0006","name":"Jomvu Kuu","constituency_code":"002","county_code":"001"}},{"arcs":[[-12,-21,21,-15]],"type":"Polygon","properties":{"code":"0007","name":"Mikindani","constituency_code":"002","county_code":"001"}},{"arcs":[[-4,22,-17,-10]],"type":"Polygon","properties":{"code":"0008","name":"Miritini","constituency_code":"002","county_code":"001"}},{"arcs":[[23,24,25,26]],"type":"Polygon","properties":{"code":"0009","name":"Bamburi","constituency_code":"003","county_code":"001"}},{"arcs":[[27,28,29,30,31,32]],"type":"Polygon","properties":{"code":"0010","name":"Junda","constituency_code":"003","county_code":"001"}},{"arcs":[[-29,33,34,35]],"type":"Polygon","properties":{"code":"0011","name":"Magogoni","constituency_code":"003","county_code":"001"}},{"arcs":[[-30,-36,36,37,38]],"type":"Polygon","properties":{"code":"0012","name":"Mjambere","constituency_code":"003","county_code":"001"}},{"arcs":[[-25,39,40,41,-34,-28,42]],"type":"Polygon","properties":{"code":"0013","name":"Mtopanga","constituency_code":"003","county_code":"001"}},{"arcs":[[[-19,43]],[[-26,-43,-33,44]]],"type":"MultiPolygon","properties":{"code":"0014","name":"Mwakirunge","constituency_code":"003","county_code":"001"}},{"arcs":[[-24,45,46,47,-40]],"type":"Polygon","properties":{"code":"0015","name":"Shanzu","constituency_code":"003","county_code":"001"}},{"arcs":[[-35,-42,48,49,50,-37]],"type":"Polygon","properties":{"code":"0016","name":"Frere Town","constituency_code":"004","county_code":"001"}},{"arcs":[[-41,-48,51,-49]],"type":"Polygon","properties":{"code":"0017","name":"Kadzandani","constituency_code":"004","county_code":"001"}},{"arcs":[[-38,-51,52,53]],"type":"Polygon","properties":{"code":"0018","name":"Kongowea","constituency_code":"004","county_code":"001"}},{"arcs":[[-31,-39,-54,54,55]],"type":"Polygon","properties":{"code":"0019","name":"Mkomani","constituency_code":"004","county_code":"001"}},{"arcs":[[-47,56,-55,-53,-50,-52]],"type":"Polygon","properties":{"code":"0020","name":"Ziwa La Ng'ombe","constituency_code":"004","county_code":"001"}},{"arcs":[[57,58,59]],"type":"Polygon","properties":{"code":"0021","name":"Bofu","constituency_code":"005","county_code":"001"}},{"arcs":[[-59,60,61,62,63]],"type":"Polygon","properties":{"code":"0022","name":"Likoni","constituency_code":"005","county_code":"001"}},{"arcs":[[-63,64,65]],"type":"Polygon","properties":{"code":"0023","name":"Mtongwe","constituency_code":"005","county_code":"001"}},{"arcs":[[-62,66,67,-65]],"type":"Polygon","properties":{"code":"0024","name":"Shika Adabu","constituency_code":"005","county_code":"001"}},{"arcs":[[-58,68,-67,-61]],"type":"Polygon","properties":{"code":"0025","name":"Timbwani","constituency_code":"005","county_code":"001"}},{"arcs":[[69,70,71,72]],"type":"Polygon","properties":{"code":"0026","name":"Ganjoni Ward-Shimanzi","constituency_code":"006","county_code":"001"}},{"arcs":[[-70,73,74,75]],"type":"Polygon","properties":{"code":"0027","name":"Majengo","constituency_code":"006","county_code":"001"}},{"arcs":[[-71,-76,76,77]],"type":"Polygon","properties":{"code":"0028","name":"Makadara Ward-Mji Wa Kale","constituency_code":"006","county_code":"001"}},{"arcs":[[-75,78,79,-77]],"type":"Polygon","properties":{"code":"0029","name":"Tononoka","constituency_code":"006","county_code":"001"}},{"arcs":[[-73,80,-79,-74]],"type":"Polygon","properties":{"code":"0030","name":"Tudor","constituency_code":"006","county_code":"001"}}]}}}