{"type":"Topology","arcs":[[[6292,2297],[-63,-143],[-44,-115],[-14,-49]],[[6171,1990],[-74,29],[-52,66],[-62,15],[-33,32]],[[5950,2132],[47,72],[93,81],[46,81],[33,-9],[123,-60]],[[6171,1990],[-28,-114],[-43,-100],[-27,-78],[-21,-99],[-16,-110],[-16,-56],[-32,-6],[18,90],[-25,90],[-61,25],[-41,-3],[-27,-18],[11,-47],[-23,-21],[19,-72],[-9,-83],[-20,-32],[-23,28]],[[5807,1384],[-30,29],[-58,-36],[2,-40],[-35,-32],[-26,14],[-26,40],[-18,50],[-51,95],[-37,0],[-37,41],[-51,17],[4,35],[-36,40],[10,51],[-30,26],[20,24],[-18,62]],[[5390,1800],[9,43],[55,46],[28,-15],[38,10],[46,85],[63,67],[81,201]],[[5710,2237],[64,-85],[31,-22],[42,-10],[103,12]],[[5807,1384],[-21,-59],[5,-74],[-30,-20],[-64,-66],[-46,-107],[-32,-95],[-14,-94],[-33,79],[-25,13],[-35,44],[-60,-64],[-62,18],[18,-54],[0,-48],[-77,-10],[-10,-78],[-62,-8],[-47,-22],[-62,63]],[[5150,802],[29,21],[32,68],[1,37],[-20,24],[10,43],[-22,11],[18,53],[-8,39],[-29,19],[-50,107],[-5,43],[-23,19],[8,42],[-53,35],[-58,-15],[-21,76],[5,29],[-37,24],[-14,39],[11,25],[-88,14],[-14,57]],[[4822,1612],[3,77],[20,4],[13,45],[363,-74],[33,35],[47,-17],[34,19],[-11,24],[8,49],[37,32],[21,-6]],[[5573,851],[26,-20],[-6,-87],[-37,-39],[2,-76],[-59,-73],[-16,-38],[-27,12],[-27,196],[72,-24],[4,68],[32,83],[36,-2]],[[5150,802],[-25,-17],[-10,-62],[54,-23],[26,-70],[4,-39],[-14,-56],[44,0],[-24,-44],[9,-78],[25,-54],[3,-37],[20,-31],[19,-63],[-3,-29],[-48,-17],[-62,-4],[-98,28],[-39,26],[-77,11],[-70,-22],[-44,4],[-23,41],[-45,-15],[-25,31],[13,68],[43,3],[28,51],[-20,37],[1,37],[-20,37],[2,53],[31,73],[74,15],[-13,39],[-25,-13],[-32,10],[-40,-53],[-30,11],[-83,-2],[-29,23],[-10,-52],[-44,-62],[-56,31],[-45,-23],[-49,38],[-9,38],[-49,0]],[[4385,641],[-4,20],[-63,-5],[-39,28]],[[4279,684],[66,91],[66,75],[21,42],[103,140],[5,29],[72,107],[-52,70],[-11,29],[82,90],[21,54],[22,112],[34,38],[-2,50],[30,6]],[[4736,1617],[36,10],[50,-15]],[[5059,135],[136,-31],[59,21],[28,-65],[-10,-20],[-114,32],[-74,0],[-25,63]],[[4742,631],[35,-25],[-16,-48],[-43,-47],[-32,74],[30,45],[26,1]],[[4279,684],[-32,13],[-5,27],[-46,99],[-20,69],[-18,26],[-48,31]],[[4110,949],[-18,73],[8,58],[-53,61],[-49,-19],[-26,20],[-60,-8],[-10,22],[1,65],[-42,70],[-44,31],[8,248],[31,12],[38,56],[14,41],[76,66],[11,26],[49,21]],[[4044,1792],[16,-56],[53,-26],[4,32],[56,-19],[19,33]],[[4192,1756],[16,-11],[37,29],[113,-35],[47,-56],[29,24],[38,-17],[78,33],[113,-37],[28,-51],[45,-18]],[[1767,3871],[322,-417],[114,-144]],[[2203,3310],[106,-133],[147,-169],[62,-64],[53,-67],[77,-153],[33,-38],[55,-7],[201,41],[63,49],[45,2],[64,-87],[48,9],[34,-21],[24,16],[25,60],[43,30],[6,65],[50,31],[13,-10],[3,-71],[40,-33],[56,95],[37,26],[36,-29],[5,-60],[-33,-25],[18,-50],[-21,-30],[39,-24],[43,-10],[40,-24],[20,38],[28,-20],[-14,-55],[35,-37],[26,-4],[57,-63],[-15,-46],[23,-17],[-3,-79],[13,-50],[-29,-45],[42,-103],[61,-30],[23,21],[35,-16],[17,-51]],[[3934,2072],[-17,-58],[14,-30],[55,-28],[31,-74],[-7,-54],[34,-36]],[[4110,949],[-30,-25],[-27,20],[-30,-10],[-61,0],[-22,39],[-18,69],[-48,37],[-43,6],[-133,-40],[-39,-40],[-110,-86],[-41,23],[-43,7],[-48,74],[-29,23],[-75,-12],[-63,-46],[-77,-181]],[[3173,807],[-456,344],[-610,460],[-426,321],[0,15],[-1681,1246],[8,3],[37,14],[486,187],[360,137],[709,270],[167,67]],[[4385,641],[2,-45],[43,-35],[16,-56],[53,-24],[-43,-25],[-35,-50],[-39,-22],[-71,-9],[-6,-51],[-26,-57],[-38,-20],[-11,-55],[-24,-18],[32,-31],[30,6],[-11,-52],[-48,4],[26,-49],[23,-14],[2,-38],[-37,14],[-37,-12],[-37,43],[-33,8],[-16,58],[-75,54],[-601,455],[-251,187]],[[6239,3523],[3,-30],[29,-76],[-10,-57],[-81,-106],[8,-24],[-40,-20],[-22,-42],[-39,-9],[-48,-32],[-46,16],[-54,-124],[21,-37],[20,8],[71,-45],[-27,-58]],[[6024,2887],[-80,-88],[-8,-57],[49,-46],[-13,-20],[-1,-69],[-17,-103]],[[5954,2504],[-23,-14],[-9,-54],[-67,-9],[-95,-31],[-29,21],[-60,-2],[-44,-53]],[[5627,2362],[-4,-59],[-42,4],[-41,26],[-1,47],[20,6],[49,76],[29,21],[4,37],[37,55],[37,10],[107,105],[8,57],[-103,56],[-198,173],[-24,9],[-100,78],[-54,28]],[[5351,3091],[39,63],[37,35],[37,10],[-5,64],[23,4],[12,-53],[33,15],[-3,36],[28,44],[41,-5],[36,36],[25,-54],[22,-8],[18,37],[61,14],[24,43],[48,28],[27,-9],[65,81],[-40,33],[-31,-23],[-3,60],[51,34],[106,-17],[120,13],[39,-40],[32,-13],[46,4]],[[6239,3523],[1,111]],[[6240,3634],[75,-5],[-4,-47],[-26,-23],[-13,-80],[18,-8],[8,-50],[86,4],[39,41],[84,-95],[32,-54],[61,15],[101,10],[-44,-81],[-17,-62],[-99,-187],[-19,-49],[-45,-62],[-41,-71],[-30,-111]],[[6406,2719],[-138,55],[-21,-1],[-51,35],[-89,25],[10,38],[-39,25],[-54,-9]],[[6406,2719],[-30,-94],[-18,-109],[-16,-31]],[[6342,2485],[-71,16],[-11,-32],[-79,11],[-42,65],[-80,-55],[-34,18],[-21,-14],[-50,10]],[[4192,1756],[-31,86],[6,29],[-33,33],[21,46],[62,63],[120,27],[51,-21],[24,-91],[48,-2],[76,44],[-34,49],[33,263],[29,51],[106,25],[241,46],[34,3],[14,-56],[60,7],[9,23],[-31,40],[106,137],[70,119],[85,91],[51,65],[-104,33],[16,90],[-5,39],[43,68]],[[5259,3063],[40,31],[25,-20],[27,17]],[[5627,2362],[14,-11],[61,19],[41,-10],[-4,-52],[-29,-71]],[[3934,2072],[42,15],[5,53],[20,31],[-26,50],[37,50],[63,47],[53,84],[129,104],[94,109],[63,-11],[45,1],[37,-33],[37,-11],[14,19],[52,-10],[28,41],[43,27],[22,46],[40,15],[25,82],[0,69],[-16,34],[-49,52],[-19,42],[11,86],[20,45],[43,15]],[[4747,3124],[52,19],[40,-19],[26,21],[106,-46],[58,7],[29,-31],[41,63],[18,2],[20,-48],[-49,-58],[38,-18],[15,25],[66,56],[18,-28],[34,-6]],[[2203,3310],[67,-29],[95,-5],[69,17],[78,3],[49,13],[142,60],[43,27],[63,21],[37,-1],[97,-62],[9,-24],[48,-21],[84,-57],[118,-20],[42,-1],[88,-31],[43,3],[18,-38],[61,-58],[15,-46],[38,-19],[34,42],[-4,74],[-43,120],[40,-13],[30,-46],[102,2],[42,-33],[93,-123],[32,43],[1,98],[47,12],[58,-32],[28,27],[33,-13],[38,18],[50,43],[26,6],[61,37],[30,33],[54,-4],[53,-47],[38,10],[-2,-52],[20,-24],[-10,-55],[20,-19],[35,31],[18,48],[31,9],[2,40],[51,32]],[[4515,3306],[7,-115],[-8,-36],[67,-31],[11,25],[45,18],[45,-17],[28,21],[24,-10],[13,-37]],[[1767,3871],[320,122],[215,87],[71,21],[288,114]],[[2661,4215],[39,-43],[24,-1],[76,-52],[81,-1],[52,62],[70,22],[126,-28],[95,32],[103,12],[34,-8],[160,41],[87,-1],[74,-33],[30,-4],[137,-59],[75,0],[156,-167],[37,-53],[126,-99],[78,-19],[93,-52],[30,22],[58,-23],[50,25],[33,36],[88,30],[29,20]],[[4702,3874],[-8,-34],[36,-24],[24,-46],[79,-57],[64,13],[34,-28],[30,27]],[[4961,3725],[14,-71],[-18,-27],[-22,-84],[2,-53],[-22,-44],[-64,-46],[-99,10],[-72,-11],[-6,-121],[-25,-3],[-85,69],[-11,44],[-38,-82]],[[4961,3725],[-22,69],[78,75],[6,31],[96,-40],[71,12],[31,-32],[1,-31],[50,-23],[45,-44],[59,25],[39,-1],[40,30],[69,-12],[17,16],[37,-9],[81,45],[49,-2],[8,27],[93,44],[34,50],[28,16],[33,-43],[53,-4],[50,-50],[51,-38],[28,5],[28,51],[43,44]],[[6157,3936],[-6,-36],[25,-26],[63,-42],[11,-30],[-9,-53],[-1,-115]],[[2661,4215],[94,31],[6,2],[265,673],[129,343],[79,198],[-548,356],[83,149],[119,215],[111,-69],[362,-235],[88,351],[81,344],[56,-6],[133,-2],[354,0],[277,2]],[[4350,6567],[-2,-186],[42,-160],[10,-121],[0,-76],[12,-51],[71,-122],[-63,-70],[-80,-63],[-88,-84],[-50,-21],[-126,-116],[-1,-71],[-90,-132],[-14,-128],[-28,-85],[-28,-50],[-38,4],[-113,-10],[-107,2],[1,-75],[-20,-79],[-106,-207],[18,-16],[47,8],[29,-34],[7,-39],[76,-17],[21,-15],[45,5],[74,-51],[43,3],[17,34],[-1,43],[25,19],[47,-10],[67,51],[51,23],[24,26],[102,34],[54,-67],[13,-44],[98,-39],[73,-58],[45,-11],[56,-68],[37,-16],[18,-37],[23,-85],[37,7],[34,45],[6,-86],[57,-33],[39,-54]],[[4814,4184],[-47,-72]],[[4767,4112],[-16,-38],[-16,-78],[-33,-57],[0,-65]],[[4350,6567],[87,-4],[276,3],[23,17],[84,-5],[-14,-41],[36,-59],[43,-37],[15,4],[63,-46],[11,-28],[-17,-44],[7,-29],[-18,-124],[37,-14],[26,-52],[8,-52],[-15,-34],[9,-45],[-15,-40],[4,-82],[-28,-13],[-9,-41],[14,-49],[33,-51],[9,-66],[32,-45],[36,-10],[38,-30],[85,20],[1,-85],[15,-23],[-9,-70],[-47,-9],[7,-42],[23,0],[-2,-48],[-27,-5],[-44,-54],[26,-22],[-15,-51]],[[5138,5161],[-45,37],[12,60],[-66,10],[-40,21],[-35,-4],[-23,-122],[-15,-159],[-13,-56],[-6,-70],[5,-54],[17,-32],[-12,-52],[8,-228],[11,-130],[-54,-66],[8,-15],[-39,-52],[-37,-65]],[[5138,5161],[60,-73],[20,-4],[29,-45],[29,26],[31,-20],[21,25],[34,0],[88,-72],[5,-32],[68,-70],[13,-23],[46,-8],[46,-26],[34,-56],[66,-74],[43,-17],[40,-103],[32,-8],[21,-26],[48,-25],[14,-92],[33,-12],[16,-27],[-12,-66]],[[5963,4333],[-39,1],[-20,27],[-62,7],[-39,-27],[-31,-47],[-25,-10],[-51,27],[-58,-46],[-26,41],[-48,-73],[-44,-50],[-15,40],[16,24],[-37,32],[-43,-27],[-88,35],[-50,1],[-28,-26],[-1,-44],[-39,-26],[-51,14],[-66,-34],[-16,-45],[-38,-27],[-46,16],[-51,-5],[-200,1]],[[5963,4333],[19,-38],[45,-30],[29,2],[17,-57],[-45,-138],[29,-8],[30,36],[28,7],[75,-45],[-13,-93],[-20,-33]],[[6342,2485],[-1,-65],[-49,-123]]],"transform":{"scale":[0.00018177852572447687,0.0001686495657401336],"translate":[38.4452541567194,-4.679179615065595]},"objects":{"wards.002.final":{"type":"GeometryCollection","geometries":[{"arcs":[[0,1,2]],"type":"Polygon","properties":{"code":"0032","name":"Ukunda","constituency_code":"007","county_code":"002"}},{"arcs":[[-2,3,4,5,6]],"type":"Polygon","properties":{"code":"0033","name":"Kinondo","constituency_code":"007","county_code":"002"}},{"arcs":[[[-5,7,8,9]],[[10]]],"type":"MultiPolygon","properties":{"code":"0034","name":"Ramisi","constituency_code":"007","county_code":"002"}},{"arcs":[[[-9,11,12,13,14]],[[15]],[[16]]],"type":"MultiPolygon","properties":{"code":"0035","name":"Pongwe/kikoneni","constituency_code":"008","county_code":"002"}},{"arcs":[[-14,17,18,19,20]],"type":"Polygon","properties":{"code":"0036","name":"Dzombo","constituency_code":"008","county_code":"002"}},{"arcs":[[21,22,23,-19,24,25]],"type":"Polygon","properties":{"code":"0037","name":"Mwereni","constituency_code":"008","county_code":"002"}},{"arcs":[[-13,26,-25,-18]],"type":"Polygon","properties":{"code":"0038","name":"Vanga","constituency_code":"008","county_code":"002"}},{"arcs":[[27,28,29,30,31]],"type":"Polygon","properties":{"code":"0039","name":"Tsimba Golini","constituency_code":"009","county_code":"002"}},{"arcs":[[-28,32,33,34]],"type":"Polygon","properties":{"code":"0040","name":"Waa","constituency_code":"009","county_code":"002"}},{"arcs":[[-29,-35,35,36]],"type":"Polygon","properties":{"code":"0041","name":"Tiwi","constituency_code":"009","county_code":"002"}},{"arcs":[[-6,-10,-15,-21,37,38,-31,39]],"type":"Polygon","properties":{"code":"0042","name":"Kubo South","constituency_code":"009","county_code":"002"}},{"arcs":[[-20,-24,40,41,-38]],"type":"Polygon","properties":{"code":"0043","name":"Mkongani","constituency_code":"009","county_code":"002"}},{"arcs":[[-23,42,43,-41]],"type":"Polygon","properties":{"code":"0044","name":"Ndavaya","constituency_code":"010","county_code":"002"}},{"arcs":[[44,45,46,47,-43,-22]],"type":"Polygon","properties":{"code":"0045","name":"Puma","constituency_code":"010","county_code":"002"}},{"arcs":[[-32,-39,-42,-44,-48,48,49,-33]],"type":"Polygon","properties":{"code":"0046","name":"Kinango","constituency_code":"010","county_code":"002"}},{"arcs":[[50,51,52,53,-46]],"type":"Polygon","properties":{"code":"0047","name":"Mackinnon Road","constituency_code":"010","county_code":"002"}},{"arcs":[[-52,54,55]],"type":"Polygon","properties":{"code":"0048","name":"Chengoni/samburu","constituency_code":"010","county_code":"002"}},{"arcs":[[-53,-56,56,57]],"type":"Polygon","properties":{"code":"0049","name":"Mwavumbo","constituency_code":"010","county_code":"002"}},{"arcs":[[-49,-47,-54,-58,58]],"type":"Polygon","properties":{"code":"0050","name":"Kasemeni","constituency_code":"010","county_code":"002"}},{"arcs":[[-3,-7,-40,-30,-37,59]],"type":"Polygon","properties":{"code":"0031","name":"Gombato Bongwe","constituency_code":"007","county_code":"002"}}]}}}