{"type":"Topology","arcs":[[[4295,1220],[-99,-1],[-16,-11],[-153,34],[0,31]],[[4027,1273],[4,49],[23,44]],[[4054,1366],[31,39],[-6,35],[32,56],[27,70],[-16,51],[-39,-4],[-56,-46],[-56,-14]],[[3971,1553],[-51,56],[-27,73],[-56,6],[-10,88],[-12,16],[41,49],[39,10],[22,36],[29,116],[-20,26],[13,29],[30,11],[35,-38]],[[4004,2031],[21,-57],[81,-47],[56,5],[16,23],[71,59],[30,-33],[52,8],[72,-23],[33,-62],[12,-80],[-20,-61],[20,-45],[4,-84],[-49,-84],[6,-15],[-29,-53],[-13,-69],[-41,-71],[-26,-71],[-5,-51]],[[4295,1220],[-40,-124],[-35,-80],[-16,-93],[-79,-158],[-4,-17]],[[4121,748],[-103,26],[-48,-44],[-50,-91],[-48,2],[-65,24],[-52,-44],[-8,-63],[-55,21],[-51,5],[15,72],[-10,37],[-68,-26]],[[3578,667],[11,16],[-14,59],[10,39],[-12,87],[11,46],[55,105],[61,63],[5,58],[28,10],[70,-22],[78,21],[59,-21],[6,24],[42,61],[9,38],[30,22]],[[2932,212],[27,62],[-39,-15],[-46,47],[-47,20],[41,34],[-52,25],[26,49],[-23,14]],[[2819,448],[40,7],[38,64],[51,16],[89,90]],[[3037,625],[7,-40],[39,-50],[-1,-53],[24,-24],[-9,-33],[22,-35],[-7,-26],[28,-19]],[[3140,345],[40,-36],[3,-49],[-18,-44],[25,-27],[-15,-10],[-39,12],[-67,-34],[-59,30],[-53,4],[-25,21]],[[2819,448],[-19,21],[-39,-20],[-45,10],[-50,44],[-30,9],[-9,36],[-35,42]],[[2592,590],[-10,16],[11,59],[21,36],[61,8]],[[2675,709],[23,27],[66,48],[63,4],[34,22]],[[2861,810],[84,-2],[20,-19],[39,11]],[[3004,800],[27,3],[14,-43],[-1,-43],[-16,-57],[9,-35]],[[4290,2002],[0,35],[50,95],[30,78]],[[4370,2210],[11,17],[163,-55]],[[4544,2172],[-54,-88],[-33,-73],[-36,-26],[-81,17],[-50,0]],[[5365,4127],[29,-13],[1,-96],[25,-1]],[[5420,4017],[-38,-76],[-83,-78],[-66,-12],[7,-208],[16,-10],[-24,-46],[-44,-33],[22,-29]],[[5210,3525],[-64,-75],[-125,-84],[-20,5],[5,65],[68,48],[19,-13],[35,42],[-16,29],[13,27],[-141,-23],[-3,34],[-63,50],[-6,-21],[-70,-10],[-27,-27],[1,-56]],[[4816,3516],[-104,19],[0,18],[-67,21]],[[4645,3574],[29,42],[31,20],[122,-2],[38,41],[2,20],[89,61],[-50,104],[8,35],[39,-13],[53,-142],[108,20],[-7,35],[54,7],[-9,65],[22,14],[6,41],[-161,150],[-1,44],[32,32]],[[5050,4148],[141,0],[87,5],[87,-26]],[[5420,4017],[58,12],[3,-78],[153,10],[31,32],[136,-2],[35,-44]],[[5836,3947],[27,-16]],[[5863,3931],[-42,-47],[-126,-98],[-105,-36],[-103,-93],[-82,-41],[-27,23],[-70,-33],[-23,-58],[-75,-23]],[[3578,667],[-11,-45],[-35,20],[-23,64],[-20,6]],[[3489,712],[-26,33],[1,36],[-23,43],[-10,46],[-35,56],[-49,9],[-51,53],[-8,128],[-20,75],[0,47],[17,29]],[[3285,1267],[56,-23],[195,-3],[138,27],[9,36],[37,31],[1,31],[83,37],[65,2],[9,-20],[54,-25],[122,6]],[[3285,1267],[-23,47],[3,25],[-30,57],[7,60],[-15,18],[6,51],[0,0],[0,0]],[[3233,1525],[13,42],[50,39],[-23,35],[10,59]],[[3283,1700],[8,39],[50,12],[28,-59],[42,-9],[33,29],[74,-9],[48,-16],[38,6],[79,-6],[0,-72],[27,-14],[82,-13],[98,18],[53,-48],[28,-5]],[[4121,748],[-180,-343],[-37,-99]],[[3904,306],[-52,24],[-7,21],[-49,18],[-13,40],[-38,-49],[-55,18],[-9,-15],[-77,23],[-8,22],[-57,2],[-49,-70]],[[3490,340],[-13,47],[55,60],[-48,10],[-48,-10],[-9,33]],[[3427,480],[-25,73],[56,6],[-20,58],[-18,89]],[[3420,706],[69,6]],[[2592,590],[-27,-28],[-33,-10],[-18,17],[-68,-45],[-15,-38],[-31,-23]],[[2400,463],[-21,25],[-34,7],[-41,97],[-43,15],[-69,70],[-35,52],[-47,25],[-47,8],[-13,21],[-70,67],[-6,29],[-90,68],[-35,0],[-22,-23],[-32,18],[-29,-24],[-30,42],[-20,4],[-62,69],[15,47],[-26,21],[44,51],[28,5],[2,45],[-23,-1],[-7,40],[47,8],[10,66]],[[1744,1315],[4,37],[44,-9],[67,-66],[133,-100],[50,-32],[72,-83],[72,-6],[50,-51],[41,19],[60,-3],[28,-40],[-3,-20],[47,-41],[23,-35],[55,-36],[43,4],[37,-26],[80,-97],[28,-21]],[[1744,1315],[-15,22],[-1,79],[-88,-18],[-39,28],[-37,9],[-33,43],[-9,62],[-34,48],[-15,45],[10,39],[29,13],[-4,76],[15,38],[-9,43],[15,31]],[[1529,1873],[113,-56],[92,-1],[30,-80],[20,-13],[59,19],[95,47]],[[1938,1789],[37,-56],[113,-30],[100,-38],[-13,-75],[18,-58],[-16,-57],[19,-17],[-14,-128],[41,-72],[32,-19],[19,52],[-5,79],[27,61],[36,38],[55,5],[88,31],[85,-14],[5,-74],[25,-112],[-2,-44],[30,0],[34,59],[61,3],[7,-44],[43,-47],[35,-54]],[[2798,1178],[19,-37],[26,-81],[50,-52],[19,-35],[-60,-15],[10,-63],[-1,-85]],[[2798,1178],[24,14],[6,79],[31,72],[-21,22],[-26,71],[45,14],[80,41],[40,12],[24,-15],[30,12],[120,-26],[63,55],[19,-4]],[[3420,706],[-77,5],[16,62],[-59,6],[-23,19],[-24,-25],[-84,69],[-51,11],[-57,36],[-32,-13],[-25,-76]],[[1938,1789],[65,27],[70,-14],[94,16],[125,-45],[85,-19],[70,3],[27,-9],[13,38],[43,-25],[50,36],[54,75],[42,9],[17,18],[42,-9],[0,-43],[44,-26],[31,3],[10,34],[44,14],[3,29]],[[2867,1901],[34,7],[15,-36],[22,-3],[34,68],[57,4],[0,-69],[21,-26],[75,47],[27,-18],[-29,-166],[64,-27],[96,18]],[[3427,480],[-4,-95],[-23,-15],[-91,28],[-158,-29],[-11,-24]],[[379,3747],[260,8],[140,8],[611,20],[725,24]],[[2115,3807],[-146,-233],[123,-1]],[[2092,3573],[-31,-53],[-58,-40],[-23,-53],[4,-98],[-13,-95],[52,33],[15,-54],[208,-31],[34,0],[104,-18],[47,-15],[141,-88],[-24,-14],[-11,-51],[17,-36],[84,-47],[63,-85],[40,7],[32,-18],[25,19],[48,-4],[62,14],[9,-57],[20,-34],[-8,-96],[-15,-68],[-28,-78],[-59,-63],[44,-20]],[[2871,2430],[-32,-47],[-81,-161],[-7,-47],[-35,-75],[-12,-63],[37,-56],[43,-84],[22,-9],[37,24],[24,-11]],[[1529,1873],[-8,49],[-27,49],[-37,13],[17,116],[-6,28],[17,41],[-11,27],[-65,43],[-16,-4],[-43,35],[-38,55],[14,38],[-86,5],[-23,-16],[-284,-2],[-90,3],[-285,-2],[-364,1],[-137,1],[-57,6],[305,1117],[74,271]],[[2871,2430],[29,24],[82,34],[53,-11],[49,-49],[45,12],[83,37],[48,3],[79,-15],[-11,-91],[-29,-91],[2,-43],[45,-34],[29,1],[48,83],[46,-27],[54,2],[-14,100],[45,61],[21,3],[65,75],[46,25],[49,-11],[83,25],[28,-2],[126,-49]],[[3972,2492],[-62,-38],[-25,-64],[-26,-12],[-13,-44],[-43,-46],[27,-29],[52,-5],[27,-41],[15,-78],[43,-11],[71,14],[58,-18],[36,-49]],[[4132,2071],[13,-60],[-58,-17],[-83,37]],[[4645,3574],[-2,3],[-530,297],[17,53],[42,47],[3,47],[-17,59],[19,46],[-30,52],[1,29],[41,34],[-79,42],[-35,41],[-136,-114],[-59,-43],[-11,47],[-61,51],[-75,81],[-46,19],[-36,-12],[-33,-36],[-41,-3],[-28,21]],[[3549,4335],[5,91],[9,42],[-60,122],[-63,74],[-3,90],[37,19],[55,3],[37,42]],[[3566,4818],[56,21],[17,-5],[51,24],[39,-8],[96,-42],[27,6],[22,39],[31,5],[52,32],[68,-11],[24,5],[77,57],[45,3],[33,-35],[-31,-55],[22,-24],[91,-1],[8,-16],[-13,-70],[62,18],[29,-5],[52,-54],[-4,-69],[90,-5],[47,-10],[24,-27],[2,-46],[36,7],[7,59],[36,-1],[-8,-58],[56,-21],[2,-42]],[[4712,4489],[-24,-47],[11,-25],[84,-14],[14,-35],[27,-23],[35,-8],[143,21],[94,-27],[-46,-183]],[[4712,4489],[21,-46],[25,0],[55,43],[67,4],[36,-30],[80,72],[43,19],[-27,38],[44,39],[64,0],[21,17],[-9,38],[-35,38],[63,36],[35,-44],[17,-55]],[[5212,4658],[62,-9],[9,42],[59,7],[55,-64],[53,20],[34,-8],[73,2]],[[5557,4648],[-15,-39],[7,-41],[-51,-50]],[[5498,4518],[-23,-56],[-16,-5],[-51,-68],[-32,-1],[-15,-24],[-82,-72],[32,-30],[48,-15],[6,-120]],[[5836,3947],[3,86],[-7,28],[-64,95],[-31,-5],[-70,36]],[[5667,4187],[33,17],[78,76],[72,57],[-19,23]],[[5831,4360],[24,5]],[[5855,4365],[47,-82],[-10,-29],[-7,-103],[35,-37],[-25,-74],[-22,-21],[9,-37],[-19,-51]],[[5266,5960],[-16,-37],[-5,-73],[-35,-35],[-7,-72],[83,-63],[1,-64]],[[5287,5616],[-9,-30],[9,-78],[-22,2]],[[5265,5510],[-98,-7],[-60,-20],[-87,-73],[-53,-36],[-37,-81],[13,-48],[-92,-99],[-56,14],[-26,22],[-32,80],[-41,-15],[-50,1],[-54,17],[-42,-2],[-17,-82],[-32,-86],[-18,-13],[-59,29],[-84,13],[-34,71],[-110,-33],[-11,-43],[-41,0],[-9,-22],[-44,-10],[-29,25],[-10,39],[-27,19],[-65,75],[-7,38],[-166,-9],[-78,0],[-16,-18],[-96,-147]],[[3597,5109],[-16,24],[-73,18],[-53,34],[-27,52],[-39,6],[-31,49],[-43,17],[-17,62],[-41,39],[-36,80],[-13,64],[412,339],[463,380],[394,320],[65,-108],[48,-124],[31,-94],[64,-35],[23,33],[110,-51],[24,-124],[51,-56],[37,21],[68,-20],[45,-38],[17,57],[34,14],[23,-11],[54,-96],[69,8],[26,-9]],[[5212,4658],[29,291],[-6,160],[6,27],[1,160],[27,28],[-10,28],[14,31],[-14,26],[6,101]],[[5287,5616],[39,4],[37,-27],[69,-15],[21,-38],[35,-28],[32,14],[86,-19],[78,11],[31,-112],[43,-86],[75,-105],[44,-25],[16,38],[70,1],[100,20],[72,-3]],[[6135,5246],[20,-63],[1,-47],[-53,-23],[-37,-35],[-12,-45],[25,-50],[0,-50],[17,-82],[1,-60],[-78,-101],[-32,-74],[-25,-32]],[[5962,4584],[-7,25],[-81,101],[-29,-8],[-30,24],[-60,-1],[-7,-45],[-32,-8],[-24,-44],[-79,-10],[-56,30]],[[4290,2002],[-17,33],[-40,25],[-25,0],[-46,78],[-30,-67]],[[3972,2492],[48,29],[72,0],[71,-23],[34,-34],[17,138],[-15,83],[6,57]],[[4205,2742],[158,2]],[[4363,2744],[-38,-116],[47,-20],[-18,-40],[-48,-32],[-30,-75],[45,-1],[-49,-151],[112,-21],[-14,-78]],[[4816,3516],[18,-29],[-35,-19],[27,-28],[29,7],[32,-29],[22,-39],[87,-29],[13,-73],[-58,-121],[-10,-36],[-50,-110],[-42,-74],[-35,-90],[-39,-64],[-6,-26]],[[4769,2756],[-261,84]],[[4508,2840],[15,44],[-28,135],[81,6],[21,146],[60,116],[41,34],[4,28],[-23,26],[-113,16],[15,81],[64,102]],[[4956,3513],[-12,-27],[-29,-4],[-38,39],[79,-8]],[[4363,2744],[112,1],[33,95]],[[4769,2756],[4,-14],[-23,-83],[-43,-104],[-29,-89],[-53,-126],[-24,-37],[-57,-131]],[[3904,306],[-58,-74],[-46,-7],[-36,-27],[-56,17],[-11,19],[-49,13],[-35,-23],[-67,15],[-28,35],[5,42],[-33,24]],[[2932,212],[-40,-12],[-65,-63],[-90,-135],[-2,-2],[-76,42],[-30,-6],[-31,-35],[-29,8],[46,130],[-17,53],[-30,-1],[-46,28],[-20,35],[13,62],[-17,26],[-34,11],[-14,86],[-50,24]],[[2092,3573],[276,8],[70,-76],[26,-9],[126,-99],[82,-60],[79,-110],[46,-54],[24,5],[105,-7],[13,31],[92,-20],[92,-49],[30,-49],[47,29],[40,-27],[69,14],[23,-60],[45,12],[35,41],[46,1],[54,-26],[40,18],[64,48],[31,-28],[7,-89],[21,3],[84,-20],[55,-22],[39,7],[26,-14],[72,-3],[32,9],[37,40],[81,10],[0,-279],[104,-6]],[[2115,3807],[95,54],[-24,-114],[512,213],[216,94],[185,73],[279,127],[171,81]],[[5498,4518],[63,-73]],[[5561,4445],[-3,-117],[59,-2],[-21,-45],[1,-35],[-33,-13],[-36,-97],[29,0],[110,51]],[[5561,4445],[17,34],[24,-3],[114,-63],[47,-15],[32,-32],[36,-6]],[[5266,5960],[110,50],[67,-13],[22,40],[91,63],[11,65],[-11,61],[5,46],[26,77],[140,-104],[-1,-109],[7,-32],[107,-31],[23,-34],[31,13],[85,-16],[31,37]],[[6010,6073],[19,31],[57,12],[5,-87],[-72,7],[-1,-61],[47,21],[-12,-84],[5,-35],[-35,1],[-4,-207],[-20,-71],[22,-75],[81,1],[-3,-18],[-71,-2],[28,-93],[0,-38],[52,10],[10,36],[25,1],[34,36],[42,104],[35,-3],[45,31],[44,-24],[45,-3],[50,27],[0,25],[34,33],[42,16],[16,-62],[-19,-41],[-27,20],[-66,-59],[-92,-24],[-25,-27],[-24,-54],[0,-51],[-85,-34],[-32,-30],[-25,-56]],[[379,3747],[43,175],[146,549],[143,530],[43,146],[47,37],[228,257],[-3,42],[45,29],[483,534],[93,100],[327,361],[360,390],[231,256],[585,648],[199,227],[258,287],[352,398],[311,342],[290,331],[415,-579],[63,-90],[99,-142],[415,-581],[400,-558],[243,-342],[-96,-14],[9,-63],[-8,-67],[43,-17],[-10,-36],[10,-45],[-57,13],[8,-50],[22,-30],[-14,-37],[-42,6],[16,-41],[-23,-34],[43,-38],[32,7],[63,-116],[-19,-9],[3,-67],[-25,-51],[11,-22],[-30,-70],[-15,-14],[-20,-67],[-33,-19],[-32,25],[-4,-88],[-29,-14],[-7,-55],[19,-8]],[[3597,5109],[-112,-200],[-1,-41],[67,0],[15,-50]],[[6191,7085],[1,-77],[-30,2],[1,40],[28,35]],[[5962,4584],[-37,-38],[-43,-61],[-29,-71],[2,-49]]],"transform":{"scale":[0.00017674806705880074,0.00017952310922550465],"translate":[39.08697359406405,-3.994093210506562]},"objects":{"wards.003.final":{"type":"GeometryCollection","geometries":[{"arcs":[[0,1,2,3,4]],"type":"Polygon","properties":{"code":"0057","name":"Mnarani","constituency_code":"011","county_code":"003"}},{"arcs":[[-1,5,6,7]],"type":"Polygon","properties":{"code":"0058","name":"Junju","constituency_code":"012","county_code":"003"}},{"arcs":[[8,9,10,11]],"type":"Polygon","properties":{"code":"0067","name":"Mwawesa","constituency_code":"014","county_code":"003"}},{"arcs":[[-10,12,13,14,15,16]],"type":"Polygon","properties":{"code":"0068","name":"Ruruma","constituency_code":"014","county_code":"003"}},{"arcs":[[17,18,19]],"type":"Polygon","properties":{"code":"0052","name":"Sokoni","constituency_code":"011","county_code":"003"}},{"arcs":[[20,21,22,23,24,25]],"type":"Polygon","properties":{"code":"0054","name":"Dabaso","constituency_code":"011","county_code":"003"}},{"arcs":[[-22,26,27,28]],"type":"Polygon","properties":{"code":"0056","name":"Watamu","constituency_code":"011","county_code":"003"}},{"arcs":[[-2,-8,29,30,31]],"type":"Polygon","properties":{"code":"0059","name":"Mwarakaya","constituency_code":"012","county_code":"003"}},{"arcs":[[-3,-32,32,33,34]],"type":"Polygon","properties":{"code":"0061","name":"Chasimba","constituency_code":"012","county_code":"003"}},{"arcs":[[-7,35,36,37,38,39,-30]],"type":"Polygon","properties":{"code":"0062","name":"Mtepeni","constituency_code":"012","county_code":"003"}},{"arcs":[[-14,40,41,42]],"type":"Polygon","properties":{"code":"0063","name":"Mariakani","constituency_code":"013","county_code":"003"}},{"arcs":[[-15,-43,43,44,45,46]],"type":"Polygon","properties":{"code":"0064","name":"Kayafungo","constituency_code":"013","county_code":"003"}},{"arcs":[[-16,-47,47,-33,-31,-40,48]],"type":"Polygon","properties":{"code":"0065","name":"Kaloleni","constituency_code":"013","county_code":"003"}},{"arcs":[[-34,-48,-46,49,50]],"type":"Polygon","properties":{"code":"0066","name":"Mwanamwinga","constituency_code":"013","county_code":"003"}},{"arcs":[[-11,-17,-49,-39,51]],"type":"Polygon","properties":{"code":"0069","name":"Kambe/ribe","constituency_code":"014","county_code":"003"}},{"arcs":[[52,53,54,55,-50,-45,56]],"type":"Polygon","properties":{"code":"0072","name":"Bamba","constituency_code":"015","county_code":"003"}},{"arcs":[[-4,-35,-51,-56,57,58,59]],"type":"Polygon","properties":{"code":"0073","name":"Jaribuni","constituency_code":"015","county_code":"003"}},{"arcs":[[-25,60,61,62,63]],"type":"Polygon","properties":{"code":"0075","name":"Jilore","constituency_code":"016","county_code":"003"}},{"arcs":[[-26,-64,64,65,66,67]],"type":"Polygon","properties":{"code":"0076","name":"Kakuyuni","constituency_code":"016","county_code":"003"}},{"arcs":[[-28,68,69,70,71]],"type":"Polygon","properties":{"code":"0079","name":"Shella","constituency_code":"016","county_code":"003"}},{"arcs":[[72,73,74,75]],"type":"Polygon","properties":{"code":"0080","name":"Marafa","constituency_code":"017","county_code":"003"}},{"arcs":[[-66,76,-74,77,78,79]],"type":"Polygon","properties":{"code":"0081","name":"Magarini","constituency_code":"017","county_code":"003"}},{"arcs":[[-18,80,-59,81,82,83]],"type":"Polygon","properties":{"code":"0053","name":"Kibarani","constituency_code":"011","county_code":"003"}},{"arcs":[[[-24,84,85,86]],[[87]]],"type":"MultiPolygon","properties":{"code":"0055","name":"Matsangoni","constituency_code":"011","county_code":"003"}},{"arcs":[[-19,-84,88,-86,89]],"type":"Polygon","properties":{"code":"0051","name":"Tezo","constituency_code":"011","county_code":"003"}},{"arcs":[[-37,90]],"type":"Polygon","properties":{"code":"0060","name":"Shimo La Tewa","constituency_code":"012","county_code":"003"}},{"arcs":[[91,-41,-13,-9]],"type":"Polygon","properties":{"code":"0070","name":"Rabai/kisurutini","constituency_code":"014","county_code":"003"}},{"arcs":[[-55,92,-82,-58]],"type":"Polygon","properties":{"code":"0071","name":"Ganze","constituency_code":"015","county_code":"003"}},{"arcs":[[-54,93,-61,-87,-89,-83,-93]],"type":"Polygon","properties":{"code":"0074","name":"Sokoke","constituency_code":"015","county_code":"003"}},{"arcs":[[-21,-68,94,95,-69,-27]],"type":"Polygon","properties":{"code":"0077","name":"Ganda","constituency_code":"016","county_code":"003"}},{"arcs":[[-70,-96,96]],"type":"Polygon","properties":{"code":"0078","name":"Malindi Town","constituency_code":"016","county_code":"003"}},{"arcs":[[-73,97,98,-78]],"type":"Polygon","properties":{"code":"0082","name":"Gongoni","constituency_code":"017","county_code":"003"}},{"arcs":[[[-53,99,-98,-76,100,-62,-94]],[[101]]],"type":"MultiPolygon","properties":{"code":"0083","name":"Adu","constituency_code":"017","county_code":"003"}},{"arcs":[[-63,-101,-75,-77,-65]],"type":"Polygon","properties":{"code":"0084","name":"Garashi","constituency_code":"017","county_code":"003"}},{"arcs":[[-67,-80,102,-71,-97,-95]],"type":"Polygon","properties":{"code":"0085","name":"Sabaki","constituency_code":"017","county_code":"003"}}]}}}