{"type":"Topology","arcs":[[[5830,2764],[271,-59]],[[6101,2705],[0,-110],[1,-371],[63,-1]],[[6165,2223],[-1,-138],[-59,2],[-40,-5],[-29,-17]],[[6036,2065],[-34,10],[-14,-19],[-59,-11],[-15,17],[22,32],[21,63],[-3,38],[-15,9],[-26,2],[-9,9],[-60,-7],[-26,39],[5,9],[-5,46],[-9,21],[-24,95],[22,49],[-41,9],[-12,9],[-8,47],[-23,8],[-27,43],[-21,4],[10,52]],[[5685,2639],[-29,12],[0,13],[31,21],[18,-3],[18,17],[26,11],[17,19],[29,6],[1,12],[33,5],[1,12]],[[5830,2764],[-68,16],[-10,51],[-247,29],[-3,62],[-524,-88],[-169,-25],[0,557],[0,437],[1,363]],[[4810,4166],[312,-1],[67,1],[243,0],[43,-112],[35,-175],[380,-3]],[[5890,3876],[0,-35],[12,-80],[-3,-37],[-11,-53],[43,-82],[-8,-55],[25,-33],[29,-81],[23,-122],[78,-445],[19,-100],[4,-48]],[[5496,1689],[-245,345],[-59,84]],[[5192,2118],[60,-1],[12,337],[399,177],[22,8]],[[6036,2065],[3,-20],[26,-23],[24,-7],[8,-38],[-27,-16],[-5,-48],[31,-14],[-31,-38],[-40,-60],[-65,-107],[-270,2],[-194,-7]],[[2828,200],[2,-26],[-134,-152],[-28,-22],[-4,7],[-42,-2],[-25,16],[-51,-6],[-16,19],[-12,-1],[-16,-27],[-20,2],[-3,20],[-37,47],[-22,-12],[-16,23],[-16,-3],[-14,42],[-3,29],[-24,2],[-34,-14],[-34,-43],[-44,-17],[-7,-33],[-23,6],[-8,30],[-48,2],[6,7],[-39,74],[-179,254],[-427,580],[-205,278],[-201,274],[-208,280],[-213,292],[28,2],[7,-16],[33,-5],[64,1],[78,17],[40,17],[20,24],[33,16],[13,20],[53,38],[3,26],[13,18],[64,10],[15,17],[25,9],[51,-1],[11,7],[5,26],[28,15],[155,296],[290,556],[4,1]],[[1716,3220],[302,-821],[397,-1075],[376,-1021],[37,-103]],[[5192,2118],[-36,53],[-245,344],[-171,-196],[-183,-203],[-208,-236],[-152,-171],[-117,-134],[-345,-385],[-136,-152],[-212,-231],[-193,-214],[-55,-60],[-285,-316],[-26,-17]],[[1716,3220],[119,294],[5,0],[130,258]],[[1970,3772],[86,-29],[13,-19],[49,-12],[20,-50],[34,-25],[24,-8],[21,-17],[33,-17],[55,-15],[78,-52],[19,9],[23,-21],[60,-6],[46,-15],[18,3],[8,40],[0,39],[35,94],[18,38],[74,108],[20,35],[39,21],[22,54],[27,28],[95,70],[16,25],[13,7],[102,108],[466,0],[354,0],[405,0],[317,1]],[[4560,4166],[250,0]],[[6523,1773],[-7,31],[-12,14],[4,22],[26,-5],[14,15],[36,20],[22,2],[34,-9],[18,4],[6,28],[13,25],[44,2],[1,14],[-17,14],[-48,-1],[-6,23],[-14,18],[-22,43],[-34,7],[3,20],[-17,46],[0,21]],[[6567,2127],[30,6],[26,-18],[10,14],[77,27],[38,30],[5,21],[-10,9],[545,-162],[6,-2],[200,-59],[244,39],[23,-11],[-33,-11],[-107,-66],[-76,-56],[-24,-30],[-13,2],[-61,-77],[-32,-29],[-103,-66],[-37,5],[-14,10],[-75,14],[-32,26],[-89,29],[-57,34],[-40,15],[23,11],[17,-6],[12,15],[3,37],[-19,15],[-22,-11],[-47,29],[-3,-37],[-14,-2],[-8,35],[-69,-33],[-21,-1],[-22,-34],[-12,-43],[-20,0],[-19,-23],[19,-25],[12,-1],[50,20],[19,0],[59,34],[8,11],[41,-14],[17,4],[23,-29],[-51,-1],[-51,-6],[-80,-19],[-84,-29],[-2,9],[-139,-60],[-73,-36],[-62,-40],[-3,6],[65,38],[4,24],[37,2],[15,19],[-58,41],[-14,37],[24,15]],[[6165,2223],[267,-4],[-4,-21],[22,-26],[43,-15],[21,-19],[25,6],[16,-19],[12,2]],[[6523,1773],[-46,-20],[-2,-29],[-54,-4],[-1,-42],[-13,-18],[32,-26],[-11,-30],[-34,-33],[-32,-15],[1,-18],[-99,-68],[-39,-33],[-104,-98],[-24,-4],[-18,-15],[-66,-76],[-72,-105],[-21,-47],[-45,63],[-143,203],[-236,331]],[[5616,5152],[-151,-3],[-22,8],[-9,20],[-16,7],[-39,-33],[-6,-30],[-62,2],[-1,17],[-24,15],[-11,23],[-25,13],[-38,47]],[[5212,5238],[-18,50],[-19,19],[-2,14],[13,44],[-192,298],[-19,50],[-15,76],[-22,97]],[[4938,5886],[-6,52],[-32,73],[-16,53],[-28,62],[187,5]],[[5043,6131],[67,-2],[81,-58],[63,30],[145,61]],[[5399,6162],[36,-104],[7,-51],[20,-1],[-3,-76],[-17,-60],[-8,-44],[2,-38],[37,-70],[8,-59],[26,-113],[31,-128],[17,-75],[7,-84],[9,-25],[37,-62],[8,-20]],[[4560,4166],[-22,260],[-26,234],[-34,428]],[[4478,5088],[22,7],[65,8],[101,-15],[10,-23],[40,-27],[13,4],[25,-11],[73,25],[23,-3],[42,20],[29,-12],[40,16],[25,-4],[21,-28],[37,-5],[73,2],[110,-4],[-48,-92],[15,-78],[22,-74],[306,-7],[31,21],[58,17],[100,13]],[[5711,4838],[42,-114],[37,-72],[-5,-56],[4,-43],[15,-40],[24,-47],[9,-27],[-6,-31],[-20,-37],[-14,-45],[-1,-39],[11,-114],[2,-54],[10,-30],[45,-55],[23,-49],[7,-35],[-4,-74]],[[5616,5152],[9,-28],[10,-68],[17,-55],[24,-62],[19,-40],[16,-61]],[[4478,5088],[-8,118],[69,0],[38,6],[37,-16],[17,2],[18,20],[18,7],[47,-2],[51,30],[36,-20],[36,8],[44,2],[73,-26],[16,6],[58,-24],[27,-17],[24,8],[21,-13],[34,2],[23,20],[46,27],[9,12]],[[1970,3772],[20,40],[-99,365],[-89,327],[19,20],[53,29],[20,-6],[25,16],[19,23],[-10,147],[-27,353],[-21,453],[-18,404],[-3,28],[-12,3],[-4,67],[-27,529],[-7,101]],[[1809,6671],[314,-54],[110,-20],[223,-40],[260,-41],[258,-48],[437,-83],[236,-46],[393,-81],[66,-7],[387,-31],[11,-25],[147,-310],[287,1]],[[1688,9815],[1,-14],[43,-26],[32,-9],[17,-28],[6,-59],[-35,-17],[6,-39],[11,-8],[8,-26],[-8,-12],[-16,-74],[-21,7],[-48,-16],[-6,-20],[7,-19],[-25,-21],[-5,-32],[16,-15],[-16,-12],[-6,-18],[19,-8],[5,-38],[-12,-32],[-13,-20],[287,57],[193,40],[246,44],[377,70],[50,8],[8,20],[16,12],[13,-54],[20,-37],[2,-25],[-8,-19],[-21,-13],[-26,-54],[51,-81],[29,-51],[-10,-52],[-14,-42],[-9,-64],[-8,-35],[-8,-68],[-6,-84],[-4,-25],[-8,-111],[4,-48],[-11,-177],[16,-37],[29,-32],[34,-26],[33,-54],[20,-9],[22,-28],[42,-18],[33,-21],[30,-43],[7,-33],[15,-39],[51,-35],[30,-41],[46,-45],[39,-19],[51,25],[13,11],[39,7]],[[3361,8033],[60,-25],[41,-11],[20,-13],[80,-11],[32,-21],[44,14],[37,5],[56,-39],[3,-37],[16,-28]],[[3750,7867],[-149,-23],[-125,-13],[-131,-19],[-287,-44],[-103,-23]],[[2955,7745],[-513,-116],[-131,-32],[-191,-40],[-157,-37],[-243,-50],[-271,-53]],[[1449,7417],[-6,7],[-139,289],[-209,352],[-253,419],[-45,85],[-281,473],[-31,49],[-102,169],[-23,42],[-75,124],[-234,395],[-51,84],[1,3],[26,-12],[37,5],[44,-38],[20,-1],[77,29],[16,14],[7,34],[45,-10],[24,12],[39,-7],[38,27],[-6,33],[37,10],[4,37],[22,40],[66,-5],[42,-19],[28,-7],[28,-20],[29,14],[14,-1],[43,-31],[47,-50],[30,5],[28,21],[90,-30],[14,14],[-2,24],[16,5],[14,-23],[70,-45],[37,-6],[39,-27],[20,5],[45,-15],[31,14],[14,-3],[48,-33],[25,-1],[25,-13],[32,-7],[67,-28],[19,5],[38,-9],[35,15],[30,-12],[39,-4],[47,1],[38,11],[42,30],[29,-41]],[[5043,6131],[0,92],[-13,24],[-26,13],[-8,16],[-2,29],[-75,92],[-16,30],[0,31],[8,35],[15,33],[-47,-14],[-36,8],[-104,93],[-10,3],[-83,47],[-36,60],[-219,-3],[-58,1],[-97,5],[-29,-8],[-83,-13],[-75,15],[-109,11],[-34,30],[-14,41],[-15,18],[-104,67],[-64,14],[-11,13],[3,44],[-21,63],[-27,41],[-19,38],[-16,16],[-54,29],[-58,15],[-63,11],[-27,18],[-66,57],[-22,25],[-12,44],[8,40],[-5,26],[-34,38],[-30,23],[-37,38],[-28,40],[-22,20],[-45,52],[-33,27],[-20,4],[-115,122]],[[3750,7867],[95,21],[25,2],[327,72],[217,45],[260,59]],[[4674,8066],[6,-14],[39,-36],[18,-30],[6,-13],[6,-53],[19,-35],[21,-28],[6,-27],[2,-65],[22,-29],[13,-36],[-1,-19],[-16,-54],[5,-12],[44,-60],[21,-42],[20,-73],[39,-56],[7,-43],[-2,-46],[8,-72],[-8,-30],[5,-23],[27,-25],[21,-34],[29,-93],[20,-30],[12,-34],[4,-32],[-2,-42],[-11,-41],[0,-20],[36,-53],[34,-67],[20,-49],[115,-214],[16,-56],[17,-25],[34,-65],[66,-110],[7,-18]],[[1809,6671],[-100,208],[-245,506],[-15,32]],[[1688,9815],[30,-13],[12,-1],[26,26],[39,14],[26,23],[38,21],[0,37],[52,38],[29,5],[24,-11],[20,16],[14,31],[8,2],[23,-15],[14,-20],[34,-10],[18,9],[48,10],[27,-12],[8,-28],[38,-30],[19,-35],[34,-24],[14,-29],[21,-27],[47,-30],[-5,-28],[39,9],[10,-13],[-11,-23],[7,-18],[30,-6],[12,20],[22,14],[49,-6],[26,-25],[23,2],[36,-20],[58,2],[10,27],[17,13],[17,-18],[41,-23],[23,4],[49,-16],[43,6],[20,12],[27,3],[30,-12],[11,17],[15,0],[24,-18],[25,17],[6,-13],[28,-22],[8,-15],[-5,-29],[31,0],[19,-26],[18,25],[18,9],[42,-39],[21,-27],[21,-18],[13,-23],[27,-9],[18,23],[37,-23],[33,18],[28,-3],[8,-11],[29,-30],[24,-36],[40,3],[6,-28],[37,-10],[16,-59],[11,-13],[33,2],[9,-20],[23,4],[24,-33],[4,-28],[19,-15],[-3,-28],[25,-4],[-17,-29],[-6,-23],[11,-10],[26,17],[10,24],[35,-29],[20,17],[28,-35],[7,-37],[-4,-30],[19,-2],[7,-24],[30,-5],[35,-27],[3,-23],[14,-1],[15,-22],[20,-2],[-6,-37],[6,-47]],[[3920,8879],[-15,-13],[8,-31],[28,-132],[35,-67],[29,-45],[-30,0],[-21,-20],[-28,-5],[-35,3],[-25,-12],[-10,-19],[-34,-4],[-32,-26],[-30,-16],[-119,4],[-45,-34],[-13,-4],[-82,-43],[-140,-382]],[[3920,8879],[17,-13],[-7,-17],[6,-23],[26,-8],[-10,-21],[8,-18],[27,-11],[-13,-14],[5,-40],[-11,-38],[8,-10],[26,2],[1,-35],[25,10],[3,-17],[21,-13],[-22,-32],[7,-29],[-6,-24],[6,-21],[15,-14],[20,0],[4,-19],[-17,-19],[22,-12],[100,42],[41,23],[26,1],[27,-26],[21,-41],[37,-25],[25,-42],[-3,-36],[10,-6],[65,10],[38,-15],[49,-42],[116,-68],[29,-36],[11,-26],[3,-34],[-6,-27],[4,-29]]],"transform":{"scale":[0.000299876439260171,0.00030258587387816044],"translate":[38.420249895798655,-3.0701081220446396]},"objects":{"wards.004.final":{"type":"GeometryCollection","geometries":[{"arcs":[[0,1,2,3,4]],"type":"Polygon","properties":{"code":"0086","name":"Garsen Central","constituency_code":"018","county_code":"004"}},{"arcs":[[-1,5,6,7]],"type":"Polygon","properties":{"code":"0087","name":"Garsen North","constituency_code":"018","county_code":"004"}},{"arcs":[[[8,9,-4,10]],[[11,12]]],"type":"MultiPolygon","properties":{"code":"0088","name":"Garsen South","constituency_code":"018","county_code":"004"}},{"arcs":[[13,-13,14,15,16,-6,-5,-10]],"type":"Polygon","properties":{"code":"0089","name":"Garsen West","constituency_code":"018","county_code":"004"}},{"arcs":[[17,18]],"type":"Polygon","properties":{"code":"0090","name":"Kipini East","constituency_code":"018","county_code":"004"}},{"arcs":[[-11,-3,19,-18,20]],"type":"Polygon","properties":{"code":"0091","name":"Kipini West","constituency_code":"018","county_code":"004"}},{"arcs":[[21,22,23,24,25]],"type":"Polygon","properties":{"code":"0092","name":"Chewani","constituency_code":"019","county_code":"004"}},{"arcs":[[-7,-17,26,27,28]],"type":"Polygon","properties":{"code":"0093","name":"Kinakomba","constituency_code":"019","county_code":"004"}},{"arcs":[[-22,29,-28,30]],"type":"Polygon","properties":{"code":"0094","name":"Mikinduni","constituency_code":"019","county_code":"004"}},{"arcs":[[-16,31,32,-23,-31,-27]],"type":"Polygon","properties":{"code":"0095","name":"Wayu","constituency_code":"019","county_code":"004"}},{"arcs":[[33,34,35,36,37]],"type":"Polygon","properties":{"code":"0096","name":"Bangale","constituency_code":"020","county_code":"004"}},{"arcs":[[-25,38,-36,39,40]],"type":"Polygon","properties":{"code":"0097","name":"Chewele","constituency_code":"020","county_code":"004"}},{"arcs":[[-24,-33,41,-37,-39]],"type":"Polygon","properties":{"code":"0098","name":"Hirimani","constituency_code":"020","county_code":"004"}},{"arcs":[[-34,42,43]],"type":"Polygon","properties":{"code":"0099","name":"Madogo","constituency_code":"020","county_code":"004"}},{"arcs":[[-35,-44,44,-40]],"type":"Polygon","properties":{"code":"0100","name":"Sala","constituency_code":"020","county_code":"004"}}]}}}