{"type":"Topology","arcs":[[[3914,1558],[-16,11],[-13,54],[34,-8],[-5,-57]],[[4286,1833],[28,-5],[28,-46],[-42,-28],[-37,19],[-13,37],[36,23]],[[3959,1885],[29,-33],[-54,-38],[-4,59],[29,12]],[[4711,2169],[6,-64],[25,-20],[26,18],[34,-10],[12,-48],[-58,-14],[-69,33],[0,50],[24,55]],[[4605,2402],[71,8],[58,-22],[-25,-40],[19,-35],[27,28],[28,-15],[-5,-27],[78,-31],[9,-34],[-38,-71],[-28,3],[-29,-23],[-20,10],[-20,59],[-66,26],[-54,4],[-83,-105],[5,-32],[28,-7],[29,-70],[-25,-45],[40,-22],[-13,-52],[-71,-21],[-37,22],[-27,51],[-1,60],[-30,23],[-3,-84],[-109,-46],[-3,82],[-11,53],[-22,12],[-56,1],[-49,-42],[-33,-15],[-12,-26],[-42,4],[-14,-25],[45,-38],[-8,-25],[-82,-8],[-3,17],[-60,28],[1,45],[-15,32],[-60,22],[0,29],[30,36],[67,25],[33,-4],[10,-44],[37,-47],[-10,79],[12,28],[69,-22],[19,25],[98,65],[53,-5],[31,-17],[45,57],[32,7],[40,71],[-11,32],[8,33],[42,10],[31,-9],[24,23],[10,38],[43,-13],[3,-26]],[[5106,1647],[-69,-79],[-23,10],[46,53],[18,45],[39,33],[15,36],[92,107],[16,-18],[-73,-83],[-18,-44],[-43,-60]],[[5078,2673],[19,-4],[22,-50],[-45,9],[4,45]],[[5076,2698],[6,56],[41,-55],[-47,-1]],[[5463,2701],[-4,59],[50,45],[36,55],[16,7],[30,53],[14,-25],[-22,-35],[-33,-25],[-43,-78],[-44,-56]],[[6310,3688],[-31,-47],[-41,-20],[-19,-34],[-77,-75],[-18,-24],[-24,20],[68,70],[2,21],[39,29],[61,31],[15,37],[25,-8]],[[5183,3364],[68,194],[137,206],[275,333],[168,211],[203,234],[110,121]],[[6144,4663],[776,79],[27,-18],[-18,-46],[-92,-79],[-7,-18],[-62,-56],[-74,-97],[-12,-28],[-44,-60],[-41,-87],[0,-18],[-83,-51],[-31,-57],[-47,-38],[-30,-52],[-49,-48],[-43,-70],[-62,-34],[-19,-35],[2,-56],[-88,-95],[-33,-44],[-35,-25],[5,-38],[-49,-65],[-22,45],[-44,0],[31,-57],[41,0],[7,-22],[-45,-25],[-110,-123],[-31,-93],[-39,-5],[-34,-30],[-34,-65],[-41,-47],[-6,-57],[-45,-35],[-47,-13],[-36,-27],[1,-19],[-83,27],[9,29],[-21,87],[-37,-5],[-55,26],[-40,-26],[-36,-54],[-37,-13],[-16,64],[72,49],[14,34],[-13,38],[-60,15],[13,46],[-28,28],[-30,5],[-29,-16],[0,48],[-21,28]],[[5183,3364],[-59,-44],[-33,4],[-25,-63],[-24,-5],[-23,-42],[-75,-42],[-4,-30],[-49,-9],[10,-37],[-58,-60],[-82,-62],[-16,-22],[-62,13],[-16,-52],[-79,36],[-6,-28],[-38,-15],[-26,7],[-45,-41],[-26,-1],[-52,-40],[-23,-39],[-13,-61],[-63,-46],[0,-42],[-37,-16],[-49,-90],[-1,-36],[-35,-30],[-19,25],[-29,-51],[-45,5],[10,59],[-14,16],[-87,-14],[-5,61],[-36,28],[29,84],[-17,72],[18,55],[23,10],[-11,50],[6,31],[-5,77],[-31,43],[3,22],[35,32],[57,83],[7,25],[41,27],[3,43],[104,56],[83,68],[22,32],[-1,38],[-25,18],[-3,36],[-30,7],[-15,-22],[2,-41],[-51,-39],[-35,-53],[-68,-21],[-11,25],[-56,-104],[-50,-13],[16,-83],[-24,-9],[-29,21],[-79,-103],[12,-106],[34,-15],[-29,-42],[-3,-50],[20,-34],[-21,-23],[-20,-49],[2,-55],[-35,-37],[-22,-53],[-4,-72],[22,-7],[24,-67],[-12,-28],[8,-97],[-2,-38],[-47,17],[1,-48],[-34,1],[-35,60],[7,34],[23,10],[-11,41],[-30,52],[-54,35],[-21,26],[4,28],[29,6],[3,29],[48,18],[1,46],[-33,-9],[-50,13],[11,48],[-30,65],[-45,16],[-44,-9],[-22,16],[-58,-14],[-21,10],[-25,49],[0,104],[-24,44],[-16,-34],[8,-34],[-30,-23],[-49,11],[17,55],[-29,40],[-8,36],[-48,11],[30,-87],[-69,-1],[-69,41],[-18,32],[-24,-35],[-28,12],[-2,31],[-63,3],[-94,20]],[[2882,3060],[-20,49],[-86,13],[-27,59],[47,236],[-174,481]],[[2622,3898],[648,348],[280,153],[364,37],[948,96],[206,21],[390,46],[379,32],[307,32]],[[4885,2843],[-27,-31],[-28,59],[57,-10],[-2,-18]],[[4897,2972],[44,-3],[-27,-52],[-61,-13],[-60,20],[18,32],[37,25],[49,-9]],[[3739,999],[47,-26],[17,18],[43,-22],[-7,-37],[-45,-49],[-93,-45],[-41,-2],[-46,26],[-15,47],[47,60],[31,5],[30,34],[32,-9]],[[3476,994],[-37,79],[83,22],[43,3]],[[3565,1098],[51,-93],[-31,-41],[-21,22],[-88,8]],[[3895,1413],[16,-10],[10,-69],[44,-82],[12,-52],[-8,-30],[-39,-49],[-27,-50],[-31,7],[-50,-50],[-53,38],[-45,-14],[-45,16],[-49,93],[-50,78],[-37,93],[3,82],[68,-22],[41,-25],[31,-38],[42,-8],[-26,-31],[-5,-82],[41,35],[18,70],[24,25],[38,16],[45,-62],[-24,-17],[-11,-35],[11,-43],[31,8],[10,37],[29,17],[-26,64],[20,16],[-15,35],[7,39]],[[3476,994],[-90,-17],[-82,-45],[-86,-62],[-47,-59],[-53,-51],[-30,0],[3,66],[-4,166],[19,19],[8,46],[50,30],[23,-19],[51,0],[-8,38],[-43,11],[-38,33],[29,23],[48,-3],[15,18],[63,11],[48,-10],[48,18],[18,-6],[50,75],[29,-30],[11,-37],[33,-37],[24,-74]],[[2882,3060],[14,-25],[75,-38],[3,-22],[56,-49],[51,-23],[33,-45],[31,2],[32,-30],[37,19],[25,-6],[78,-69],[45,-26],[11,-19],[38,-5],[3,-46],[-79,-10],[-26,-17],[-64,-4],[-68,-47],[45,-10],[35,21],[74,-23],[12,37],[58,4],[32,-16],[66,38],[44,-21],[-12,-74],[-4,-123],[-39,25],[-29,38],[-21,-35],[6,-34],[35,-25],[-51,-23],[-30,-46],[-49,-30],[19,-23],[84,53],[11,-58],[62,13],[19,-40],[53,-75],[-11,-38],[8,-75],[-9,-46],[2,-76],[12,-84],[18,-12],[-4,-58],[11,-33],[-16,-71],[-2,-63],[20,-80],[3,-74],[10,-53],[-82,52],[-15,58],[-31,0],[-44,30],[3,48],[-26,-1],[-18,-41],[-38,-10],[-11,-27],[43,-16],[-1,-47],[-71,20],[-16,-23],[66,-30],[-1,-31],[-40,-17],[-46,-67],[-46,23],[-34,-7],[-61,-42],[2,58],[-45,30],[-27,-6],[-76,-51],[-2,32],[-36,-6],[26,-75],[-24,-32],[-42,-32],[-31,24],[-50,17],[-5,-39],[-72,8],[-26,13],[-18,44],[-73,47],[-24,63],[-32,13],[-10,40],[-42,24],[-49,68]],[[2514,1522],[14,71],[26,27],[-35,93],[10,57],[-18,49],[11,55],[-20,74],[-14,20],[-2,51],[-29,35],[-43,-1],[-85,87],[-34,-2],[2,86],[-33,3],[-23,96],[-31,28],[-29,-13],[-49,42],[-47,92],[-46,42],[-41,64],[-82,13],[-64,-7],[-21,28],[-16,49],[23,37],[52,33],[13,33],[-16,50],[-73,77],[-69,98],[-14,51],[-65,53],[-41,49],[-23,57],[-77,118]],[[1525,3317],[511,267],[586,314]],[[2960,1104],[-25,-85],[-28,25],[53,60]],[[2416,672],[-128,-105],[45,-77],[-32,-24],[29,-86],[54,-14],[36,-46],[-396,-215]],[[2024,105],[-10,3]],[[2014,108],[-200,316],[-95,153]],[[1719,577],[95,66],[117,54],[17,-1],[116,55],[90,27],[226,103],[90,-165],[-54,-44]],[[2514,1522],[43,-87],[30,-13],[43,-70],[15,-79],[-3,-30],[86,6],[33,-53],[-29,-9],[-4,-78],[-15,-75],[32,-10],[26,-36],[1,-28],[29,-28],[2,-42],[91,-69],[36,0],[91,49],[26,-16],[21,-127],[-61,22],[-58,32],[-77,-65],[-39,21],[4,-50],[42,-45],[-1,-45]],[[2878,597],[-32,-41],[-38,-13],[-51,67],[-68,-67],[-65,60],[-3,25],[-96,-80],[-59,98],[-25,-20],[-25,46]],[[1719,577],[-307,493],[-475,726],[-251,398],[-318,506]],[[368,2700],[20,8],[380,208],[637,339],[120,62],[0,0]],[[2878,597],[36,-41],[-28,-10],[-26,-43],[6,-45],[57,36],[25,66],[21,28],[-2,43],[37,27],[58,-35],[37,0],[44,-90],[-14,-127],[-41,-26],[-63,-62],[-68,-54],[-62,-67],[-25,-46],[-8,-76],[-16,-19],[-88,9],[-16,-14],[-35,18],[-376,-69],[-307,105]],[[2014,108],[-837,286],[16,-16],[-9,-38],[-58,-52],[-118,-48],[-15,-25],[-41,32],[-45,-10],[-18,-4],[-26,33],[-39,-10],[-32,34],[-65,26],[-34,46],[5,36],[-410,8],[-97,2],[0,654],[-2,194],[-5,85],[-29,176],[-121,785],[-34,214],[177,97],[104,54],[87,33]]],"transform":{"scale":[0.00019505959296851528,0.0001716404294473205],"translate":[40.21273726617568,-2.4671378790103806]},"objects":{"wards.005.final":{"type":"GeometryCollection","geometries":[{"arcs":[[[0]],[[1]],[[2]],[[3]],[[4]]],"type":"MultiPolygon","properties":{"code":"0101","name":"Faza","constituency_code":"021","county_code":"005"}},{"arcs":[[[5]],[[6]],[[7]],[[8]],[[9]],[[10,11]]],"type":"MultiPolygon","properties":{"code":"0102","name":"Kiunga","constituency_code":"021","county_code":"005"}},{"arcs":[[[-11,12,13,14]],[[15]],[[16]]],"type":"MultiPolygon","properties":{"code":"0103","name":"Basuba","constituency_code":"021","county_code":"005"}},{"arcs":[[[17]],[[18,19]],[[20]]],"type":"MultiPolygon","properties":{"code":"0104","name":"Shella","constituency_code":"022","county_code":"005"}},{"arcs":[[-19,21]],"type":"Polygon","properties":{"code":"0105","name":"Mkomani","constituency_code":"022","county_code":"005"}},{"arcs":[[[-14,22,23,24]],[[25]]],"type":"MultiPolygon","properties":{"code":"0106","name":"Hindi","constituency_code":"022","county_code":"005"}},{"arcs":[[26,27,28,29]],"type":"Polygon","properties":{"code":"0108","name":"Hongwe","constituency_code":"022","county_code":"005"}},{"arcs":[[-24,30,31,-30,32,33]],"type":"Polygon","properties":{"code":"0107","name":"Mkunumbi","constituency_code":"022","county_code":"005"}},{"arcs":[[-27,-32,34]],"type":"Polygon","properties":{"code":"0110","name":"Bahari","constituency_code":"022","county_code":"005"}},{"arcs":[[-29,35,-33]],"type":"Polygon","properties":{"code":"0109","name":"Witu","constituency_code":"022","county_code":"005"}}]}}}