{"type":"Topology","arcs":[[[556,2544],[-4,2],[0,103],[-37,-24],[-28,-4],[5,30],[-14,20],[1,20],[-67,12]],[[412,2703],[49,18],[-38,233],[-35,194],[366,24],[4,-2]],[[758,3170],[25,-117],[35,-134],[-62,-112],[33,-154],[-21,-166],[-12,-7],[-59,20],[-56,7],[-51,16],[-34,21]],[[758,3170],[17,-4],[30,17],[26,-1],[68,-38],[20,-24],[61,10],[19,44],[0,55]],[[999,3229],[545,-23],[533,-22],[2,-1],[2,-337]],[[2081,2846],[-1,-347],[-55,-2],[2,-194],[57,-2],[0,-171],[-5,-516],[0,-342],[473,-67]],[[2552,1205],[-39,-136],[-60,-304],[-97,-211]],[[2356,554],[-429,255],[-382,228],[-310,185],[-502,299],[-92,196],[-33,136],[-14,38],[-6,58]],[[588,1949],[13,39],[-20,32],[-6,28],[-17,1],[-23,55],[-31,28],[4,15],[-17,20],[-20,3],[-6,18],[7,21],[-9,52],[7,23],[-16,64],[17,28],[-3,43],[5,14],[-11,29]],[[462,2462],[9,3],[80,-5],[0,55],[5,29]],[[3091,2346],[-73,14],[-22,-5],[-84,0],[-50,27]],[[2862,2382],[-14,33],[-12,0]],[[2836,2415],[16,16],[66,14],[19,16],[10,31]],[[2947,2492],[8,27],[57,24],[10,32],[57,36],[33,13]],[[3112,2624],[-4,-37],[6,-40],[12,-28],[-3,-14],[31,-27],[12,-28],[-1,-32],[-94,-11],[20,-61]],[[999,3229],[1,242],[64,5],[17,126],[55,355],[22,152],[89,55],[27,110],[50,209],[140,-53],[23,9],[180,83],[49,24],[110,47],[122,55],[62,27],[14,26],[17,3],[22,19],[52,1],[31,-5],[28,17],[5,27],[34,-30],[63,-27],[251,-153],[35,-27],[82,-83],[81,-102],[72,-63],[71,-101],[93,-111],[97,-80],[34,-16],[42,3],[11,-6],[44,-55],[40,-40],[52,-37],[20,-19],[25,-46],[16,-13]],[[3342,3757],[18,-6],[49,-69],[9,-22],[44,-201],[26,-22],[3,-87],[-4,-30],[-7,-134]],[[3480,3186],[-282,-1],[0,-40],[-11,-68],[1,-68],[-6,-34],[-10,-17],[-24,-86],[-14,-70],[-4,-55],[39,-58],[-13,-18]],[[3156,2671],[-44,-17],[0,-30]],[[2947,2492],[-54,6],[-16,8],[-19,33],[-7,26],[-19,33],[6,21],[-22,28],[18,42],[-13,8],[-71,-2],[-17,3],[-56,-21],[-20,-1],[-20,-25]],[[2637,2651],[-16,24],[-28,11],[-38,69],[-62,-43]],[[2493,2712],[-238,78],[-134,41],[-40,15]],[[2493,2712],[-21,-93],[-43,-158],[13,-51],[14,-21],[26,-21],[33,3],[87,-7],[75,13],[23,-16],[43,-5],[40,-17],[-2,-23],[23,-3],[5,45],[33,-8]],[[2842,2350],[22,-42],[-18,-87],[-13,-17]],[[2833,2204],[-11,-3],[-22,-38],[14,-41],[3,-26],[-16,-41],[-25,-37],[-10,-33],[-34,-50],[0,-18],[-46,-49],[-11,-47],[-23,-21],[3,-29],[50,-97],[0,-39],[38,-85],[63,-196],[30,-114],[26,-78],[-310,43]],[[332,2429],[30,-1],[13,-37],[23,4],[20,-26],[-19,-39],[3,-21],[-31,-24],[-17,64],[-29,28],[1,42],[6,10]],[[353,2445],[-47,0],[0,-29],[-25,19],[0,29]],[[281,2464],[-1,22],[38,2],[12,-22],[23,-21]],[[588,1949],[-15,7],[-64,11],[-32,30],[-92,9],[-28,23],[-19,25],[-17,-1],[-24,27],[-41,0],[-77,-46],[-26,1],[-26,-12],[-32,-3],[-14,-9],[-49,10],[-14,11],[16,32],[-5,14],[27,12],[41,7],[24,25],[6,18],[23,9],[-5,64],[-24,21],[-35,-7],[-41,15],[-45,-12],[4,74],[120,121],[81,72]],[[205,2497],[76,-33]],[[353,2445],[62,8],[13,10],[34,-1]],[[3644,1641],[23,-15],[70,-32],[111,-62],[37,-15],[80,-43],[36,78],[3,68]],[[4004,1620],[25,2],[65,-6],[80,-1],[207,-22],[-22,-38],[21,-51],[67,-95],[50,-62],[70,-105],[256,-262],[167,-175],[125,-125],[103,-99]],[[5218,581],[-66,-17],[-202,-63],[-50,-12],[-152,-48],[-224,-68],[-117,-37],[-498,-149],[-254,-76],[-341,-103]],[[3314,8],[88,150],[45,87],[45,65],[122,210],[80,137],[-24,49],[-170,365],[-71,10],[-6,17],[9,52],[-55,42],[-3,85],[-45,17],[-27,38],[-21,8],[-27,28],[-15,44]],[[3239,1412],[46,29],[150,88],[93,47],[116,65]],[[205,2497],[82,73],[60,6],[16,18],[2,92],[47,17]],[[2862,2382],[-20,-32]],[[2637,2651],[34,-12],[65,1],[33,-29],[32,-103],[-10,-32],[6,-32],[26,-28],[13,-1]],[[3156,2671],[18,-33],[33,-25],[54,-26],[22,-27]],[[3283,2560],[1,-23],[19,-4],[29,-26],[25,8],[19,-8],[1,-39],[119,-55],[6,-6],[38,-87]],[[3540,2320],[35,-12],[61,-13],[0,-20],[-28,6],[-10,-13],[-37,-14],[-30,12],[-18,-30],[-8,-31],[-29,-49]],[[3476,2156],[-15,-21]],[[3461,2135],[-34,16],[-43,29],[-24,5],[-21,18],[-41,-1],[-54,28],[-91,23],[-32,5]],[[3121,2258],[-2,44],[12,29],[-40,15]],[[3239,1412],[-20,79],[7,28],[-14,54],[-11,8],[-11,64],[-82,-24],[-24,44],[-97,197],[-2,164],[49,6],[-32,68],[-4,33]],[[2998,2133],[30,64],[20,9],[-8,18],[14,18],[43,19],[24,-3]],[[3461,2135],[-6,-8],[16,-34],[47,-77],[78,-226],[48,-149]],[[2998,2133],[-22,17],[-1,25],[-81,40],[-11,-18],[-38,-7],[-12,14]],[[3283,2560],[24,55],[28,103],[11,23],[50,15],[25,-18],[39,-15],[30,-1],[14,-29],[43,12],[30,18]],[[3577,2723],[31,-104],[22,-82],[107,21],[83,-10],[68,-34]],[[3888,2514],[-29,-38],[-20,-7],[-40,14],[-20,-18],[-35,-8],[-41,-22],[-75,-53],[-29,-24],[-59,-38]],[[3342,3757],[29,23],[36,-1],[45,27],[16,-21],[30,3],[1,-10],[41,-2],[26,27],[43,-2],[27,7],[25,-17],[62,-24],[84,-4],[40,-31],[19,-7],[48,13],[-7,-26],[13,-12],[73,-16],[50,0],[20,-12],[23,-27],[30,-18],[13,-31],[18,5],[105,9],[36,10],[78,-18],[44,-22],[60,-8],[83,3],[35,-11],[37,-2],[32,-21],[-9,-25],[38,-16],[39,6],[36,19],[32,5],[16,16],[17,-1],[18,-18],[49,6],[58,32],[67,33],[20,0],[53,-17],[31,0],[43,8],[20,18],[74,-15],[47,-3],[54,8],[32,40],[20,8],[38,-4],[86,16],[19,-9],[41,2],[7,-27],[29,-6],[27,-24],[18,3],[55,-1],[9,-30],[27,-6],[8,33],[51,16],[40,43],[39,14],[27,-2],[4,-28],[17,-43],[18,4],[19,-24],[26,13],[42,-47],[3,-20],[23,-2],[19,27],[14,1],[18,-19],[60,6],[28,-16],[50,2],[4,-7],[-30,-86],[-97,-312],[-100,-323],[-29,-103],[-51,-160],[-208,-658],[-58,-190],[-61,-194],[-255,130],[-77,38],[-84,-119]],[[5228,1533],[-151,76],[-194,-288],[-121,52],[-30,6],[-59,-1],[-47,-6],[-38,19],[-30,57],[-49,82],[-6,78],[1,63],[6,74],[-16,30],[57,96],[-66,32],[-111,60],[-59,62],[-119,-159],[-86,-110],[-106,-132],[0,-4]],[[3476,2156],[168,3],[147,-3],[-10,112],[8,86],[20,31],[23,18],[30,-15],[74,26],[93,26],[-69,84],[-65,-13],[-7,3]],[[3577,2723],[-40,135],[-14,41],[3,16],[-19,60],[5,46],[-20,90],[-12,75]],[[5228,1533],[-59,-82],[385,-198],[-55,-109],[-91,-189],[-186,-373],[-4,-1]],[[3314,8],[-26,-8],[-154,90],[-347,207],[-431,257]]],"transform":{"scale":[0.0002587258714778178,0.0003048441881241147],"translate":[37.59602659404105,-4.140161955397242]},"objects":{"wards.006.final":{"type":"GeometryCollection","geometries":[{"arcs":[[0,1,2]],"type":"Polygon","properties":{"code":"0111","name":"Chala","constituency_code":"023","county_code":"006"}},{"arcs":[[-3,3,4,5,6,7,8,9]],"type":"Polygon","properties":{"code":"0115","name":"Mata","constituency_code":"023","county_code":"006"}},{"arcs":[[10,11,12,13,14]],"type":"Polygon","properties":{"code":"0116","name":"Wundanyi/mbale","constituency_code":"024","county_code":"006"}},{"arcs":[[-5,15,16,17,18,-14,19,20,21]],"type":"Polygon","properties":{"code":"0118","name":"Wumingu/kishushe","constituency_code":"024","county_code":"006"}},{"arcs":[[-6,-22,22,23,24]],"type":"Polygon","properties":{"code":"0122","name":"Bura","constituency_code":"025","county_code":"006"}},{"arcs":[[[25]],[[26,27]]],"type":"MultiPolygon","properties":{"code":"0113","name":"Bomani","constituency_code":"023","county_code":"006"}},{"arcs":[[-9,28,29,-27,30],[-26]],"type":"Polygon","properties":{"code":"0114","name":"Mboghoni","constituency_code":"023","county_code":"006"}},{"arcs":[[31,32,33,34,35]],"type":"Polygon","properties":{"code":"0129","name":"Kasigau","constituency_code":"026","county_code":"006"}},{"arcs":[[-1,-10,-31,-28,-30,36]],"type":"Polygon","properties":{"code":"0112","name":"Mahoo","constituency_code":"023","county_code":"006"}},{"arcs":[[-12,37,-23,-21,38]],"type":"Polygon","properties":{"code":"0119","name":"Mwanda/mgange","constituency_code":"024","county_code":"006"}},{"arcs":[[-15,-19,39,40,41,42,43,44]],"type":"Polygon","properties":{"code":"0120","name":"Rong'e","constituency_code":"025","county_code":"006"}},{"arcs":[[-36,45,46,-44,47]],"type":"Polygon","properties":{"code":"0121","name":"Mwatate","constituency_code":"025","county_code":"006"}},{"arcs":[[-11,-45,-47,48,-24,-38]],"type":"Polygon","properties":{"code":"0124","name":"Wusi/kishamba","constituency_code":"025","county_code":"006"}},{"arcs":[[-13,-39,-20]],"type":"Polygon","properties":{"code":"0117","name":"Werugha","constituency_code":"024","county_code":"006"}},{"arcs":[[-41,49,50,51]],"type":"Polygon","properties":{"code":"0125","name":"Mbololo","constituency_code":"026","county_code":"006"}},{"arcs":[[-17,52,53,-32,-48,-43,54,-51,55]],"type":"Polygon","properties":{"code":"0126","name":"Sagalla","constituency_code":"026","county_code":"006"}},{"arcs":[[-33,-54,56]],"type":"Polygon","properties":{"code":"0128","name":"Marungu","constituency_code":"026","county_code":"006"}},{"arcs":[[-18,-56,-50,-40]],"type":"Polygon","properties":{"code":"0130","name":"Ngolia","constituency_code":"026","county_code":"006"}},{"arcs":[[-7,-25,-49,-46,-35,57]],"type":"Polygon","properties":{"code":"0123","name":"Chawia","constituency_code":"025","county_code":"006"}},{"arcs":[[-42,-52,-55]],"type":"Polygon","properties":{"code":"0127","name":"Kaloleni","constituency_code":"026","county_code":"006"}}]}}}