{"type":"Topology","arcs":[[[3914,6096],[-25,16],[-4,20],[-31,-12],[0,41],[-32,-3],[-9,13],[13,44],[-6,48],[15,16]],[[3835,6279],[94,-1],[34,12],[25,-17],[53,9],[53,34],[65,68],[211,218],[218,217],[44,47]],[[4632,6866],[2,2]],[[4634,6868],[7,-20]],[[4641,6848],[-26,-27],[-452,-483],[-70,-76],[-22,0],[-67,-73]],[[4004,6189],[-50,9],[-8,-44],[-26,-20],[10,-32]],[[3930,6102],[-16,-6]],[[4004,6189],[-48,-51]],[[3956,6138],[-26,-36]],[[4641,6848],[60,-87],[3,-29],[33,-52],[7,-25]],[[4744,6655],[-198,-229],[-239,-267],[4,-22],[-11,-40],[6,-27],[-12,-11],[-76,-9],[-19,-16],[-70,3],[-41,-15],[-35,-27],[-10,20],[0,33],[25,44],[-20,5],[-29,-9],[-19,6],[-44,44]],[[4738,5361],[-21,34],[-48,43],[-6,16],[-6,35],[8,31],[-4,40],[-13,31],[-35,42],[-139,80],[-60,50],[-45,16],[-78,-11],[-12,7],[3,42],[-30,50],[-44,29],[-25,48],[-34,31],[-31,-1],[-48,-27],[-121,-50],[-27,15],[20,22],[-4,21],[-24,0],[-18,17],[-7,24],[7,29],[-9,34],[27,37]],[[4744,6655],[14,-20],[80,-167],[43,-241],[32,-193],[32,-158],[52,-303],[56,-149],[3,1]],[[5056,5425],[-15,-3],[-35,7],[-118,-1],[-16,4],[-59,-34],[-4,-10],[-71,-27]],[[1726,7575],[-23,40],[-45,36],[-10,33],[-33,15],[-57,-13],[-22,-11],[-40,13],[-17,23],[-28,17]],[[1451,7728],[-2,91],[-12,42],[-45,57],[11,40],[2,38],[-13,40],[0,73],[10,67],[28,45],[-1,95],[7,36],[-5,85],[-14,52],[-22,38],[2,43],[33,24],[47,58],[-100,56],[-13,13],[-16,45],[-40,72]],[[1308,8838],[47,109],[9,62]],[[1364,9009],[11,-4],[75,9],[70,26],[33,-11],[43,5],[48,-30],[43,-64],[31,-11],[20,-33],[30,-5],[11,-22],[35,-18],[28,7],[13,-12],[49,2],[98,41],[23,29],[34,28],[17,5],[35,36],[16,40],[15,17],[7,42],[-9,12],[5,51],[16,52],[24,31],[7,34],[30,30],[23,44],[6,26],[15,7],[89,11],[32,-26],[63,1],[30,-9],[28,2],[46,18],[87,0],[56,-18],[32,-2],[38,-20]],[[2767,9330],[12,-44],[23,-123],[35,-49],[12,-47],[0,-79],[9,-37],[37,-34],[121,-176],[67,-66],[17,-10],[4,-103]],[[3104,8562],[-7,-13],[-2,-78],[2,-144],[8,-37]],[[3105,8290],[-40,-11],[-94,-5],[-38,11],[-95,6],[-86,-36],[-146,-4],[-46,-24],[-60,-13],[-58,1],[-51,9],[-14,-19],[-97,33],[-95,-31],[-41,-7],[-48,-17],[-32,-20],[-34,-36],[-69,-64],[-40,-26],[-31,-36],[-19,-45],[-73,-93],[-56,-39],[1,-107],[-12,-58],[-5,-84]],[[191,9354],[35,1],[16,-27],[37,-40],[21,4],[57,-2],[60,-31],[52,-3],[53,-24],[56,32],[70,-9],[23,8],[31,-40],[50,-17],[88,20],[18,-13],[48,-1]],[[906,9212],[8,-17],[33,-39],[5,-17],[45,-9],[34,-16],[73,-6],[41,12],[12,20],[50,-5]],[[1207,9135],[41,-13],[20,-17],[43,-63],[38,-9],[15,-24]],[[1308,8838],[-95,-214],[-22,-41],[-38,-40],[-25,-8],[-15,-50],[-13,-15],[-38,-19],[-24,4],[-26,-12],[-8,-37],[-44,-21],[-10,-24],[20,-16],[-4,-19],[19,-62],[-5,-31],[28,-53],[-3,-86],[32,-24],[-2,-41],[49,-20],[-5,-42],[20,-12],[17,-27],[40,-27],[22,-40],[29,-15],[15,-22],[15,-44],[15,-24],[-8,-40],[3,-40],[-34,-20],[-64,-69],[-32,-61],[-13,-34]],[[1104,7492],[-36,16],[-35,48],[-51,-35],[-46,-13],[-55,-1],[-48,5],[-36,13],[-42,-18],[-46,12],[-22,-6],[-81,32],[-39,9],[-31,15],[-29,1],[-58,39],[-17,4],[-37,-17],[-54,17],[-24,-5],[-47,31],[26,128],[-22,46],[16,47],[2,31],[19,24],[9,37],[-34,94],[5,19],[-10,28],[-6,48],[5,56],[-6,31],[13,18],[-4,54],[1,59],[9,38],[0,41],[14,31],[77,88],[1,36],[-8,66],[-85,331],[-28,90],[-69,264],[-4,10]],[[1451,7728],[-11,-2],[-15,-36],[-24,-19],[-30,13],[-34,-6],[-63,-45],[0,-43],[-46,-24],[-32,-28],[-47,-16],[-30,-31],[-15,1]],[[3093,7137],[-10,12],[-33,4],[-40,-21],[-45,27],[-21,-26],[-33,10],[-15,27],[-26,20],[-25,33],[-50,45],[-22,-10],[-22,-30],[-22,31],[-38,0],[5,34],[-8,18],[-34,25],[-8,16],[-30,-20],[-29,21],[-18,-1],[-13,-19],[-37,14],[-31,-4],[-25,-14],[-52,-6],[-58,19],[-29,-5],[-48,27],[-21,21],[-20,-15],[-12,-33],[-70,-2],[-44,24],[-28,-3],[-31,29],[-59,7],[-26,-15],[-15,-25],[-36,8],[-8,21],[13,27],[-12,15],[-47,-10],[6,33],[-57,35],[-25,32],[-16,34],[-42,28]],[[3105,8290],[-27,-67],[-11,-53],[7,-17],[-16,-63],[19,-39],[-14,-98],[29,-12],[114,-22]],[[3206,7919],[17,-22],[-22,-30],[34,-54],[36,-66],[35,-79],[131,-238],[-52,-25],[-63,-9],[-39,-18],[-43,-32],[19,-54],[-10,-34],[-66,-73],[-75,-46],[-15,-2]],[[3206,7919],[184,-3]],[[3390,7916],[2,-7],[170,-11],[146,-8],[143,-36],[1,-13],[138,-175],[189,-228],[70,-90],[22,-42],[227,-206],[21,-14],[27,-53],[73,-135],[13,-32]],[[3835,6279],[-31,13],[-11,21],[12,24],[-31,9],[-7,28],[9,20],[-21,15],[-8,55],[8,44],[-24,2],[-18,26],[-17,0],[-4,28],[-42,32],[-36,6],[-8,28],[-23,2],[4,35],[-8,43],[-33,42],[-24,-21],[-42,35],[-13,-29],[-31,-19],[-13,11],[7,27],[20,35],[-29,4],[3,34],[-23,17],[-4,32],[-30,40],[-27,-5],[-11,23],[-40,-3],[-13,15],[-20,70],[-44,12],[-8,33],[-47,-4],[-30,42],[-34,36]],[[2767,9330],[-5,43],[-33,143],[-14,36],[-8,48],[-60,96],[-42,77],[-18,26],[-90,157],[-30,46],[-11,-6]],[[2456,9996],[61,37],[49,-5],[51,20],[11,41],[14,11],[49,8],[64,21],[25,18],[62,-2],[22,6],[40,-10],[41,-1],[24,15],[53,-7],[21,26],[23,4],[85,39],[28,-1],[42,-12]],[[3221,10204],[39,6],[46,-9],[18,10],[49,8],[153,66],[219,126],[93,71],[36,30]],[[3874,10512],[10,-25],[31,-13],[44,-37],[32,-93],[30,-43],[12,-30],[45,-52],[18,-37],[26,-15],[20,-33],[26,-19]],[[4168,10115],[-90,-81],[-62,-47],[-129,-82],[-81,-40],[10,-30],[63,-83],[63,-118],[56,-80],[31,-55],[49,-135],[-44,-86],[-122,-3],[-22,-3],[-81,-48],[-37,-15],[-66,-45],[-82,-13],[-70,-30],[-105,-23],[-27,-33],[-84,-29],[-39,-21],[114,-196],[77,-182],[-114,-27],[-133,-24],[-102,-24],[-37,0]],[[191,9354],[-52,185],[-21,94],[-47,111],[-8,71],[-15,16],[-28,5],[-20,23],[7,13],[65,-8],[31,7],[39,0],[30,-9],[28,18],[49,3],[-5,33],[14,11],[34,-17],[70,18],[15,-7],[7,-27],[45,-16],[12,13],[54,28],[41,63],[30,16],[37,46],[4,23],[28,28]],[[635,10095],[112,-366],[36,-111],[12,-6],[44,-140],[67,-260]],[[4168,10115],[8,-20],[68,-69],[20,-16],[41,-63],[2,-20],[34,-6],[23,-20],[44,-23],[54,-36],[16,-26],[36,-21],[34,-9],[32,-20],[84,-7],[27,-13],[38,4],[60,-15],[16,-22],[36,-18],[32,-25],[24,-1],[34,17],[27,-8],[42,4],[47,-39],[82,-68],[111,-74]],[[5240,9501],[-46,-42],[-31,-40],[-129,-125],[-42,-57],[-38,-43],[-108,-160],[-19,-13],[-26,-33],[-39,-38],[-49,-36],[-39,-17],[-56,-14],[-88,-56],[-57,-5],[-106,-62],[-47,-54]],[[4320,8706],[-56,-67],[-57,-21],[-35,-29],[-91,-25],[-23,-15],[-18,-26],[-29,-19],[9,-37],[-24,-28],[-68,-24],[-62,-1],[-27,-13],[-51,-3],[-18,-9],[-28,-61],[-36,-3],[-54,-40],[-11,-40],[-19,-33],[-41,-18],[-45,-7],[-30,-36],[-9,-41],[-79,-62],[-24,-85],[-4,-47]],[[1207,9135],[97,500],[51,250],[117,-1],[48,5],[96,21],[48,23],[9,14],[67,31],[25,-17],[104,-18],[45,9],[52,47],[20,29],[38,11],[31,-24],[25,-5],[21,10],[74,-16],[18,5],[21,-20],[71,-14],[19,20],[35,-2],[41,20],[44,-16],[32,-1]],[[635,10095],[2,11],[39,36],[41,15],[17,18],[35,15],[45,29],[38,2],[17,-26],[62,-1],[12,12],[28,-4],[44,12],[36,17],[24,22],[37,68],[65,2],[49,-15],[48,-5],[35,17],[55,-7],[48,8],[2,52],[38,15],[-1,43],[17,43],[25,0],[60,52],[14,26],[62,-10],[13,-12],[60,-16],[17,11],[33,1],[16,40],[73,7],[59,-9],[39,12],[4,34],[31,30],[80,49],[6,32],[-21,43],[21,14],[3,24],[39,24]],[[2102,10826],[40,-52],[60,-61],[73,-50],[10,-13],[61,-29],[42,-4],[35,-56],[30,-14],[107,-63],[39,-5],[29,-28],[41,-23],[58,-11],[75,29],[69,-5],[76,-22],[37,-19],[32,-26],[41,-13],[20,8],[79,-26],[26,-28],[26,-46],[13,-65]],[[2102,10826],[45,92],[38,57],[42,35],[50,68],[35,80],[65,76],[46,37],[53,51],[25,31],[48,44],[66,71],[22,16],[86,45],[62,45],[169,71],[89,29],[78,30],[78,24],[20,17],[28,-31],[38,-16],[39,-46],[27,-55],[8,-54],[20,-64],[32,-65],[37,-61],[43,-106],[81,-228],[19,-102],[18,-23],[5,-83],[14,-22],[29,-20],[24,-45],[65,-64],[19,-9],[4,-19],[62,-89],[43,-31]],[[5240,9501],[81,-37],[84,-27],[63,-10],[112,-6],[52,-17],[79,-53],[102,-73],[67,-51],[74,-44],[64,-25],[68,-59],[56,-56],[94,-106]],[[6236,8937],[-400,-650],[481,-133]],[[6317,8154],[3,-47],[21,-76],[-88,-146],[31,-72]],[[6284,7813],[-81,-7],[-129,17],[-50,-13],[-120,-7],[-51,0],[-59,12],[-127,8],[-29,-7],[-33,-18],[-97,-33],[-33,-23]],[[5475,7742],[89,168],[-58,25],[-35,58],[-20,17],[-19,35],[-29,25],[-33,4],[-3,20],[-29,1],[-195,155],[-140,155],[-25,51],[43,56],[-701,194]],[[6317,8154],[0,30],[32,43],[-9,29],[356,34]],[[6696,8290],[227,21],[-49,-72],[16,-70],[-17,-60],[-49,-79],[-27,-29]],[[6797,8001],[-31,1],[-129,-61]],[[6637,7941],[-62,-31],[-38,-10],[-39,-24],[-62,-18],[-50,-23],[-102,-22]],[[6696,8290],[-23,34],[32,89],[-3,21],[-31,94],[5,43],[24,37],[62,48]],[[6762,8656],[116,-6],[47,-15],[33,-24],[42,-16]],[[7000,8595],[-13,-216],[29,0],[159,23],[26,-17],[105,-6],[311,12],[186,22],[52,9],[109,41],[37,30],[57,9],[264,20],[215,9],[234,0],[111,-3],[75,-72],[39,-12],[48,-38],[34,-18],[24,-29],[5,-40],[32,-46],[13,-34],[48,-77],[56,-67],[16,-39],[28,-43],[26,-61],[38,-52]],[[9364,7900],[0,-469],[-8,-3]],[[9356,7428],[-274,-75],[-53,-17],[-622,-169],[1,-3],[-588,-157],[-17,58],[-33,29],[-72,123],[-6,30],[-22,55],[-44,56],[-14,9],[-67,78],[-52,45],[-8,31],[-23,21],[-8,35],[-28,65],[0,19],[-43,14],[-22,-5],[-76,49],[-82,61],[-78,62],[-45,20],[-59,6],[-39,9],[-36,26],[-53,25],[-6,18],[-50,52],[-40,3]],[[5475,7742],[-91,-165],[-40,-38],[-146,-127],[-152,-138],[-193,-170],[-219,-236]],[[6236,8937],[71,-61],[99,-62],[86,-34],[94,-43],[54,-32],[57,-41],[65,-8]],[[7000,8595],[26,3],[42,19],[30,6],[71,-18],[127,4],[23,6],[43,36],[13,2],[33,-21],[18,14],[14,53],[28,22],[19,31],[64,28],[72,-33],[33,-22],[39,6],[38,-12],[39,41],[34,-1],[29,27],[49,-2],[44,5],[33,-6],[28,6],[117,82],[20,25],[4,44],[44,25],[43,78],[24,72],[30,21],[58,12],[27,20],[24,33],[38,31],[72,33],[55,11],[159,39],[-3,6],[40,0],[52,12],[92,43],[46,26],[73,61],[55,56],[49,35],[78,30],[76,47],[47,12],[59,47],[3,3],[-2,-511],[-1,-1286],[-4,4]],[[5732,2159],[-9,98],[-20,89],[-37,149],[-31,133],[-10,70],[-45,83],[-2,44],[9,52],[21,70],[3,89],[-23,1],[-9,60],[-44,122],[-8,22],[-79,129],[-42,76],[-20,29],[-20,66],[-138,251],[-24,57],[-40,80],[-44,62],[0,22],[13,49],[3,50],[-5,37],[-15,40],[-23,35]],[[5093,4224],[106,36],[110,35],[88,45],[139,66],[86,57],[344,-254],[400,444],[545,603]],[[6911,5256],[173,-182],[41,-129],[21,-110],[41,-84],[77,-75],[31,-70],[72,-104],[124,-80],[87,-9],[119,0],[231,-25],[83,-3]],[[8011,4385],[-18,-51],[23,-35],[-18,-115],[-5,-66],[-8,-34],[62,-101],[21,-45],[32,-90],[-15,-35],[-8,-76],[4,-123],[27,-55],[36,-46],[34,-55],[8,-102],[-11,3]],[[8175,3359],[-130,33],[-158,56],[-84,50],[-63,82],[-21,41],[-37,55],[-79,36],[-79,25],[-47,6],[-61,24],[-13,-45],[-47,-66],[-21,-76],[-19,-35],[-16,-45],[-48,-110],[-12,-34],[-36,-55],[-54,-68],[-80,-113],[-131,-218]],[[6939,2902],[-27,-46],[-41,-42],[-12,-23],[-54,-75],[-46,-96],[-81,-141],[-2,-11],[-127,-70],[-16,-14],[-90,-48]],[[6443,2336],[-266,-142],[-258,-135],[-59,-9],[-20,8],[-84,88],[-24,13]],[[8011,4385],[56,28],[32,28],[375,167],[489,218],[7,-16]],[[8970,4810],[-22,-69],[-23,-42],[-15,-46],[-6,-38],[18,-41],[2,-27],[29,-45],[91,-111],[70,-56],[85,-63],[44,-43],[13,-54],[1,-45],[-6,-66],[2,-93],[14,-30],[47,-81],[47,-46],[59,-40],[-7,-37],[-13,-30],[-59,-44],[-38,-42],[-13,-31],[-31,-41],[-39,-71],[7,-9],[51,-248],[-159,-31],[-6,-45],[-2,-135],[-11,-10],[-40,45],[-113,145],[-61,102],[-32,-10],[-39,4],[-94,18],[-91,2],[-47,-110],[-41,-58],[-39,-47],[-11,-51],[0,-37],[8,-33],[31,-56],[37,-46]],[[8568,2868],[-4,-11],[-76,-24],[-68,-4],[-34,11],[-68,45],[-27,35],[-25,47],[-23,12],[-21,36],[-11,56],[-15,143],[-32,93],[11,52]],[[6637,7941],[45,-23],[41,-7],[34,-16],[29,-22],[32,-76],[33,-63],[14,-68],[23,-61],[37,-40],[44,-58],[29,-91],[8,-89],[15,-70],[6,-63],[26,-78],[26,-25],[42,-63],[26,-28],[32,-50],[-16,-36],[16,-53],[2,-55],[11,-68],[-12,-33],[25,-130],[17,-61],[35,-74],[94,54],[37,6],[69,-14],[30,-21],[106,-20],[158,46],[4,-52],[92,-573],[15,-50],[-5,-41],[9,-67],[-7,-47],[6,-149],[29,-40],[31,-99],[73,-33],[69,-13],[88,-47],[22,-35],[38,-23],[33,-27],[10,-34],[54,-46],[55,-5],[36,-16],[80,-21],[31,10],[41,-16],[95,-14],[91,-7],[112,-56],[240,-87]],[[9093,4903],[-42,-32],[-40,-45],[-41,-16]],[[6911,5256],[-7,7],[-264,386],[-529,-126],[-617,-146],[-112,-37],[-173,99],[-153,-14]],[[9356,7428],[9,-560],[-3,-439],[4,-557],[10,-1055],[-9,-5]],[[9367,4812],[-83,26],[-135,70],[-56,-5]],[[5093,4224],[-35,109],[-25,40],[-33,29],[-6,27],[9,36],[-9,84],[2,55],[-8,50],[-47,66],[-24,85],[-25,50],[-54,71],[-6,13],[20,64],[1,22],[-15,42],[-27,34],[-2,77],[-8,32],[-25,32],[-23,41],[-7,63],[-8,15]],[[10039,1343],[-10,21],[18,42],[-21,32],[-18,9],[-40,-5],[-11,-19],[-34,16],[-36,1],[-19,35],[-27,8],[-26,21],[-4,23],[-18,9],[0,38],[-27,9],[5,22],[-41,29],[-6,32],[-23,14],[-21,-1],[-37,23],[0,21],[-21,21],[6,53],[-8,41],[-25,37],[6,54],[11,13],[-11,37],[-36,22],[-17,49],[-48,6],[-30,-18],[-64,-7],[-11,-14],[-38,-1],[-3,-13],[-43,13],[-1,31],[-17,21],[-68,33],[-5,40],[-35,46],[-1,27],[-26,19],[-4,32],[-18,19],[-4,46],[-17,14],[6,38],[13,20],[-12,27],[9,23],[2,67],[-47,50],[-102,39],[-63,16],[-30,21],[-15,-2],[-35,19],[-42,-4],[-24,26],[-42,26],[-8,15],[-62,60],[-14,6],[-81,77]],[[9367,4812],[-1,-145],[195,-256],[133,-171],[263,-343],[102,-135],[164,-212],[54,-72],[208,-269],[189,-248],[80,-103],[52,-70],[56,-70],[375,-490],[341,-446],[74,-95],[-1,-205],[-608,-52],[-241,-21],[-296,-22],[-306,-31],[-161,-13]],[[8793,1152],[-508,-232],[-459,-209],[-400,-177],[0,-1]],[[7426,533],[-40,44],[-41,112],[-31,61],[-3,28],[-15,23],[-91,41],[-21,18],[-17,33],[-23,26],[-40,77],[-53,114],[-104,190],[-58,117],[-94,179],[-31,69],[-34,98],[-131,262],[-156,311]],[[6939,2902],[54,-50],[40,-42],[50,-37],[69,-35],[106,-8],[106,-21],[29,-10],[93,-16],[41,-12],[34,-17],[23,-21],[152,-162],[11,-22],[34,-137],[36,-64],[48,-52],[133,-89],[31,-15],[54,-15],[186,-111],[55,-27],[63,-18],[42,-24],[5,-19],[29,-8],[14,-47],[33,-71],[1,-40],[10,-6],[12,-37],[62,-43],[21,-48],[-3,-18],[18,-53],[25,-32],[16,-7],[11,-39],[23,-31],[11,-46],[0,-27],[21,-39],[27,-11],[-1,-31],[23,-18],[-9,-45],[15,-29]],[[7426,533],[-94,-41],[-498,-226],[-298,-138],[-16,-5],[-68,-22],[-82,-36],[-138,-65],[-36,95],[-30,39],[10,65],[-52,95],[14,63],[4,43],[-15,94],[-1,41],[5,87],[-7,41],[-29,58],[-54,65],[-12,34],[-2,64],[-14,134],[2,45],[17,54],[24,43],[7,36],[-11,33],[-29,54],[-18,47],[-5,51],[6,66],[-45,84],[-50,133],[-19,72],[-23,47],[-29,73],[-20,64],[-12,81],[-11,33],[-9,23],[-46,72],[-10,30]],[[10039,1343],[-742,-65],[-285,-24],[-219,-102]]],"transform":{"scale":[0.00024908630053211816,0.00025773483697946444],"translate":[38.660467364709916,-2.0352579545583573]},"objects":{"wards.007.final":{"type":"GeometryCollection","geometries":[{"arcs":[[0,1,2,3,4,5,6]],"type":"Polygon","properties":{"code":"0131","name":"Galbet","constituency_code":"027","county_code":"007"}},{"arcs":[[-6,7,8]],"type":"Polygon","properties":{"code":"0132","name":"Iftin","constituency_code":"027","county_code":"007"}},{"arcs":[[-5,9,10,-8]],"type":"Polygon","properties":{"code":"0133","name":"Township","constituency_code":"027","county_code":"007"}},{"arcs":[[11,-7,-9,-11,12,13]],"type":"Polygon","properties":{"code":"0134","name":"Waberi","constituency_code":"027","county_code":"007"}},{"arcs":[[14,15,16,17,18,19,20]],"type":"Polygon","properties":{"code":"0135","name":"Balambala","constituency_code":"028","county_code":"007"}},{"arcs":[[21,22,23,-17,24,25]],"type":"Polygon","properties":{"code":"0136","name":"Danyere","constituency_code":"028","county_code":"007"}},{"arcs":[[26,-25,-16]],"type":"Polygon","properties":{"code":"0137","name":"Jarajara","constituency_code":"028","county_code":"007"}},{"arcs":[[27,-21,28,29]],"type":"Polygon","properties":{"code":"0138","name":"Saka","constituency_code":"028","county_code":"007"}},{"arcs":[[-30,30,31,-2,32]],"type":"Polygon","properties":{"code":"0139","name":"Sankuri","constituency_code":"028","county_code":"007"}},{"arcs":[[-19,33,34,35,36,37]],"type":"Polygon","properties":{"code":"0140","name":"Baraki","constituency_code":"029","county_code":"007"}},{"arcs":[[-22,38,39]],"type":"Polygon","properties":{"code":"0141","name":"Benane","constituency_code":"029","county_code":"007"}},{"arcs":[[-20,-38,40,41,42,-31,-29]],"type":"Polygon","properties":{"code":"0142","name":"Goreale","constituency_code":"029","county_code":"007"}},{"arcs":[[-18,-24,43,-34]],"type":"Polygon","properties":{"code":"0143","name":"Maalimin","constituency_code":"029","county_code":"007"}},{"arcs":[[-23,-40,44,45,-35,-44]],"type":"Polygon","properties":{"code":"0144","name":"Modogashe","constituency_code":"029","county_code":"007"}},{"arcs":[[-36,-46,46]],"type":"Polygon","properties":{"code":"0145","name":"Sabena","constituency_code":"029","county_code":"007"}},{"arcs":[[-42,47,48,49,50,51]],"type":"Polygon","properties":{"code":"0146","name":"Abakaile","constituency_code":"030","county_code":"007"}},{"arcs":[[-50,52,53,54,55]],"type":"Polygon","properties":{"code":"0147","name":"Dadaab","constituency_code":"030","county_code":"007"}},{"arcs":[[-54,56,57,58,59,60]],"type":"Polygon","properties":{"code":"0148","name":"Damajale","constituency_code":"030","county_code":"007"}},{"arcs":[[-3,-32,-43,-52,61]],"type":"Polygon","properties":{"code":"0149","name":"Dertu","constituency_code":"030","county_code":"007"}},{"arcs":[[-49,62,-57,-53]],"type":"Polygon","properties":{"code":"0150","name":"Labisgale","constituency_code":"030","county_code":"007"}},{"arcs":[[-59,63]],"type":"Polygon","properties":{"code":"0151","name":"Liboi","constituency_code":"030","county_code":"007"}},{"arcs":[[64,65,66,67,68,69,70]],"type":"Polygon","properties":{"code":"0152","name":"Bura","constituency_code":"031","county_code":"007"}},{"arcs":[[-68,71,72,73]],"type":"Polygon","properties":{"code":"0153","name":"Dekaharia","constituency_code":"031","county_code":"007"}},{"arcs":[[-4,-62,-51,-56,74,75,-72,-67,76,-13,-10]],"type":"Polygon","properties":{"code":"0154","name":"Fafi","constituency_code":"031","county_code":"007"}},{"arcs":[[-55,-61,77,78,-75]],"type":"Polygon","properties":{"code":"0155","name":"Jarajila","constituency_code":"031","county_code":"007"}},{"arcs":[[79,-14,-77,-66]],"type":"Polygon","properties":{"code":"0156","name":"Nanighi","constituency_code":"031","county_code":"007"}},{"arcs":[[80,-73,-76,-79,81]],"type":"Polygon","properties":{"code":"0157","name":"Hulugho","constituency_code":"032","county_code":"007"}},{"arcs":[[82,83,-70,84]],"type":"Polygon","properties":{"code":"0158","name":"Ijara","constituency_code":"032","county_code":"007"}},{"arcs":[[-71,-84,85]],"type":"Polygon","properties":{"code":"0159","name":"Masalani","constituency_code":"032","county_code":"007"}},{"arcs":[[86,-85,-69,-74,-81]],"type":"Polygon","properties":{"code":"0160","name":"Sangailu","constituency_code":"032","county_code":"007"}}]}}}