{"type":"Topology","arcs":[[[3314,9577],[-23,13],[-118,-21],[-73,3],[-152,-16],[-25,-15],[-31,-44],[-24,-1],[-42,12],[-117,19],[-63,6],[-125,35],[-117,44],[-107,11],[-108,23],[-35,11],[-5,59],[1,77]],[[2150,9793],[25,111],[49,150],[54,126],[26,4],[31,25],[13,26],[-8,27],[-40,88],[14,13],[32,80],[32,39],[8,63],[51,21],[-24,48],[-3,24],[14,88],[-20,35]],[[2404,10761],[172,48],[56,20]],[[2632,10829],[50,-16],[67,-12],[63,6],[41,-16],[66,18],[50,-11],[16,-14],[36,-63],[16,-18],[95,-57],[29,-32],[15,-43],[28,-35],[-41,-29],[-55,-70],[-13,-34],[-45,-65],[-66,-74],[-18,-31],[-7,-48],[33,-78],[28,-37],[99,-73],[25,-33],[23,-12],[104,-78],[26,-8],[106,55],[52,30],[138,98],[248,173],[79,82],[36,41],[170,175],[61,49],[142,141],[22,19],[236,233],[109,108],[71,65],[40,122],[41,142],[-1,14]],[[4847,11413],[49,-23],[72,-74],[143,-133]],[[5111,11183],[-8,-112],[-46,-235],[-9,-20],[-1,-95],[4,-23],[1,-93],[-20,-40],[-20,-25],[-77,-54],[-20,-21],[-63,-106],[-85,-80],[-18,-30],[-80,-83],[-66,-54],[-67,-65],[0,-23],[-52,-38],[-66,-66],[-71,-19],[-29,-18],[-119,-57],[-56,-23],[-53,-28],[6,-49],[-3,-44],[-9,-20],[4,-36],[53,-96],[76,-159],[140,-203],[11,-22],[-109,9],[-101,17],[-132,13],[-173,21],[-27,16],[-98,124],[-59,57],[-62,46],[-5,13],[-70,34],[-127,37],[-41,35],[-50,9]],[[2404,10761],[-13,41],[-49,65],[-85,80],[-14,29],[-8,49],[17,50],[-11,15],[-30,-28],[-52,-20],[-58,11]],[[2101,11053],[-12,62],[-9,124],[5,120],[-3,70],[4,110],[-8,33],[6,77],[13,60],[21,66],[29,117],[37,80],[33,108],[15,85],[20,63],[0,46]],[[2252,12274],[27,12],[41,-25],[39,7],[52,-13],[58,21],[49,-5],[38,24],[27,-16],[15,-56],[48,-133],[42,-29]],[[2688,12061],[14,-67],[-71,-132],[16,-9],[10,-47],[-11,-40],[-31,-24],[-14,-21],[-43,-31],[-41,-69],[9,-56],[43,-95],[51,-72],[18,-38],[0,-27],[17,-89],[-1,-88],[-5,-40],[-22,-82]],[[2627,11034],[-17,-43],[-5,-94],[15,-51],[12,-17]],[[2627,11034],[109,15],[159,5],[148,10],[55,15],[105,78],[97,49],[32,23],[39,44],[-9,36],[-30,70],[-6,93],[-11,35],[-5,79],[-25,36],[5,22],[-6,35],[-11,13],[-2,47],[32,49],[27,3],[27,16],[153,75],[149,91],[48,44],[30,21],[59,24]],[[3796,12062],[4,-125],[-2,-134],[74,-30],[28,-17],[29,-2],[147,-52],[18,-13],[32,-5],[223,-78],[15,-12],[81,-22],[170,-60],[57,-24],[152,-50],[23,-25]],[[2101,11053],[-57,30],[-37,72],[-23,13],[-47,1],[-13,-13]],[[1924,11156],[-6,140],[-2,144],[-5,67],[-11,71],[-9,20],[-31,23],[-7,18],[-10,94],[-20,121],[-33,216],[-49,80],[-7,60],[35,63],[31,31],[33,21],[12,97],[4,3],[32,-3],[7,-50],[-7,-61],[10,-15],[95,-2],[84,3],[108,-10],[21,17],[29,-25],[24,-5]],[[2688,12061],[48,-12],[76,-1],[30,24],[-2,24],[119,271],[10,12],[73,41],[120,111],[298,267],[75,70],[56,43],[39,43],[64,57],[39,30],[22,28],[39,68],[15,-315],[-7,-64],[2,-158],[-4,-58],[5,-30],[6,-381],[-1,-31],[-14,-38]],[[2150,9793],[-80,-1],[-96,-13],[-74,-13],[-37,-13],[-24,-92],[-9,-90],[-2,-90],[-8,-31],[3,-74],[-10,-110],[-6,-148],[-6,-32],[3,-70],[0,-120],[-3,-34],[5,-70]],[[1806,8792],[-221,-6],[-63,-6],[-128,-4],[-176,0]],[[1218,8776],[-97,-12],[-33,-35],[-28,-38],[-27,-24],[-44,-24],[-38,-41],[-60,-42],[-104,-29],[-265,-48],[-31,-1],[-33,20],[20,567]],[[478,9069],[151,328],[52,46],[3,45],[15,45],[35,32],[22,130],[15,146],[-11,186],[-1,80],[137,0],[53,3],[12,81],[10,42],[33,66],[49,14],[37,49],[28,16],[176,7],[39,48],[64,36],[30,4],[59,21],[38,3],[8,33],[60,59],[78,65],[23,26],[141,64],[78,49],[22,24],[-2,100],[0,151],[-8,46],[0,42]],[[3314,9577],[-19,-43],[-7,-178],[4,-39],[13,0],[6,-38]],[[3311,9279],[13,-63],[14,-38],[8,-111],[16,-156],[11,-40],[-10,-26],[-20,-20],[-50,-24]],[[3293,8801],[-381,4],[-31,-7],[-62,-3],[-129,2],[-74,4],[-107,-7],[-88,1],[-291,2],[-324,-5]],[[5111,11183],[5,1],[279,-267],[143,-152]],[[5538,10765],[7,-14],[2,-102],[-7,-32],[-2,-72],[-41,0],[-27,-182],[-22,-170],[2,-22],[-29,-93],[-16,-26],[-6,-59],[-24,-31],[-33,-76],[-20,-23],[-31,-86],[-38,-167],[-26,-42],[-5,-62],[-2,-80],[-5,-20],[-29,-18],[-33,-34],[-84,-69],[47,-20],[30,-21],[8,-19],[-7,-44],[45,-46],[18,-28],[46,-38],[-3,-37],[-20,-27],[-23,-60],[-13,-52],[2,-17],[34,-52],[53,-39],[74,-40],[-94,-94],[-13,-17],[-217,-229],[100,-5],[46,-10],[124,2],[26,4],[111,-11],[108,-2],[44,-5],[-10,-31],[25,-121],[11,-68],[-134,-182]],[[5487,7976],[-17,-1],[-100,-36],[-106,-26],[-55,-20],[-43,-9],[-87,-28],[-146,-9],[-104,3],[-14,-9],[-56,-2],[-221,4],[-71,9],[-107,6],[-125,18],[26,133],[6,117],[9,56],[-55,15],[-107,4],[-112,46],[-49,12]],[[3953,8259],[-31,125],[-25,70],[-179,8],[0,70],[-14,119],[10,72],[-2,88],[10,258],[0,60],[-112,39],[-157,42],[-82,34],[-60,35]],[[4945,5885],[-1,-7],[-88,13],[-1,-34],[48,4],[7,-27],[-31,-19],[-59,-93],[-30,-23]],[[4790,5699],[-58,167]],[[4732,5866],[-13,43],[2,41],[16,20]],[[4737,5970],[37,44],[186,45]],[[4960,6059],[-2,-80],[-21,-60],[8,-34]],[[8913,5671],[-252,-18],[-223,27]],[[8438,5680],[-607,71],[-148,16],[-144,18],[-119,12],[-270,34],[-232,-62],[-57,-13],[-53,-21],[-354,28],[-229,17],[-113,4],[-62,7],[-236,13],[-164,4],[-291,22],[-122,7]],[[5237,5837],[-16,17]],[[5221,5854],[-19,67]],[[5202,5921],[35,15],[120,39],[21,11],[153,61],[129,53],[23,13],[70,24],[34,21],[45,16],[55,8],[45,13],[119,3],[22,5],[163,21],[98,1],[166,-6],[38,23],[51,59],[-93,80],[-126,113],[-146,118],[-66,78],[-51,52]],[[6107,6742],[35,21],[43,15],[53,2],[37,-7],[65,3],[30,6],[36,21],[48,-14],[25,11],[46,36],[25,12],[92,33],[52,47],[41,29],[86,73],[81,44],[118,84],[63,58],[19,42],[-5,82],[-23,90],[-60,74],[-4,22],[18,22],[-1,60],[-14,45],[-7,45],[92,2],[64,-13],[69,6],[36,-12],[7,38],[-13,62],[-12,23],[225,119],[92,58],[91,63],[65,39]],[[7722,8083],[9,-25],[26,-36],[44,-34],[40,-15],[70,1],[107,-43],[58,-51],[50,4],[35,10],[38,1],[37,-19],[41,-37],[11,7],[62,-55],[14,-25],[29,-77],[17,-33],[41,-45],[73,-55],[70,-45],[112,-50],[103,-3],[39,11],[46,1],[15,-7],[-4,-356],[-1,-272],[2,-14],[-7,-367],[8,-410],[7,-373],[-1,0]],[[4945,5885],[36,-6],[1,-18],[239,-7]],[[5237,5837],[-3,-38],[-21,-42],[-41,-37],[-32,-20],[-73,-60],[-33,-17],[-57,5]],[[4977,5628],[-96,13]],[[4881,5641],[-77,13],[-14,45]],[[4960,6059],[24,7]],[[4984,6066],[61,12],[80,9],[16,-5],[28,-42],[5,-36],[28,-83]],[[5538,10765],[108,-110],[184,-201],[13,-19],[109,-43],[357,-147],[7,5],[478,-198],[16,-64],[-1,-89],[15,-44],[-22,-67],[29,-7],[9,-41],[32,-8],[29,-20],[7,-89],[3,-44],[-26,-14],[-12,-34],[-45,-32],[0,-12],[36,-35],[-2,-11],[43,-41],[16,-60],[16,-30]],[[6937,9310],[-115,-7],[-115,14],[-223,2],[-132,11],[-10,-46],[-25,-40],[-16,-61],[-5,-60],[-17,-54],[-5,-52],[-18,-55],[-1,-64],[7,-74],[-1,-137],[-15,-94],[3,-21],[-62,-102],[-31,-66],[-33,-16],[-79,-7],[-49,-23],[-10,-52],[-21,-11],[63,-52],[32,-34],[101,-69],[-36,-22],[-90,-67],[-102,-53],[-156,-111],[-27,-24],[-48,-12],[-46,-35],[-78,-5],[-9,-10],[1,-76],[-29,-32],[-39,-2],[-71,-29],[-23,-23],[-27,-11],[-52,0]],[[5328,7628],[-4,53],[-17,50],[35,43],[38,58],[107,144]],[[5328,7628],[3,-20],[-21,-145],[16,-10],[240,-13],[21,3],[271,-5],[8,3],[25,-69],[21,-100],[0,-22],[20,-96],[18,-50],[24,-93],[14,-28],[2,-32],[12,-9],[10,-46],[25,-57],[70,-97]],[[4984,6066],[10,90],[13,50],[-27,58],[-16,48],[-28,51],[-38,31],[-16,38],[-6,41],[21,64],[38,45],[60,110],[28,61],[-11,5],[-113,-21],[-125,-27],[-114,-19],[-146,-32],[-138,-47],[-93,85],[-21,24],[-48,71],[-9,30],[-8,101],[-13,119],[-34,161],[-13,148],[19,130],[3,39],[-10,37],[-145,103],[-31,34],[-58,78],[-73,141],[-63,126],[-39,70]],[[3740,8109],[56,25],[159,118],[-2,7]],[[6937,9310],[0,-28],[20,-17],[22,-40],[2,-20],[28,-43],[5,-41],[17,-27],[2,-48],[13,-29],[35,-23],[-11,-28],[9,-19],[50,-59],[34,-30],[-3,-54],[14,-38],[56,-47],[-25,-35],[15,-20],[36,-23],[2,-31],[44,-71],[33,-37],[34,-23],[19,-26],[18,-1],[14,-24],[37,-5],[38,-16],[23,-33],[10,-58],[-1,-53],[41,-33],[1,-26],[24,-22],[41,-15],[36,-41],[38,-23],[14,-20]],[[3385,3675],[-136,-95],[-155,-104],[-148,-105],[-34,-21],[-201,-138],[-31,-19],[-62,-23],[-35,-26],[-60,-31],[-52,-21],[-39,-43]],[[2432,3049],[-11,9],[-56,118],[-29,76],[-26,44],[-70,166],[-160,363],[-23,49],[-134,306]],[[1923,4180],[56,37],[42,58],[94,37],[94,14],[70,23],[53,42],[45,8],[23,12],[35,37],[8,25],[71,80],[101,-68],[135,-73],[288,191],[101,-340],[32,-92],[78,-210],[127,-274],[9,-12]],[[2096,7959],[205,-87],[37,-18],[88,-29],[67,-32],[58,-8],[48,8],[28,-17],[82,-16],[42,-20],[41,-4],[47,-18]],[[2839,7718],[40,-21],[34,-6],[30,-16]],[[2943,7675],[64,-39],[12,-36],[45,-32],[23,-26],[20,-38],[57,-64],[39,-23],[106,-38],[11,-43],[20,-28],[42,-18],[85,-166],[-13,-78],[10,-240],[-21,-124],[0,-58],[-7,-184],[-166,-32],[-174,-29],[-191,-49]],[[2905,6330],[-169,62],[-260,96],[-423,156],[-41,11],[-504,144],[-122,-317],[-30,-69],[-21,-56],[-17,-33],[-46,-118],[-87,-173]],[[1185,6033],[-23,28],[-14,35],[-35,19],[-13,16],[-10,48],[-19,16],[-1,63],[-14,6],[-38,56],[-5,14],[-36,31],[-110,59],[-118,90],[-14,18],[-7,33],[-29,14],[-87,108],[-7,22],[-40,34],[-28,12],[-37,45],[-49,42],[-16,57],[12,46],[-11,26],[-24,23],[4,58],[-5,14],[-98,101],[-6,-3],[-21,19],[-51,119],[-28,88],[-1,60],[8,155],[-13,86],[-20,62],[-15,121],[33,107],[-10,54],[-1,36]],[[188,8071],[80,-32],[52,-15],[81,-42],[58,-45],[37,-37],[54,-58],[102,-91],[44,-50],[65,-44],[79,-34],[31,-6],[70,-5],[20,-8],[87,-2],[22,23],[41,26],[12,45],[-28,45],[28,9],[-59,48],[130,18],[94,4],[186,22],[171,29],[237,43],[130,26],[84,19]],[[1218,8776],[77,-43],[361,-119],[176,-56],[436,-144],[-172,-455]],[[188,8071],[-3,62],[8,17],[3,45],[-14,23],[-5,69],[-11,63],[-58,101],[-4,42],[-48,100],[-8,50],[-16,37],[-11,43],[-3,74],[-18,35],[108,24],[266,62],[16,10],[75,116],[13,25]],[[4737,5970],[-12,6],[-184,170],[-51,58],[-226,218],[-227,-90],[-72,-5],[-234,9],[-20,-3],[-806,-3]],[[2943,7675],[78,60],[86,54],[24,9],[91,52],[310,-136],[15,26],[22,66],[-2,46],[-28,72],[80,114],[85,56],[36,15]],[[4881,5641],[-49,-113],[-70,-88],[-2,-18],[-44,-59],[-46,-78],[-94,-98],[-36,-28],[-62,-65],[-71,-52],[-28,-39],[-43,-159],[-118,-236],[-17,-29],[-41,-93],[-27,-78],[-55,-133],[-48,-110]],[[4030,4165],[-69,46],[-106,79],[-224,104],[-35,0],[-29,18],[-42,12],[-28,18],[-21,37],[-2,37],[-68,56],[-2,20],[-67,47],[-30,6],[-25,18],[68,84],[147,153],[-92,165],[-162,250],[-30,43],[-15,35],[-35,46],[-37,38],[-42,57],[-13,38],[-62,68],[-58,39],[-31,40],[-2,33],[23,78],[13,131],[-7,70],[-19,37],[-10,43],[-18,38],[-7,73],[-2,65],[14,43]],[[2905,6330],[208,-109],[60,-24],[67,-33],[286,-119],[181,-257],[219,15],[177,10],[84,13],[300,18],[218,15],[27,7]],[[1923,4180],[-169,387],[-116,269],[97,36],[246,77],[39,15],[327,91],[-3,15],[-80,47],[-11,19],[-39,22],[-34,-6],[-31,19],[-16,40],[-31,0],[-4,28],[-36,19],[-50,75],[-20,12],[-36,56],[-25,14],[-6,20],[-24,3],[-26,26],[-36,6],[-27,41],[-21,-9],[-19,37],[-62,14],[-38,22],[-2,15],[-51,28],[-35,-3],[-25,20],[-57,33],[-44,4],[-19,20],[-46,4],[-36,16],[-53,73],[-1,19],[-66,82],[-20,33],[1,27],[-33,87]],[[4030,4165],[-25,-35],[-81,-63],[-215,-156]],[[3709,3911],[-146,-107],[-178,-129]],[[2839,7718],[-25,53],[11,94],[9,46],[-48,82],[-1,70],[13,20],[-7,91],[-10,21],[18,45],[14,17],[148,3],[14,-6],[77,-4],[163,2],[-19,98],[-19,28],[-44,119],[-14,96],[-27,67],[201,141]],[[4353,1011],[-9,14],[9,27],[140,92],[26,13],[57,41],[109,59],[86,75],[45,44],[21,37],[-16,47],[-22,92],[0,37],[18,44],[74,94],[79,118],[64,77]],[[5034,1922],[18,30],[40,40],[67,50],[30,16],[54,10],[-90,54],[-69,48],[-37,41],[1,32],[65,69],[85,67],[54,53],[51,38],[17,19],[71,56],[36,34],[53,67],[57,59],[78,43],[7,18],[-7,30],[18,28],[41,41],[33,54],[15,35],[35,52],[11,33],[47,78],[64,73],[53,29],[17,34],[27,33],[75,107],[52,42]],[[6103,3435],[34,-33],[49,-27],[64,-12],[67,8],[71,-45],[63,1],[61,-17],[66,-27],[34,6],[55,-22],[31,10],[42,-25],[34,2],[28,13],[20,-6],[25,-35],[37,-26],[55,-20],[29,-21],[43,-49],[29,-20],[66,-24],[13,-39],[21,-30],[25,-6],[48,-42],[23,-39],[30,-33],[3,-32],[46,-97],[55,-60],[47,-7],[24,-20]],[[7441,2661],[23,-10],[31,2],[41,-32],[19,5],[36,-44],[25,-13],[-6,-55],[23,-9],[-2,-29],[17,-23],[32,-12],[-13,-45],[43,-10],[54,-20],[8,-25]],[[7772,2341],[-14,-24],[13,-73],[-1,-99],[13,-93],[1,-75],[8,-36],[-6,-69],[-24,-58],[-24,-78],[-61,-112],[-16,-46],[6,-73],[18,-46],[46,-60],[42,-46],[44,-69],[34,-97],[49,-112],[57,-101],[117,-138],[65,-59],[68,-77]],[[8207,700],[3,-6],[-167,-38],[-58,-10],[-77,-32],[-40,-30],[-25,-31],[-28,-20],[-62,-12],[-32,-20],[-24,-69],[-46,-75],[-46,-24],[-4,-44],[-22,-23],[-123,-80],[-30,-6],[-34,7],[-47,-5],[-51,1],[-32,-26],[-35,2],[-41,-40],[-40,12],[-41,-6],[-35,22],[-76,31],[-68,-27],[-20,-30],[-30,-21],[-14,-51],[-19,-14],[-35,21],[-14,-2],[-45,-35],[-24,-6],[-134,-4],[-75,17],[-32,-5],[-44,-18],[-28,-3],[-44,15],[-35,23],[-49,14],[-123,6],[-68,8],[-60,40],[-57,30],[-99,42],[-91,33],[-105,60],[-75,59],[-99,102],[-59,54],[-71,57],[-68,24],[-78,42],[-70,49],[-109,71],[-83,51],[-55,16],[-117,6],[-67,10],[-89,26],[-85,36],[-117,71],[-86,66]],[[6103,3435],[-37,13],[-44,-1],[-32,30],[-82,-16],[-76,13],[-60,-4],[-27,9],[-19,24],[-50,-11],[-9,23],[-37,8],[-67,1],[-45,-13],[-29,10],[-45,-19],[-27,18],[-50,-8],[-23,13],[-19,-6],[-33,11],[-20,37],[-31,34],[-3,38],[-39,71],[-9,83],[185,145],[18,35],[30,9],[22,24],[139,99],[39,30],[67,65],[85,76],[90,58],[-10,51],[9,47],[-48,61],[-4,27],[-38,25]],[[5774,4545],[33,-3],[39,11],[41,-7],[18,26],[36,-10],[28,16],[22,0],[31,-13],[27,-2],[48,-18],[51,9],[45,18],[38,3],[20,-10],[52,20],[47,3],[38,-22],[46,-6],[35,-22],[40,-4],[66,2],[56,-16],[69,12],[20,-10],[30,-36],[66,-33],[10,1],[48,-45],[34,-18],[86,-13],[29,-14],[49,1],[119,-8],[45,-25],[24,-43],[43,-27],[46,-1],[68,-40],[63,-6],[-23,28],[-46,28],[-11,28],[-21,18],[-15,33],[1,32],[-14,80],[-18,39],[-19,104],[5,17],[-30,77],[-1,36],[10,15],[-3,38],[14,104],[1,66],[36,70],[1,26],[19,12],[13,56],[-12,27],[11,14],[37,-22],[43,-12],[53,-30],[40,-39],[12,-49],[42,-41],[67,-99],[-3,-26],[15,-24],[27,2],[26,17],[19,26],[91,10],[85,44],[30,-1],[19,-20],[18,-65],[8,-60],[24,-41],[46,-63]],[[8077,4670],[8,-20],[34,-36],[77,-36],[31,-39],[-12,-14],[-41,-1],[-82,-38],[-16,-21],[-10,-32],[1,-34],[-15,-35],[0,-25],[27,-43],[1,-16],[-19,-26],[-9,-62],[-15,-33],[-1,-48],[-10,-44],[4,-31],[-7,-43],[-30,-20],[-19,-34],[-25,-106],[41,-28],[38,-5],[31,-25],[3,-36],[-19,-34],[13,-29],[-2,-22],[20,-32],[35,-15],[22,-33],[-37,-35],[-58,-90],[-24,-23],[-12,-23],[-55,-77],[-124,-148],[-56,-64],[-47,-44],[-39,-57],[-60,-80],[-73,-119],[-19,-36],[-60,-77],[-26,-40]],[[7772,2341],[59,-33],[35,-6],[2,-22],[74,-50],[69,-4],[17,-19],[50,-16],[13,-18],[46,10],[24,16],[23,-8],[12,-27],[22,-12],[13,-27],[20,-8],[22,12],[21,-11],[23,-45],[15,-4],[11,-31],[20,2],[33,-28],[63,-25],[12,-10],[43,1],[38,-14],[39,0],[38,-26],[41,-7],[37,-15],[23,12],[151,0],[31,-12]],[[8912,1916],[2,-53],[-3,-78],[-1,-150],[4,-17],[-3,-162],[2,-252],[-3,-148],[-62,-45],[-50,-12],[-79,-45],[-82,-29],[-53,-34],[-57,-54],[-77,-59],[-49,-25],[-97,-41],[-55,-12],[-42,0]],[[8913,5671],[0,-201],[-4,-122],[6,-97],[-4,-64],[2,-132],[-3,-179],[5,-102],[-4,-39],[3,-201],[-2,-175],[2,-67],[-3,-156],[4,-253],[-3,-162],[2,-143],[-1,-452],[2,-35],[0,-283],[2,-81],[-3,-31],[1,-293],[-1,-196],[1,-28],[0,-229],[-3,-34]],[[8077,4670],[-8,79],[-9,21],[3,125],[17,49],[52,57],[29,24],[30,53],[53,87],[15,47],[21,37],[-3,22],[16,52],[34,71],[21,66],[26,66],[40,84],[24,70]],[[3709,3911],[112,-124],[76,-108],[25,-50],[22,-57],[56,-116],[-18,-14],[-8,-58],[-20,-32],[-18,-81],[-14,-32],[-4,-32],[-24,-67],[-6,-31],[-21,-45],[-30,-43],[-12,-27],[-20,-109],[-19,-36],[-17,-57],[-29,-115],[-10,-52],[2,-39],[66,-26],[61,-35],[48,-19],[53,-27],[70,-43],[124,-59],[49,-15],[64,-30],[100,-135],[112,-108],[65,-50],[12,-25],[-12,-39],[12,-82],[27,6],[122,48],[74,25],[60,35],[35,-21],[29,-43],[41,-34],[18,-7],[42,2],[30,18]],[[4353,1011],[-50,37],[-45,-3],[-28,7],[-36,-16],[-26,0],[-33,25],[-38,17],[-17,21],[-63,15],[-41,-4],[-28,12],[-89,7],[-33,19],[-36,9],[-38,20],[-17,26],[-57,35],[-46,22],[-25,19],[-35,5],[-2,20],[-44,61],[-21,15],[-72,67],[-8,19],[-28,18],[-21,32],[-27,15],[-19,35],[-48,50],[-12,29],[-32,42],[-33,89],[-46,37],[-34,12],[-11,24],[-44,30],[-66,86],[-4,19],[-21,8],[-68,62],[-25,43],[-30,20],[-15,21],[-6,80],[-18,21],[-21,99],[-85,220],[-46,103],[-38,59],[-34,62],[-21,61],[-9,52],[-28,54],[-42,44],[-39,15],[-30,31],[8,10]],[[5774,4545],[-79,40],[-15,17],[-88,43],[-34,2],[-46,31],[-13,18],[-40,-1],[-41,57],[-61,28],[-38,25],[-31,34],[-42,82],[-58,39],[-9,29],[-34,44],[-50,51],[-30,83],[-18,73],[-6,81],[-32,96],[-38,72],[-11,47],[1,27],[16,65]]],"transform":{"scale":[0.00023612528072307543,0.00026714780947947485],"translate":[38.889935305173196,0.18009369605275846]},"objects":{"wards.008.final":{"type":"GeometryCollection","geometries":[{"arcs":[[0,1,2,3,4,5]],"type":"Polygon","properties":{"code":"0161","name":"Batalu","constituency_code":"033","county_code":"008"}},{"arcs":[[-3,6,7,8,9,10]],"type":"Polygon","properties":{"code":"0162","name":"Bute","constituency_code":"033","county_code":"008"}},{"arcs":[[-4,-11,11,12]],"type":"Polygon","properties":{"code":"0163","name":"Danaba","constituency_code":"033","county_code":"008"}},{"arcs":[[-8,13,14]],"type":"Polygon","properties":{"code":"0164","name":"Godoma","constituency_code":"033","county_code":"008"}},{"arcs":[[-10,15,-12]],"type":"Polygon","properties":{"code":"0165","name":"Gurar","constituency_code":"033","county_code":"008"}},{"arcs":[[-2,16,17,18,19,-14,-7]],"type":"Polygon","properties":{"code":"0166","name":"Korondile","constituency_code":"033","county_code":"008"}},{"arcs":[[-1,20,21,22,-17]],"type":"Polygon","properties":{"code":"0167","name":"Malkagufu","constituency_code":"033","county_code":"008"}},{"arcs":[[-6,23,24,25,26,-21]],"type":"Polygon","properties":{"code":"0168","name":"Sarman","constituency_code":"033","county_code":"008"}},{"arcs":[[27,28,29,30,31]],"type":"Polygon","properties":{"code":"0169","name":"Barwaqo","constituency_code":"034","county_code":"008"}},{"arcs":[[32,33,34,35,36,37,38]],"type":"Polygon","properties":{"code":"0170","name":"Khorof/harar","constituency_code":"034","county_code":"008"}},{"arcs":[[-28,39,-35,40,41,42]],"type":"Polygon","properties":{"code":"0171","name":"Township","constituency_code":"034","county_code":"008"}},{"arcs":[[-32,43,44,-36,-40]],"type":"Polygon","properties":{"code":"0172","name":"Wagberi","constituency_code":"034","county_code":"008"}},{"arcs":[[-25,45,46,47]],"type":"Polygon","properties":{"code":"0173","name":"Elben","constituency_code":"035","county_code":"008"}},{"arcs":[[-26,-48,48,-37,-45,49,50]],"type":"Polygon","properties":{"code":"0174","name":"Tarbaj","constituency_code":"035","county_code":"008"}},{"arcs":[[-38,-49,-47,51]],"type":"Polygon","properties":{"code":"0175","name":"Wargadud","constituency_code":"035","county_code":"008"}},{"arcs":[[52,53,54]],"type":"Polygon","properties":{"code":"0176","name":"Ademasajide","constituency_code":"036","county_code":"008"}},{"arcs":[[55,56,57,58,59,60]],"type":"Polygon","properties":{"code":"0177","name":"Arbajahan","constituency_code":"036","county_code":"008"}},{"arcs":[[[-19,61,-61,62]],[[-31,63,-58,64,-50,-44]]],"type":"MultiPolygon","properties":{"code":"0178","name":"Elnur/tula Tula","constituency_code":"036","county_code":"008"}},{"arcs":[[-29,-43,65,66,67]],"type":"Polygon","properties":{"code":"0179","name":"Ganyure Wagalla","constituency_code":"036","county_code":"008"}},{"arcs":[[-55,68,-59,-67,69,70]],"type":"Polygon","properties":{"code":"0180","name":"Hadado Athibohol","constituency_code":"036","county_code":"008"}},{"arcs":[[-30,-68,-64]],"type":"Polygon","properties":{"code":"0181","name":"Lakoley South/basir","constituency_code":"036","county_code":"008"}},{"arcs":[[-22,-27,-51,-65,-57,71]],"type":"Polygon","properties":{"code":"0182","name":"Della","constituency_code":"037","county_code":"008"}},{"arcs":[[-18,-23,-72,-56,-62]],"type":"Polygon","properties":{"code":"0183","name":"Eldas","constituency_code":"037","county_code":"008"}},{"arcs":[[72,73,74,75,76,77]],"type":"Polygon","properties":{"code":"0184","name":"Benane","constituency_code":"038","county_code":"008"}},{"arcs":[[-75,78,79,80]],"type":"Polygon","properties":{"code":"0185","name":"Burder","constituency_code":"038","county_code":"008"}},{"arcs":[[-77,81,82]],"type":"Polygon","properties":{"code":"0186","name":"Dadaja Bulla","constituency_code":"038","county_code":"008"}},{"arcs":[[-33,83,-82,-76,-81,84]],"type":"Polygon","properties":{"code":"0187","name":"Diif","constituency_code":"038","county_code":"008"}},{"arcs":[[-53,-71,85,-73,86]],"type":"Polygon","properties":{"code":"0188","name":"Habasswein","constituency_code":"038","county_code":"008"}},{"arcs":[[-34,-85,-80,87,-41]],"type":"Polygon","properties":{"code":"0189","name":"Ibrahim Ure","constituency_code":"038","county_code":"008"}},{"arcs":[[-42,-88,-79,-74,-86,-70,-66]],"type":"Polygon","properties":{"code":"0190","name":"Lagboghoi South","constituency_code":"038","county_code":"008"}}]}}}