{"type":"Topology","arcs":[[[6604,7304],[-30,-52],[-65,-70],[-29,-69],[-43,-60],[-32,-30],[-26,-45],[-79,-98]],[[6300,6880],[-46,-35],[-82,-31],[-45,-46],[-67,-41]],[[6060,6727],[-53,-53],[-35,-43],[-59,-47]],[[5913,6584],[-44,28],[-55,21],[-108,-38],[-29,-26],[-32,-49],[-50,-37],[-15,-27],[-66,-29],[-70,-58],[-80,-40],[-39,-38],[-25,-2],[-83,-38],[-118,-20],[-55,-5],[-39,-14],[-66,-4]],[[4939,6208],[16,27],[47,38],[28,35],[22,49],[68,91],[34,74],[44,49],[-1,50],[14,30],[29,19],[29,45],[50,112],[25,89],[57,56],[72,106],[50,8],[24,27],[45,20],[45,3],[-4,37],[-55,85],[-47,17],[-36,-48],[-46,20],[-49,-30],[-33,-1],[-143,-20],[-46,18],[-23,-7],[-59,43],[-62,23],[-52,34],[-6,29],[111,85],[35,9],[84,11],[73,64],[47,21],[43,29],[179,51],[90,60],[74,0],[41,13],[24,24],[101,47],[72,56]],[[5950,7806],[59,-71],[49,-67],[24,-12],[30,17],[37,-7],[-13,-62],[-24,-62],[-44,-56],[9,-13],[76,-56],[82,-35],[88,-5],[210,-59],[71,-14]],[[6604,7304],[23,22],[50,75],[13,111],[37,62],[8,46],[56,107],[23,70],[-40,-3],[-42,35],[-1,55],[46,29],[7,16],[-9,59],[1,150],[-13,45]],[[6763,8183],[25,-22],[37,6],[47,-15],[37,-25],[52,-1],[6,71],[41,5],[1,28],[56,-7],[13,-19],[33,29],[35,-42],[17,21],[26,-9],[42,15],[66,-24],[-2,-23]],[[7295,8171],[-47,-56],[-68,-16],[-26,-22],[-11,-46],[0,-40],[21,-27],[-5,-59],[-22,-55],[-53,-6],[-51,-111],[-27,-10],[-17,-50],[-31,-34],[-25,-63],[-47,-75],[-68,-17],[-23,-19],[-29,-48],[-44,-35],[-23,-61],[-51,-87],[-34,-25],[-46,-46],[-27,-43],[-18,-50],[-110,-131],[-113,-59]],[[5950,7806],[-21,47],[-110,39],[-44,1],[-49,19],[-155,10],[-60,-2],[-67,26],[-46,3],[-8,30],[20,38],[-15,31],[-109,12],[-47,20],[-118,-15],[-37,24],[-103,8],[-51,-20],[-47,-3],[-92,4],[-28,16],[-64,3],[-82,22],[-14,24]],[[4603,8143],[112,40],[14,11],[73,23],[70,58],[46,26],[23,38],[63,27],[0,65],[-40,49],[4,28],[53,69],[70,41],[71,20],[62,56],[50,38],[120,67],[19,-2],[49,34],[37,39],[67,12],[32,-14],[83,-21],[48,1],[91,45],[32,45]],[[5852,8938],[79,-3],[44,-33],[8,-27],[51,-46],[58,-17],[41,-28],[46,-78],[34,-36],[41,-25],[34,-83],[14,-20],[51,-11],[21,-45],[85,-35],[-14,-53],[87,-54],[37,-16],[53,-42],[13,-19],[96,-47],[32,-37]],[[3597,2668],[38,4],[65,41],[74,3],[46,18],[231,-3],[85,6],[71,26],[81,99],[50,23]],[[4338,2885],[74,-50],[32,-50],[107,48],[48,15],[182,2],[189,-10],[106,-11],[65,-13],[54,-1],[38,13],[84,13],[3,-37],[15,-40],[47,-87],[28,-17],[28,-41],[47,-31],[55,-54],[39,-63],[123,42],[80,32],[50,9],[32,14],[26,29],[20,43]],[[5910,2640],[3,-738],[-2,-635],[-1,-549],[0,-541],[-3,-172],[-18,9],[-52,-1],[-45,-13],[-119,4],[-130,61],[-81,55],[-83,68],[-48,56],[-20,40],[-33,95],[-17,30],[-71,69],[-12,-9],[-48,46],[-42,22],[-45,-1],[-41,-12],[-57,-4],[-67,63],[-124,53],[-80,-2],[-46,19],[-51,41],[-30,45],[-10,31],[-17,24],[-43,28],[-42,51],[-48,18],[-27,27],[-2,33],[-47,41],[1,65],[-12,71],[-26,41],[-44,19],[-42,7],[-17,30],[-20,1],[-23,32],[-38,28],[-39,46],[-51,87],[-2,38],[-42,28],[-16,26],[28,43],[-65,58],[-16,47],[4,66],[-39,37],[-58,72],[-11,24],[12,35],[-39,28],[-16,36],[-1,59],[-20,33],[-6,50],[-33,54],[-1,24],[-27,49],[-22,21],[0,35],[-19,37],[-19,74],[-49,51],[3,12],[-43,44],[1,15],[52,39],[14,42],[29,17],[-2,55]],[[4338,2885],[83,46],[41,28],[45,52],[34,74],[135,-6],[3,97],[-2,158],[17,69],[24,39],[73,80],[106,96]],[[4897,3618],[42,-25],[58,-58],[150,-94],[26,-29],[29,-54],[44,-46],[80,-67],[50,-72],[21,-13],[27,36],[49,32],[51,52],[32,5],[99,75]],[[5655,3360],[85,-40],[27,-4],[-8,-110],[11,-75],[-21,-51],[-58,-46],[-76,-46],[-8,-49],[31,-24],[73,-17],[201,51]],[[5912,2949],[-2,-309]],[[3597,2668],[-9,109],[-34,25],[-36,10],[-11,50],[-33,9],[25,83],[-17,54],[1,110],[-19,78],[-552,245],[-8,-6],[-412,180],[-125,53],[-16,24]],[[2351,3692],[-11,17],[-20,97],[-44,253],[-28,148],[-67,372],[35,-20],[35,-5],[32,-40],[10,-79],[26,-28],[35,11],[51,-9],[112,-57],[24,-42],[25,-20],[49,-3],[87,17],[40,28],[8,52],[13,24],[46,44],[6,33],[21,-4],[41,-30],[43,12],[58,-33],[43,-9],[56,-34],[74,-11],[68,-152],[51,61],[7,38],[32,48],[28,12],[17,34],[47,46],[46,25],[25,26],[88,-2],[88,-11],[80,-19],[85,-32],[61,-4],[51,75],[23,18],[120,1],[6,7]],[[4074,4547],[100,-2],[88,-28],[86,2],[75,-29],[-3,-24],[37,-58],[74,-47],[36,-70],[3,-52],[20,-57],[-5,-62],[29,-49],[130,-78],[24,-35],[26,-13],[68,-61],[58,-63],[35,-50],[-5,-18],[-53,-49],[-6,-78],[6,-8]],[[9390,7505],[-63,-57],[-9,-16],[-29,-102],[-29,-57],[-30,-37],[-5,-71],[9,-41],[102,-67],[14,-60],[26,-36]],[[9376,6961],[-144,-195],[-102,-132],[-282,-383],[-161,-211],[-108,-149],[-109,-143],[-155,-209]],[[8315,5539],[-83,97],[-134,127],[-53,55],[-81,96],[-26,49],[-11,62],[-19,59]],[[7908,6084],[8,7],[-22,78],[-44,94],[-2,114],[34,60],[19,81],[-11,32],[-75,35],[-31,41],[5,52],[33,60],[35,40],[43,61],[39,43],[78,70],[15,22],[76,53],[11,16],[90,52],[32,8],[143,97],[163,67],[32,0],[61,16],[162,68],[78,59],[-59,50],[-31,12],[-63,-9],[-55,-40],[-56,-20],[-118,-18],[-14,26],[5,39],[18,30],[-6,47],[11,53],[-17,40],[-2,54],[33,54],[10,34]],[[8536,7762],[134,-6],[43,39],[36,-38],[114,2],[82,17],[37,20],[42,6],[31,17],[64,13],[75,1],[-4,-26],[11,-51],[28,-51],[10,-53],[53,-93],[26,-20],[72,-34]],[[948,4996],[7,7],[187,97],[22,18],[24,64],[10,98],[0,57],[18,82],[-23,159]],[[1193,5578],[52,4],[34,-14],[27,-42],[24,-20],[204,-41],[72,22],[21,15],[121,24],[28,15],[39,-6],[84,-37],[24,32],[27,69],[159,54],[40,-23],[-4,-92]],[[2145,5538],[-41,-53],[215,-61],[39,57],[20,15],[51,14],[124,12],[35,-4],[54,11],[42,18],[43,-6],[45,34],[39,18],[31,1],[22,22]],[[2864,5616],[91,-102],[74,-69],[152,-111],[57,-9],[69,37],[139,23],[37,-10],[60,-36],[65,-2],[46,20],[54,13],[74,-10],[69,-106],[19,-18],[66,2],[111,-10],[54,-30],[134,-55],[34,-28]],[[4269,5115],[78,-76],[66,-35],[36,-38]],[[4449,4966],[-40,-29],[-103,-114],[-79,-56],[-16,-28],[-48,-16],[-24,-33],[-12,-42],[-33,-79],[-20,-22]],[[2351,3692],[-213,248],[-124,136],[-166,186],[-321,329],[-7,-1],[-164,164],[-84,91],[-56,29],[-26,30],[-177,63],[-65,29]],[[1193,5578],[-9,22],[-18,90],[2,69],[23,88],[-3,108],[-25,188],[-30,129],[-66,174]],[[1067,6446],[-33,99],[-54,98],[-13,42],[-5,112],[5,127],[85,55],[65,48],[83,67],[138,99]],[[1338,7193],[-10,-51],[2,-123],[9,-39],[-7,-45],[16,-34],[2,-81],[-9,-52],[20,-51],[2,-100],[10,-33],[42,-82],[54,-57],[61,-97],[-2,-60],[50,-99],[67,-66],[8,-33],[53,-25],[-6,-56],[-69,-61],[-34,-9],[-44,-47],[54,-5],[55,-30],[63,11],[66,-6],[55,-22],[56,12],[80,-25],[32,-30],[23,29],[45,32],[10,-9],[52,-107],[39,-11],[37,-58],[33,-37],[-56,-52],[-49,-25],[-3,-21]],[[4449,4966],[55,-122],[20,13],[44,101],[53,6],[28,-19],[52,-8],[165,40],[58,33],[45,-21],[29,-44],[67,-56],[108,6],[110,1],[2,-111],[-9,-30],[48,-20],[27,-24],[3,-60],[1,-146],[-3,-64],[-11,-42],[24,-89],[16,-78],[17,-24],[50,-39],[14,-38],[10,-69],[4,-125],[10,-33],[4,-100],[60,-64],[38,-50],[-4,-74],[10,-86],[46,-70],[15,-100]],[[3250,8570],[27,-45],[-8,-36],[9,-42],[75,-139],[-105,-29],[-64,-5],[9,-25],[8,-122],[-7,-123],[-7,-10],[-5,-109],[-18,-56],[-23,-36],[-21,-83],[-37,-42],[-25,-40],[-3,-32],[-33,-46]],[[3022,7550],[-60,-46],[-5,-49],[-25,-27],[-31,-59],[-40,-53],[-23,-91],[-51,-32],[-44,-58],[-43,55],[16,57],[-9,44],[-65,-9],[-60,-107],[-23,-28]],[[2559,7147],[-29,16],[-29,139],[-16,23],[-69,37]],[[2416,7362],[19,33],[6,43],[32,41],[31,71],[51,76],[4,49],[48,67],[-58,110],[-9,38],[-43,80],[-14,9],[-11,73],[-51,64],[-71,41]],[[2350,8157],[10,27],[39,35],[36,19],[-9,51],[-2,56],[-19,70],[0,30],[-26,80],[-5,55],[-24,56],[-47,70]],[[2303,8706],[197,75],[422,163],[60,-2],[41,42],[125,48]],[[3148,9032],[-34,-129],[-6,-69],[16,-35],[77,-113],[49,-116]],[[2416,7362],[-11,-20],[-93,-46],[-39,-98],[-38,-50],[-39,54],[4,33],[40,36],[7,30],[-22,42],[-50,-40],[-4,-34],[-25,-59],[-34,-26],[-46,-19],[-56,-45],[-31,-8],[-51,37],[-60,10],[-49,33],[-69,57],[-29,16],[-47,5],[-37,-9],[-62,-35],[-26,23],[-13,45],[9,54]],[[1545,7348],[-12,57],[13,35],[1,87],[-26,45],[-46,53],[-22,13],[-39,2],[-74,40],[-15,22]],[[1325,7702],[-21,43],[21,67],[12,94],[25,50],[3,26],[28,65],[16,16],[47,18],[3,47],[68,47],[49,21],[49,8],[85,65],[83,25],[31,25],[51,26],[73,-33],[87,10],[57,-4],[29,-49],[51,-13],[80,-34],[25,-20],[48,-21],[25,-24]],[[1338,7193],[32,22],[120,95],[55,38]],[[2559,7147],[-13,-28],[10,-62],[-38,-74],[-4,-57],[-24,-49],[-5,-46],[-15,-44],[9,-36],[1,-84],[-27,-27],[44,-84],[12,-50],[34,-44],[89,-150],[107,-116],[20,-71],[8,-144],[-1,-38],[22,-115],[-1,-43],[41,-99],[36,-70]],[[5913,6584],[-19,-33],[-3,-31],[-35,-61],[-20,-52],[-3,-39],[20,-77],[-3,-39],[-25,-15],[-29,-39],[-44,-119],[-34,-65],[-3,-38],[18,-87],[-3,-123],[-31,-34],[-45,-24],[-21,-22],[-45,-14],[-56,-40],[-29,-40],[-5,-54],[-9,-11],[-28,-89],[-37,-87],[8,-22],[67,15],[43,-63],[4,-39],[21,-57],[5,-173],[-6,-17],[21,-114],[14,-21],[7,-46],[51,-114],[0,-62],[-57,-101],[-1,-47]],[[5601,4490],[1,-44],[37,-96],[29,-40],[400,-271]],[[6068,4039],[-188,-75],[-96,-14],[-35,-52],[1,-70],[75,-205],[-54,-75],[-56,-60],[-30,-40],[-30,-88]],[[4269,5115],[28,44],[32,68],[24,71],[-56,134],[-12,39],[-12,74],[-52,113],[-67,137],[1,29],[96,11],[37,34],[78,-28],[59,-10],[77,-4],[68,-15],[113,-14],[44,-11],[122,3],[15,40],[1,128],[12,118],[27,132],[35,0]],[[3022,7550],[110,-20],[59,-17],[45,-2],[80,-24],[83,-34],[30,-35],[54,-25],[82,-24],[56,-60],[58,-55],[84,-34],[28,-18],[62,-54],[46,10],[52,117],[36,69],[17,66],[-4,64],[11,68],[4,65],[22,32],[31,1],[-20,50],[-12,54],[-34,80],[-141,209],[-3,54],[35,20],[43,-42],[55,-79]],[[3991,7986],[59,-35],[40,-9],[39,-20],[96,-21],[83,1],[50,16],[19,84],[29,44],[45,39],[69,33],[83,25]],[[9390,7505],[52,63],[81,82],[10,32],[11,78],[166,10],[134,156],[-82,57],[-55,72],[-35,37],[-30,56]],[[9642,8148],[-21,64],[79,0],[34,14],[72,-27],[82,-44],[54,-15],[13,-15],[62,-7]],[[10017,8118],[37,-13],[58,28],[88,-71]],[[10200,8062],[-187,-250],[-31,-47],[-96,-128],[-48,-56],[-61,-87],[-99,-126],[-163,-222],[-68,-88],[-71,-97]],[[8536,7762],[11,47],[20,29],[33,88],[34,47],[31,19],[43,51],[63,129],[0,39],[-11,58],[-13,21]],[[8747,8290],[51,10],[54,-12],[29,21],[80,-6],[39,39],[42,10],[22,-7],[40,-47],[29,-3],[17,-27],[27,9],[54,-9],[31,-24],[31,67],[94,49]],[[9387,8360],[2,-225],[133,11],[120,2]],[[9387,8360],[42,-3],[25,40],[17,-28],[71,-17],[25,12],[70,-27],[-1,-35],[57,8],[41,-7],[20,31],[39,-14],[29,20],[5,-41],[33,-75],[38,12],[12,-11],[50,1],[-10,-27],[80,-1],[39,10],[18,-26]],[[10087,8182],[-51,-26],[-19,-38]],[[10087,8182],[30,4],[1,45],[15,10],[51,-3],[47,26],[26,-3],[10,31],[78,39],[31,-18],[-20,-41],[-156,-210]],[[7295,8171],[60,16],[39,-5],[17,19],[33,-26],[29,6],[34,-8],[29,-22],[37,18],[31,2],[23,19],[38,-2],[20,55],[31,-2],[11,-22],[31,2],[34,-17],[49,32],[52,21],[109,-68],[78,5],[21,36],[54,-10],[21,16],[40,2],[20,-20],[34,12],[36,-11],[6,32],[62,3],[25,24],[28,-23],[3,-39],[36,2],[29,23],[29,62],[39,10],[63,38],[45,-17],[35,-44],[41,0]],[[7908,6084],[-76,-32],[-28,1],[-62,41],[-49,6],[-12,41],[-47,40],[-85,1],[-63,-8],[-35,42],[-14,36],[-48,3],[-19,-9],[-56,-2],[-66,29],[-179,5],[-55,9],[-72,-12],[-51,3],[-17,-9],[-88,11],[-53,-5],[-40,6],[-65,29],[-66,11]],[[6562,6321],[-65,54],[-71,42],[-116,84],[-66,58],[-77,53],[-19,30],[-72,64],[-16,21]],[[8315,5539],[-263,-353],[-86,-119],[-56,-68],[-35,-51]],[[7875,4948],[-15,18],[-38,13],[-48,5],[-71,18],[-52,20],[-50,0],[-85,13],[-90,0],[-138,13],[-85,2],[-83,21],[-54,-6],[-106,-26],[-43,4],[-61,30],[-51,3],[-45,-10]],[[6760,5066],[-60,81],[-24,15],[-18,40],[-7,53],[-26,34],[-5,46],[-2,155],[-11,161],[0,77],[-21,151],[0,47],[-13,96],[-6,279],[-5,20]],[[7875,4948],[-154,-203],[-22,-34],[-149,-198],[-192,-177],[-43,-37],[-181,-169],[-294,-271]],[[6840,3859],[-116,28]],[[6724,3887],[9,15],[-43,63],[-73,89],[-21,39],[-15,55],[-44,80],[-22,74],[3,46],[-15,116],[-31,34],[-14,87],[-48,69],[-13,47],[31,71],[-1,24],[-58,45]],[[6369,4841],[70,87],[19,13],[53,62],[30,26],[63,32],[111,15],[45,-10]],[[6369,4841],[-48,-57],[-97,-88],[-104,-71],[-87,-43],[-149,-53],[-115,-23],[-168,-16]],[[6724,3887],[-4,0],[-442,134],[-117,30],[-93,-12]],[[3250,8570],[87,42],[37,2],[59,-18],[35,-3],[91,10],[44,14],[87,-5],[33,5],[61,30],[24,5],[66,-8],[34,8],[113,3],[22,-13],[-13,-58],[21,-116],[-5,-53],[-36,-41],[-5,-25],[10,-40],[-16,-55],[-18,-21],[2,-139],[10,-43],[-2,-65]],[[3148,9032],[48,21],[497,190],[251,98],[285,106],[220,85],[33,28],[52,20],[13,-8],[70,11],[36,34],[48,17],[49,70],[29,25],[46,-15],[52,1],[37,-54],[70,-18],[21,-21],[31,-9],[32,-24],[55,-25],[35,13],[41,-17],[15,-26],[-3,-28],[25,-37],[69,-5],[55,-43],[26,-36],[-8,-18],[11,-62],[67,-51],[16,-84],[24,-34],[44,-1],[32,-25],[59,-11],[23,3],[82,-28],[14,-28],[30,-24],[37,-10],[28,-33],[7,-41]],[[948,4996],[-197,73],[-94,28],[-16,14],[-258,97],[-36,6],[-21,16],[-170,64],[-33,3],[-34,20],[-84,37],[2,166],[-5,154],[16,46],[2,39],[-7,469],[-7,37]],[[6,6265],[55,-6],[50,22],[67,4],[92,12],[68,-2],[127,5],[21,91],[19,54],[29,56],[29,34],[21,-35],[79,-97],[52,17],[66,96],[11,57],[36,-26],[72,-26],[85,-13],[43,-51],[39,-11]],[[6,6265],[6,72],[-3,194],[8,79],[-17,389],[43,90],[230,462],[12,32],[100,200],[35,37],[134,63],[230,113]],[[784,7996],[46,-38],[44,-50],[26,-82],[29,-31],[5,-24],[-7,-45],[-14,-25],[1,-54],[13,-58],[170,45],[77,28],[125,36],[26,4]],[[784,7996],[308,155],[171,81],[121,62],[216,104],[174,80],[47,11],[51,55],[175,60],[97,41],[159,61]],[[6840,3859],[-629,-583],[-238,-221],[-58,-59],[-3,-47]]],"transform":{"scale":[0.0002044457609147887,0.0002167575154313877],"translate":[39.78587919564995,2.172590555250532]},"objects":{"wards.009.final":{"type":"GeometryCollection","geometries":[{"arcs":[[0,1,2,3,4,5]],"type":"Polygon","properties":{"code":"0203","name":"Morothile","constituency_code":"041","county_code":"009"}},{"arcs":[[-1,6,7,8]],"type":"Polygon","properties":{"code":"0204","name":"Rhamu","constituency_code":"041","county_code":"009"}},{"arcs":[[-6,9,10,11,-7]],"type":"Polygon","properties":{"code":"0205","name":"Rhamu-Dimtu","constituency_code":"041","county_code":"009"}},{"arcs":[[12,13,14]],"type":"Polygon","properties":{"code":"0207","name":"Kutulo","constituency_code":"042","county_code":"009"}},{"arcs":[[-14,15,16,17,18]],"type":"Polygon","properties":{"code":"0208","name":"Elwak South","constituency_code":"042","county_code":"009"}},{"arcs":[[19,20,21,-16,-13]],"type":"Polygon","properties":{"code":"0210","name":"Shimbir Fatuma","constituency_code":"042","county_code":"009"}},{"arcs":[[22,23,24,25,26]],"type":"Polygon","properties":{"code":"0211","name":"Arabia","constituency_code":"043","county_code":"009"}},{"arcs":[[27,28,29,30,31,32,-21,33]],"type":"Polygon","properties":{"code":"0191","name":"Takaba South","constituency_code":"039","county_code":"009"}},{"arcs":[[-29,34,35,36]],"type":"Polygon","properties":{"code":"0192","name":"Takaba","constituency_code":"039","county_code":"009"}},{"arcs":[[-17,-22,-33,37]],"type":"Polygon","properties":{"code":"0206","name":"Wargadud","constituency_code":"042","county_code":"009"}},{"arcs":[[38,39,40,41,42,43,44]],"type":"Polygon","properties":{"code":"0196","name":"Banissa","constituency_code":"040","county_code":"009"}},{"arcs":[[-42,45,46,47]],"type":"Polygon","properties":{"code":"0197","name":"Derkhale","constituency_code":"040","county_code":"009"}},{"arcs":[[-30,-37,48,-46,-41,49]],"type":"Polygon","properties":{"code":"0193","name":"Lagsure","constituency_code":"039","county_code":"009"}},{"arcs":[[-4,50,51,52,-38,-32,53]],"type":"Polygon","properties":{"code":"0201","name":"Ashabito","constituency_code":"041","county_code":"009"}},{"arcs":[[-5,-54,-31,-50,-40,54,55,-10]],"type":"Polygon","properties":{"code":"0202","name":"Guticha","constituency_code":"041","county_code":"009"}},{"arcs":[[-23,56,57,58,59]],"type":"Polygon","properties":{"code":"X001","name":"Bulla Mpya","constituency_code":"043","county_code":"009"}},{"arcs":[[-27,60,61,62,-57]],"type":"Polygon","properties":{"code":"0214","name":"Khalalio","constituency_code":"043","county_code":"009"}},{"arcs":[[-58,-63,63,64]],"type":"Polygon","properties":{"code":"0213","name":"Neboi","constituency_code":"043","county_code":"009"}},{"arcs":[[-59,-65,65]],"type":"Polygon","properties":{"code":"0212","name":"Township","constituency_code":"043","county_code":"009"}},{"arcs":[[-2,-9,66,-61,-26,67,68]],"type":"Polygon","properties":{"code":"0215","name":"Libehia","constituency_code":"043","county_code":"009"}},{"arcs":[[-25,69,70,71,-68]],"type":"Polygon","properties":{"code":"0217","name":"Fino","constituency_code":"044","county_code":"009"}},{"arcs":[[-71,72,73,74,75]],"type":"Polygon","properties":{"code":"0218","name":"Lafey","constituency_code":"044","county_code":"009"}},{"arcs":[[-3,-69,-72,-76,76,-51]],"type":"Polygon","properties":{"code":"0219","name":"Waranqara","constituency_code":"044","county_code":"009"}},{"arcs":[[-52,-77,-75,77]],"type":"Polygon","properties":{"code":"0220","name":"Alango Gof","constituency_code":"044","county_code":"009"}},{"arcs":[[-39,78,-55]],"type":"Polygon","properties":{"code":"0198","name":"Guba","constituency_code":"040","county_code":"009"}},{"arcs":[[-11,-56,-79,-45,79]],"type":"Polygon","properties":{"code":"0199","name":"Malkamari","constituency_code":"040","county_code":"009"}},{"arcs":[[-28,80,81,-35]],"type":"Polygon","properties":{"code":"0194","name":"Dandu","constituency_code":"039","county_code":"009"}},{"arcs":[[-36,-82,82,83,-47,-49]],"type":"Polygon","properties":{"code":"0195","name":"Gither","constituency_code":"039","county_code":"009"}},{"arcs":[[-43,-48,-84,84]],"type":"Polygon","properties":{"code":"0200","name":"Kiliwehiri","constituency_code":"040","county_code":"009"}},{"arcs":[[-18,-53,-78,-74,85]],"type":"Polygon","properties":{"code":"0209","name":"Elwak North","constituency_code":"042","county_code":"009"}}]}}}