{"type":"Topology","arcs":[[[10636,8239],[4,-34],[26,1],[52,-36]],[[10718,8170],[7,-29],[24,-16],[7,-22],[-61,-1],[9,-40],[16,-5],[-1,-56],[6,-18],[27,-19],[0,-109],[-105,-15],[-12,-12],[14,-41],[0,-59],[23,-31],[-10,-20],[-79,-67],[-33,-50],[-22,-15],[-22,-30],[-20,-47],[-50,-39],[-57,-21],[-44,-34]],[[10335,7374],[-31,53],[-40,37],[-33,10],[-49,53],[-11,24],[1,50],[-5,60],[-7,215],[1,112],[4,45],[-2,58],[13,19],[-25,25],[29,15],[23,36]],[[10203,8186],[132,9],[0,31],[19,23],[27,-8],[30,2],[7,-17],[67,-14],[24,5],[13,-25],[43,-18],[14,47],[43,2],[14,16]],[[9590,8351],[-3,-47],[-31,-70],[-7,-31],[-24,-26],[6,-31],[-68,6],[-29,-18],[-162,7],[-8,85],[-61,-4],[-45,2],[-21,44],[-14,43]],[[9123,8311],[-14,20],[-22,68],[-14,57],[5,58]],[[9078,8514],[45,1],[33,-11],[110,-23],[13,52],[-3,41],[17,16],[28,1],[12,-11],[26,-55],[59,-88],[11,-34],[23,-11],[138,-41]],[[10714,8254],[58,19],[17,-2],[30,12],[11,-18],[50,-48],[82,-39],[66,-1],[24,-12],[-5,-26],[20,0],[27,-19]],[[11094,8120],[-12,-31],[0,-27],[-29,-18],[-40,-37],[-24,-10],[-18,-19],[-20,40],[-65,28],[-22,-1],[-17,32],[-21,12],[-16,33],[-23,4],[-21,-10],[-37,61]],[[10729,8177],[-15,65],[0,12]],[[10744,5882],[-87,29],[-80,46],[-42,6],[-25,11],[-42,28],[-165,19],[-56,16],[-40,4],[-9,37],[-21,22],[-50,21],[-37,34],[-18,25],[55,29],[1,14],[-37,14],[-18,39],[1,23],[28,54],[64,37],[-12,45],[19,51],[41,46],[-5,32],[12,73],[29,36],[6,56],[16,7],[32,45],[6,24],[31,59],[8,58],[-18,41],[-7,34],[-11,15],[6,32],[16,27],[3,27],[-18,54],[-23,43],[-3,41],[-13,23],[37,31],[18,32],[-1,52]],[[10718,8170],[11,7]],[[11094,8120],[50,-25],[40,11],[9,-5],[9,-46],[130,9],[19,-10],[45,-9],[39,0],[42,-17],[49,25],[19,4],[69,-3],[32,34],[27,47],[24,3],[-4,-3],[-11,-95],[-28,-20],[-27,-31],[-31,-60],[6,-58],[43,-78],[29,-211],[17,-117],[9,-92],[6,-18],[27,-22],[9,-19],[9,-69],[5,-65],[1,-141],[5,-135],[1,-42],[7,-44],[-1,-147],[2,-98],[-19,-23],[-68,-48],[-124,-61],[-20,-26],[-68,-64],[-53,-57],[-6,-31],[-33,-3],[-53,-21],[-25,-4],[-57,-35],[-33,-47],[-155,-6],[-24,-16],[-33,-47],[-42,-14],[-29,-65],[-9,-40],[-11,-79],[-46,-3],[-119,-1]],[[3968,8093],[12,-57],[2,-33],[-10,-15],[-11,-44],[7,-29],[1,-51],[15,-67],[0,-184],[-5,-24],[-1,-109],[-10,-48],[-3,-63],[-16,-63],[-25,-76],[-33,-31],[-121,-88],[-119,-80],[-150,-95],[-83,-48],[-28,-13],[-46,-32],[-19,-23],[-13,-29],[-33,-42],[-84,-132],[-13,-26],[-75,-227],[-17,-31],[-43,-34],[-20,-30],[-13,-51],[-19,-89]],[[2995,6129],[-53,75],[-38,65],[-40,53],[-16,27],[24,50],[-6,31],[-18,45],[-21,30],[-34,62],[-23,58],[-32,48],[-47,57],[-32,-35],[-23,-50],[-22,-37],[-39,-29],[-87,-16],[-82,-45],[-14,-5],[-46,-33],[-25,-9],[-122,81],[-159,119],[-62,54],[-650,517],[-181,144],[-78,49],[-69,48],[-56,47],[-57,32],[-36,11],[-13,13],[-192,147],[-65,41],[-23,10],[-13,18],[-266,196],[-15,512],[-12,-2]],[[252,8508],[144,34],[69,13],[159,23],[-32,61],[-18,4],[-38,33],[2,77],[22,79],[25,19],[9,28],[31,26],[33,6],[25,25],[57,48],[15,33],[56,32],[52,20],[67,46],[26,54],[33,29],[92,30],[63,2],[41,51],[15,10],[82,28],[20,15],[5,76],[57,7],[87,1],[142,13],[477,16]],[[2070,9447],[347,6],[500,4],[25,-1],[292,5],[100,-1],[131,6],[110,0],[29,-12],[13,-15],[52,-23],[28,-50],[33,-34],[-17,-57],[35,-2],[5,-29],[35,-16],[3,-21],[25,-35],[29,-2],[34,-16],[17,-33],[34,-21],[32,-40],[11,-31],[56,-67],[10,-32],[42,-37],[13,-28],[-2,-21],[-22,-32],[-35,-22],[-19,-37],[19,-19],[-28,-62],[-2,-22],[-16,-47],[5,-23],[34,-66],[7,-86],[-24,-59],[-25,-35],[10,-42],[-20,-33],[-2,-26],[-12,-21],[-6,-38],[4,-46],[-8,-21],[16,-14]],[[252,8508],[-98,-19],[-13,-6]],[[141,8483],[5,44],[21,22],[10,28],[-6,79],[-10,15],[9,77],[25,14],[19,-14],[34,0],[28,26],[11,20],[26,14],[-19,48],[0,45],[29,15],[31,7],[18,29],[6,35],[13,14],[10,32],[-19,14],[-7,27],[4,25],[-40,24],[-38,-12],[13,35],[-15,32],[-24,28],[1,72],[-13,15],[-21,66],[-1,25],[21,40],[-55,79],[-13,60],[-48,56],[-33,32],[-31,39],[4,19],[-15,28],[-36,13],[54,13],[15,15],[47,79],[-28,38],[13,16],[1,29],[-9,12],[22,36],[13,71],[17,33],[9,59],[-12,36],[-6,39],[40,24],[-7,46],[28,30],[22,64],[40,70],[-9,62],[4,19],[-14,21],[0,36],[-17,9],[-47,-3],[-16,9],[-30,39],[-16,11],[5,28],[-7,16],[25,41],[6,29],[16,8],[6,47],[-15,51],[14,29],[-4,64],[-20,26],[-33,21],[-16,26],[-32,33],[-15,35],[-26,42],[17,10],[40,56],[-5,20],[48,13],[31,28],[-1,46],[-28,53],[11,47],[-3,63],[-40,-63],[-16,-6],[-36,5],[-28,50],[4,51],[-15,41],[-26,8],[-6,14],[234,-4],[53,29],[23,-10],[33,7],[45,-25],[39,-1],[69,-34],[17,0],[30,15],[51,-7],[35,20],[145,-4],[129,-2],[182,-5],[166,-3],[145,-5],[113,12],[176,27],[69,-6],[68,-43],[208,6]],[[2030,11562],[9,-44],[16,-21],[1,-49],[-19,-49],[-2,-81],[-8,-28],[18,-53],[-4,-93],[-12,-26],[-5,-45],[-21,-46],[-16,-6],[-26,-44],[4,-34],[-5,-40],[20,-36],[1,-28],[-16,-40],[-26,-32],[-5,-29],[36,-71],[-9,-100],[-26,-51],[0,-32],[-11,-38],[-12,-72],[4,-128],[15,-60],[34,-80],[10,-14],[33,-99],[25,-46],[11,-41],[5,-46],[4,-120],[-2,-109],[3,-66],[11,-64],[5,-54]],[[6562,4799],[144,-55],[105,-37],[254,-99],[49,-156],[41,-145],[53,-170],[60,-207],[46,-153],[128,-424],[31,-106],[-230,-86]],[[7243,3161],[-51,44],[-28,34],[-81,6],[-70,72],[-40,6],[-37,66],[0,19],[-42,27],[-28,25],[-24,34],[-28,76]],[[6814,3570],[55,36],[18,22],[18,45],[9,36],[-10,14],[-3,69],[26,30],[-2,52],[-12,22],[-73,66],[-24,28],[-37,24],[-1,33],[-46,106],[-19,36],[-15,10],[-16,32],[-19,90],[-39,82],[-5,45],[12,60],[5,96],[11,26],[-1,24],[-16,26],[-17,50],[-51,69]],[[8211,1804],[-31,-124],[-16,-47],[-6,-43],[-43,-188],[-14,-48],[-52,-220],[-39,-31],[-398,-312],[-14,-10],[-63,-50],[-941,-731],[-8,1],[-1,16],[14,232],[1,103],[5,92],[-52,33],[-320,231],[-25,-106],[-27,-27],[-33,-13],[-42,3],[-28,-11],[-34,1],[-20,-15],[-47,20],[-9,-25],[-67,5],[-53,-10],[-34,-20],[-56,-5],[-20,9],[-31,-3],[-64,-18],[-25,-12],[-26,14],[-67,-22],[-31,16],[-86,-63],[-22,0],[-17,-23],[-27,-10],[-18,6],[-24,55],[-11,-27],[-26,-23],[-7,-40],[-51,52],[-12,29],[-26,4],[-35,35],[-118,213],[-51,96],[-69,117],[-125,210],[7,4],[-33,49]],[[4743,1173],[200,108],[106,155],[43,68],[108,187],[95,18],[40,39]],[[5335,1748],[71,3],[30,-5],[36,-38],[74,-4],[57,34],[42,1],[24,23],[8,18],[25,17],[78,21],[26,32],[26,7],[40,23],[35,-2],[29,15],[59,7],[36,21],[34,13],[61,60],[2,17],[43,22],[18,0],[35,35],[50,23],[1,-17],[31,9],[44,-4],[39,-52],[48,-10],[20,-11],[82,2],[23,-10],[78,-1],[10,-9],[34,12],[70,-2],[42,15],[8,12],[35,9],[18,-5],[25,8],[46,-8],[21,13],[36,3],[44,-5],[33,19],[30,-12],[83,-14],[31,-18],[37,-7],[46,-28],[53,5],[81,-10],[65,-15],[65,5],[49,-24],[127,-52],[183,-25],[110,-12],[109,-40],[80,-8]],[[10636,8239],[56,-2],[22,17],[0,0]],[[9123,8311],[-67,-98],[-43,-52],[-143,15],[-27,-12],[5,-38],[55,-91],[13,-38],[30,-35],[21,-37],[35,-48],[28,-26],[8,-63],[23,-30],[3,-21],[21,-31],[2,-46],[31,-19],[-29,-35],[-40,6],[-44,-15],[-16,-41],[3,-47],[15,-19],[-5,-14],[-37,-15],[-14,-16],[0,-35],[9,-31],[-6,-23],[3,-32],[-19,-57],[13,-27],[2,-30],[16,-24],[-2,-34],[22,-28],[-13,-32],[7,-39],[-31,-8],[-8,-24],[15,-26],[-3,-23],[-17,-24],[6,-64],[10,-18],[1,-35],[28,-13],[-2,-13],[40,-20],[8,-20],[34,-33],[10,-22],[30,-15],[32,20],[14,-12],[10,-38],[44,-37],[25,-33],[-12,-56],[-24,-38],[8,-49],[26,-24],[7,-21],[33,-29],[17,-33],[19,-13],[28,-60],[19,-48],[28,-25],[32,-20],[55,-10],[83,2],[30,-19],[22,-22],[3,-21],[19,-20],[14,-48],[-3,-21],[55,-42],[-3,-22],[-18,-34],[9,-16],[-3,-31],[38,-42],[24,-37],[-11,-25],[-46,-23],[-45,-5],[-26,-39],[-2,-44],[13,-70],[52,-61],[32,-19],[8,-34],[30,-41],[40,-11],[24,-20],[12,-23],[2,-42],[17,-45],[20,-16],[30,-61],[16,-8],[34,-62],[20,-21],[30,-76],[10,-109],[45,-24],[17,-30],[25,-16],[-8,-43],[-28,-66],[10,-25],[4,-63],[19,-31]],[[10079,4643],[16,-34],[3,-72],[9,-42],[14,-36],[7,-48],[42,-98],[4,-41],[50,-98],[10,-62],[4,-67],[12,-22],[-2,-44],[-7,-17],[2,-59],[1,-36],[9,-52],[-29,-104],[13,-118],[18,-60],[11,-84],[-7,-151],[1,-58],[25,-86],[45,-116],[18,-18],[-10,-5]],[[10338,3015],[-120,239],[-330,655],[-481,1032],[-175,379],[-160,329],[-131,309],[-486,1063],[-67,146],[-40,0],[-82,171],[-12,38],[-37,52],[-16,35]],[[8201,7463],[25,23],[-44,47],[-25,-22],[-25,31],[0,10],[-37,39],[-46,57],[-46,19],[-17,16],[-58,69],[-72,57],[-31,54],[-45,67],[-30,31],[-33,46],[-43,73],[-52,59],[-50,73],[-32,52],[-107,102],[-20,15],[-26,33],[-34,24],[-61,64],[-30,22]],[[7262,8524],[24,17],[45,4],[111,27],[61,3],[342,-22],[295,-21],[58,-3],[243,-18],[191,68],[8,5],[73,12],[-6,36],[4,25],[-17,29],[9,11],[73,5],[16,-26],[24,-15],[37,-100],[73,-35],[103,1],[8,14],[41,-27]],[[10744,5882],[0,-77],[9,-181],[-13,-142],[-19,-127],[-30,-31],[-13,-43],[-3,-44],[-46,-44],[-132,-320],[-11,-24],[-65,-113],[-15,-9],[-232,-61],[-95,-23]],[[9590,8351],[285,-84],[63,-17],[131,-42],[64,-22],[70,0]],[[2030,11562],[462,26],[138,-69],[106,-24],[186,-75],[-2,-22],[64,2],[96,-63],[385,-246],[346,-223],[623,-399],[621,-398],[190,-121],[315,-215],[394,-271],[251,-160]],[[6205,9304],[-48,-88],[-61,-105],[-174,-348],[-32,-68],[-247,-375],[-35,-4],[-210,2],[-49,-3],[-150,-27],[-54,-14],[-123,-38],[-56,-10],[-83,-27],[-25,-14],[-46,-4],[-60,-12],[-153,-18],[-56,1],[-65,-8],[-42,0],[-235,-28],[-76,-3],[-112,-18],[-45,-2]],[[6205,9304],[214,-136],[49,-36],[285,-156],[25,-7],[62,-52],[33,-56],[101,-96],[67,-48],[18,-19],[67,-50],[71,-62],[45,-49],[20,-13]],[[8201,7463],[-96,-83],[-53,-40],[-303,-245],[-261,-208],[-136,-156],[-229,-308],[-85,-164],[-154,-194],[-428,-541],[-127,-145],[-50,-64],[-250,-311],[7,-3]],[[6036,5001],[-6,-13]],[[6030,4988],[-588,320],[-48,42],[-168,138],[-988,809],[-528,-73],[-464,-65],[-92,-16],[-157,-20]],[[2997,6123],[-2,6]],[[7243,3161],[-310,-118]],[[6933,3043],[-430,15],[-128,6],[-160,19],[-327,44]],[[5888,3127],[6,108]],[[5894,3235],[7,107],[10,95],[5,116],[5,49],[-11,12],[45,472],[7,7],[7,100],[28,379]],[[5997,4572],[18,-22],[30,-18],[48,-7],[42,-31],[14,-42],[60,-30],[24,-19],[25,-38],[5,-35],[3,-65],[32,-100],[48,-65],[36,-11],[34,-49],[39,-33],[29,17],[24,-22],[44,-20],[35,-38],[55,4],[46,-36],[-15,-6],[2,-47],[-59,-7],[-11,-7],[-9,-37],[-12,-15],[-42,-9],[-31,-15],[-48,-56],[-28,-17],[-18,-43],[25,-10],[70,-18],[26,-32],[22,-12],[14,-70],[-3,-38],[32,-4],[61,19],[52,-1],[34,10],[27,27],[11,28],[26,18]],[[5997,4572],[13,138],[20,278]],[[6036,5001],[131,-49],[75,-30],[259,-97],[61,-26]],[[2997,6123],[20,-29],[19,-48],[46,-36],[37,-35],[32,-40],[30,-53],[2,-85],[-8,-68],[-8,-27],[-30,-56],[3,-105],[20,-82],[22,-45],[60,-95],[22,-48],[27,-36],[34,-58],[55,-39],[45,-14],[87,-19],[91,-35],[99,-8],[21,-6],[4,-31],[-23,-22],[-28,-2],[-71,-18],[-400,-588],[-49,-57],[-66,-46],[-35,28],[-58,0],[-26,-10],[-12,-15],[-38,-23],[-79,-5],[-34,11],[-10,14],[-34,18],[-25,-1],[-21,-13],[-43,0],[-38,16],[-46,6],[-12,-11],[-42,0],[-44,-25],[-23,-24],[-29,-10],[-24,-34],[-4,-31],[-49,-9],[-33,-27]],[[2331,4147],[-45,115],[-107,291],[-89,-19],[-114,-1],[-12,25],[1,26],[-25,46],[0,71],[36,76],[-14,66],[6,59],[-13,98],[-19,56],[13,42],[-8,62],[-15,11],[-5,28],[18,18],[-20,24],[3,38],[44,-8],[25,32],[2,28],[-16,53],[12,38],[-5,12],[1,76],[-23,5],[-6,21],[17,7],[8,22],[-14,20],[-4,39],[-18,41],[17,15],[21,-6],[11,40],[-4,42],[-14,14],[-7,48],[-23,10],[-47,65],[-27,0],[-24,10],[-9,19],[-39,3],[-91,-20],[-10,-7],[-37,10],[-56,-7],[-26,-12],[-31,23],[-38,5],[-13,26],[-42,-1],[-19,-15],[-14,11],[-20,-12],[-27,5],[-27,-12],[-38,4],[8,28],[-4,22],[-30,31],[-54,21],[-15,28],[-23,4],[-61,53],[-38,7],[-10,28],[-21,19],[-42,0],[6,28],[-18,50],[-21,-11],[-25,17],[-19,29],[-81,106],[-21,13],[2,164],[-19,73],[-15,44],[-21,30],[-4,41],[-31,52],[-73,80],[-44,71],[-25,17],[-15,33],[-28,1],[-78,-24],[-15,42],[1,25],[-10,23],[6,92],[-35,46],[-1,26],[-13,27],[-55,43],[-5,19],[-26,11],[-43,37],[-22,35],[-43,22],[-11,23],[-43,23],[-14,21],[30,16],[28,29],[21,8],[58,-5],[10,15],[3,43],[-10,50],[17,28],[-7,53],[-14,43],[-13,17],[-39,19],[-6,36],[-27,29],[16,27],[-15,35],[6,11],[-11,42],[-27,14],[-11,30],[18,11],[-18,31],[15,32],[-21,54],[0,17],[-24,26],[-26,39],[14,14],[-5,20],[10,19],[0,39],[11,18],[-10,56],[11,15],[-11,18],[6,41]],[[10338,3015],[3,-5],[-115,-65],[-808,-456],[-613,-347],[-592,-335]],[[8213,1807],[-2,0],[-899,863],[-22,18],[-290,277],[37,0],[-91,78],[-13,0]],[[5894,3235],[-566,1],[-386,0],[-94,-9],[-99,7],[-108,-4],[-236,1],[-29,7],[-63,-4],[-148,2],[-200,-5],[-115,14],[-102,-7],[-108,6],[-119,-3],[-2,-49],[11,-66],[20,-73],[13,-91],[-5,-23],[20,-33],[13,-52],[3,-34],[-2,-69],[-10,-71],[35,-23],[11,-42],[-5,-52],[-11,-23]],[[3612,2540],[-76,7],[-14,7],[-90,18],[-64,30],[-245,8],[-35,33],[-25,20],[-27,3],[-102,72],[-43,24],[-28,1],[-62,-31],[-29,5],[8,58],[3,70],[8,22],[-12,99],[7,43],[-25,17],[3,88],[-40,95],[-9,33],[-9,68],[-11,39],[-23,36],[-90,190],[-78,71],[-150,410],[-23,71]],[[4743,1173],[-136,207],[-18,20],[3,1],[-181,281],[-201,82],[-115,431],[-144,4],[-22,22],[-33,48],[-163,114],[-40,54],[-9,29],[-4,73],[-68,1]],[[5888,3127],[-36,-159],[-21,-99],[-10,-85],[-14,-22],[-20,-63],[-98,-266],[-65,-165],[3,-32],[-27,-26],[-25,-42],[-16,-16],[-46,-27],[-136,-48],[-56,-13],[-9,-16],[-9,-51],[-5,-68],[12,-113],[25,-68]],[[8213,1807],[-2,-3]]],"transform":{"scale":[0.00026991343710519567,0.0002746423302440776],"translate":[36.169415454441975,1.2644636121687873]},"objects":{"wards.010.final":{"type":"GeometryCollection","geometries":[{"arcs":[[0,1,2,3]],"type":"Polygon","properties":{"code":"0221","name":"Butiye","constituency_code":"045","county_code":"010"}},{"arcs":[[4,5,6]],"type":"Polygon","properties":{"code":"0222","name":"Sololo","constituency_code":"045","county_code":"010"}},{"arcs":[[7,8,9]],"type":"Polygon","properties":{"code":"0223","name":"Heillu/manyatta","constituency_code":"045","county_code":"010"}},{"arcs":[[10,-2,11,-9,12]],"type":"Polygon","properties":{"code":"0224","name":"Golbo","constituency_code":"045","county_code":"010"}},{"arcs":[[13,14,15,16]],"type":"Polygon","properties":{"code":"0231","name":"North Horr","constituency_code":"046","county_code":"010"}},{"arcs":[[-16,17,18,19]],"type":"Polygon","properties":{"code":"0232","name":"Illeret","constituency_code":"046","county_code":"010"}},{"arcs":[[20,21,22]],"type":"Polygon","properties":{"code":"0233","name":"Sagante/jaldesa","constituency_code":"047","county_code":"010"}},{"arcs":[[23,24,25]],"type":"Polygon","properties":{"code":"0240","name":"Laisamis","constituency_code":"048","county_code":"010"}},{"arcs":[[-1,26,-10,-12]],"type":"Polygon","properties":{"code":"0225","name":"Moyale Township","constituency_code":"045","county_code":"010"}},{"arcs":[[-6,27,28,29,30,31]],"type":"Polygon","properties":{"code":"0226","name":"Uran","constituency_code":"045","county_code":"010"}},{"arcs":[[-3,-11,32,-28,-5,33]],"type":"Polygon","properties":{"code":"0227","name":"Obbu","constituency_code":"045","county_code":"010"}},{"arcs":[[-17,-20,34,35]],"type":"Polygon","properties":{"code":"0228","name":"Dukana","constituency_code":"046","county_code":"010"}},{"arcs":[[-14,-36,36,-31,37,38,39,40]],"type":"Polygon","properties":{"code":"0229","name":"Maikona","constituency_code":"046","county_code":"010"}},{"arcs":[[-22,41,42,43,44,45]],"type":"Polygon","properties":{"code":"0234","name":"Karare","constituency_code":"047","county_code":"010"}},{"arcs":[[-23,-46,46,-39,47]],"type":"Polygon","properties":{"code":"0235","name":"Marsabit Central","constituency_code":"047","county_code":"010"}},{"arcs":[[-15,-41,48,49,-18]],"type":"Polygon","properties":{"code":"0236","name":"Loiyangalani","constituency_code":"048","county_code":"010"}},{"arcs":[[-21,-48,-38,-30,50,51,-42]],"type":"Polygon","properties":{"code":"0230","name":"Turbi","constituency_code":"046","county_code":"010"}},{"arcs":[[-40,-47,-45,52,53,-49]],"type":"Polygon","properties":{"code":"0237","name":"Kargi/south Horr","constituency_code":"048","county_code":"010"}},{"arcs":[[-25,54,-53,-44,55]],"type":"Polygon","properties":{"code":"0238","name":"Korr/ngurunit","constituency_code":"048","county_code":"010"}},{"arcs":[[-26,-56,-43,-52,56]],"type":"Polygon","properties":{"code":"0239","name":"Logo Logo","constituency_code":"048","county_code":"010"}}]}}}