{"type":"Topology","arcs":[[[3625,2091],[35,65],[15,82]],[[3675,2238],[22,53],[38,174]],[[3735,2465],[24,0],[32,-247],[-79,-93],[-39,-35],[-45,2],[-3,-1]],[[3625,2091],[-89,-2]],[[3536,2089],[-9,39],[31,68],[35,39],[29,9],[53,-6]],[[6933,7934],[40,-50],[37,-25],[69,1],[44,-31],[138,-51],[40,-5],[76,-43],[34,-4],[33,-24],[101,-3],[48,-15],[67,-7],[85,-53],[27,-29],[44,-13],[89,-43],[68,-5],[58,17],[131,25],[72,38],[48,10],[79,0],[91,24],[92,-23],[75,18],[89,35],[135,25],[37,12],[42,-14],[24,4],[89,-15],[56,3],[29,-17],[-89,-55],[-119,-139],[-145,-124],[-33,-15],[-39,-45],[-44,-17],[-43,-56],[-40,-6],[-27,-19],[-26,-40],[-66,-34],[-95,-41],[-78,-59],[-9,-33],[-22,-26],[-48,-22],[-68,-61],[-42,-50],[-59,-24],[-64,-71],[82,-84],[99,-109],[163,-190],[168,-185],[174,-196],[253,-274],[14,-44],[1,-54]],[[8918,5603],[-28,7],[-61,-43],[-42,-2],[-20,-58],[-39,-22],[-27,-37],[11,-22],[-22,-28],[19,-26],[-20,-22],[22,-40],[-10,-53],[-26,-21],[-3,-69],[-45,-53],[-17,-30],[-86,-31],[-6,-47],[-17,-17],[1,-49],[-20,-37],[-30,-16],[-3,-53],[-29,-29],[-37,31],[-22,-9],[-48,40],[-49,-1],[-39,-54],[-101,20],[-82,2],[-26,-16],[-29,6],[-51,-6],[-22,13],[-28,-7],[-15,-24],[-39,27],[-14,-17],[11,-58],[-58,-41],[-28,48],[-38,5],[-29,-57],[-13,-58],[-14,-14]],[[7649,4635],[-47,18],[-53,33],[-25,-25],[-41,12],[-21,22],[-18,-33],[-34,-24],[-7,-24],[-40,4],[-87,-20],[-52,32],[-63,0],[-16,-19],[-44,-2],[-44,35]],[[7057,4644],[-27,-1],[-44,-23],[-49,8],[-18,17],[-37,0],[-30,-23],[-51,-19],[-66,21],[-33,-12],[-42,2],[-38,-19],[-8,-28],[-26,-29],[-41,-14],[-13,25],[-38,14],[-68,7],[-55,-17],[-68,-52],[-41,-4],[-19,-20],[-3,-62],[-26,-22]],[[6216,4393],[-165,111],[-43,754],[-20,376],[-7,170],[-11,123],[-352,460],[-69,86],[-13,304],[-1,70],[13,-1],[1297,1018],[88,70]],[[13281,5490],[-27,1],[-58,73],[-68,49],[-44,17],[-135,126],[-30,5],[-119,49],[-34,-5],[-66,11],[-44,33],[-25,31],[-118,50],[-35,27],[-130,25],[-67,36],[-88,-13],[-30,8],[-27,28],[-36,-21],[-60,9],[-35,-24],[-36,19],[-55,-5],[-46,39],[-46,64],[15,25],[-22,30],[-23,0],[-58,36],[-50,58],[-15,32],[-76,55],[-62,-2],[-28,38],[-97,3],[-56,33],[-82,-3],[-73,36],[-71,42],[-57,15],[-42,-7],[-54,28],[-38,-16],[-58,-6],[-43,24],[-59,-21],[-48,-52],[-92,-10],[-84,47],[-53,-57],[-50,-2],[-21,20],[-46,8],[-44,25],[-115,-27],[-78,-38],[-59,-22],[-40,-27],[-10,18],[-42,-9],[-29,-58],[-38,-24],[-42,-7],[-11,-18],[-96,-44],[-95,-50],[-17,-41],[-22,0],[-33,-35],[4,-66],[-26,-26],[-38,5],[-18,-20],[1,-42],[-23,-17],[-8,-69],[-28,-36],[-42,16],[-67,-13],[-4,-22],[-31,-12],[-23,-35],[-59,-25],[-47,-52]],[[9199,5705],[-20,-32],[12,-27],[-27,-10],[-41,-39],[-32,7],[-45,-30],[-71,-3],[-57,32]],[[6933,7934],[19,13],[550,434],[54,44],[72,307],[18,66],[61,262],[7,60],[22,65],[42,172],[3,5],[818,467],[846,482],[1116,636],[158,90],[-3,6],[13,8],[7,4],[119,-136],[5,-20],[-4,-78],[28,-31],[14,-36],[-15,-62],[20,-77],[58,-56],[45,-61],[34,-17],[49,-46],[8,-31],[105,-145],[35,-19],[8,-44],[17,-26],[143,-122],[133,-80],[43,-40],[6,-21],[46,-75],[17,-7],[1,-86],[23,-22],[12,-65],[16,-22],[42,-26],[17,-47],[28,-38],[40,-117],[-1,-38],[23,-43],[80,-111],[2,-26],[63,-100],[45,-21],[55,-5],[23,-27],[52,-7],[69,-44],[30,-27],[43,4],[62,-38],[2,-20],[46,-30],[75,-19],[22,-50],[26,12],[33,-55],[43,-8],[32,-36],[29,-3],[7,-28],[30,-19],[43,-75],[25,-17],[61,-101],[42,-26],[6,-38],[37,-1],[19,-53],[37,-26],[42,8],[46,-30],[14,-25],[96,-64],[5,-20],[-395,-123],[-48,-21],[-297,-104],[-118,-48],[141,-365],[205,-524],[161,-415],[27,-65],[194,-493],[84,-225],[32,-59],[35,-103],[67,-160]],[[3699,2862],[-5,43],[21,68],[-1,35],[15,59],[19,33],[10,90],[-6,36],[-24,38],[-43,23],[-17,47]],[[3668,3334],[12,21],[2,47],[40,5],[23,20],[46,-5],[71,46],[41,2],[19,-19],[28,16],[15,112],[23,-1],[35,52],[36,-1],[59,18],[39,53],[23,-19],[19,76],[32,32],[36,1],[33,19],[33,-1],[22,-37],[58,-25],[21,36],[25,-2],[26,26],[18,39],[52,6],[27,-19],[47,8],[35,19],[45,-1],[43,-29],[47,22],[73,2],[32,17],[72,7],[43,59],[-14,26],[6,42],[26,46],[55,23],[41,38],[32,7],[21,68],[17,5],[45,-19],[37,-58],[32,1],[1,-27],[40,-19],[21,-27],[25,32],[21,-4],[78,79],[35,50],[51,6],[16,30],[67,22],[3,22],[65,89],[40,4],[30,47],[29,5],[19,27],[-5,38],[30,21],[7,-40],[34,4],[59,-41],[49,-9],[25,-33],[35,-20],[80,24],[44,-2]],[[7057,4644],[-22,-19],[-88,-47],[-54,-5],[-46,-64],[-16,-42],[-45,-24],[-34,-106],[15,-78],[-35,-71],[-42,-66],[1,-37],[-41,-24],[-67,-24],[-46,-32],[-36,-44],[2,-32],[-15,-71],[-17,-33],[-21,-11],[-17,-39],[-77,-58],[2,-82],[-30,-34],[-24,0],[-49,-46],[-30,-43]],[[6225,3512],[-95,313],[-342,-156],[-50,-21],[-244,-113],[-197,-87],[-373,-170],[-259,-90],[-250,-83],[-60,-18],[-80,-28],[-128,-43],[-175,-63],[-163,-54],[-110,-37]],[[3536,2089],[-23,-35],[-22,-55],[16,-23],[-2,-36],[3,-18],[-22,-51],[13,-18],[-24,-45],[-31,-27],[-6,-22],[-169,49],[-181,48],[-192,75],[-149,-9],[-3,-55],[-105,-73],[-7,0],[35,29],[12,50],[31,27],[-9,30],[18,21],[-12,27],[4,58],[-15,43],[3,140],[-43,18],[-23,30],[-8,31],[10,43],[-50,34],[-2,61],[-30,49],[-45,21],[-10,18],[-5,81],[-16,53],[-2,43],[12,51],[33,37],[21,98],[-7,66],[51,70]],[[2585,3023],[55,83],[-10,49],[6,77],[13,11],[45,-5],[27,56],[-13,55]],[[2708,3349],[29,9],[128,6],[17,16],[45,-13],[31,12],[24,-8],[74,25],[26,34],[27,3],[25,-24],[66,7],[20,-20],[-4,-51],[61,-10],[43,-35],[51,19],[46,-24],[17,4],[26,39],[34,15],[48,-33],[37,9],[47,-3],[42,8]],[[3699,2862],[-5,-51],[-20,-32],[-7,-105],[3,-132],[19,-78],[46,1]],[[2585,3023],[-517,52],[-358,42],[-969,115],[-179,23],[-470,56],[-92,6],[17,37],[3,37],[-11,33],[50,69],[19,0],[20,36],[26,-12],[11,73],[29,30],[61,8],[2,54],[21,37],[-3,39],[11,25],[40,-6],[10,50],[15,17],[-6,91],[7,179],[23,29],[-3,46],[22,63],[46,-44],[25,-11],[98,-1],[31,18],[36,-12],[51,14],[27,18],[25,-7],[236,87],[48,27],[53,-36],[16,9],[5,61],[72,18],[32,0],[60,30],[38,-40],[36,15],[32,-27],[17,-59],[46,-37],[22,9],[57,-5],[-2,-36],[48,0],[25,-47],[38,9],[55,-13],[80,20],[67,-36],[33,-1],[63,55],[29,12],[50,55],[50,3],[45,-31],[28,-30],[12,-36],[46,-31],[38,-14],[14,-33],[41,-45],[25,-90],[31,-44],[13,-53],[27,-21],[37,-56],[3,-50],[45,-56],[41,-18],[-6,-36],[26,-23],[31,-62],[-5,-34],[9,-70],[40,3],[14,-15],[-4,-49],[45,3],[36,-27],[67,-33]],[[8718,327],[-36,79],[-50,59],[-5,37],[11,50],[-39,15],[-27,69],[-12,55],[-25,35],[-44,15],[-8,32],[-22,16],[-28,81],[-30,34],[-43,30],[-31,65],[-31,38],[-4,41],[-56,30],[-43,37],[-8,39],[-128,-10],[-26,44],[-29,102],[-27,21],[-25,56],[0,29],[20,36],[-12,60],[3,56],[18,36],[18,76],[-1,27],[-22,69],[2,44],[-53,115],[16,61],[-12,51],[-40,35],[3,62],[-16,15],[-73,32],[-13,25],[-42,32],[-164,136],[10,30],[-16,58],[-44,106],[-37,56],[-28,88],[22,77],[-3,61],[-53,85],[-13,51],[-18,128],[-27,106],[-20,62],[12,39],[38,26],[51,63],[22,60],[24,31],[55,131],[88,133],[31,53],[53,112],[15,86],[-19,89],[13,62],[4,89],[-8,71],[-16,36],[-57,54],[-26,73],[13,60],[-1,65]],[[9199,5705],[27,-42],[88,-87],[40,-51],[16,-38],[4,-47],[37,-37],[38,-64],[26,-62],[10,-55],[-6,-89],[5,-100],[17,-84],[51,-100],[11,-99],[-11,-45],[-30,-41],[-25,-69],[-12,-124],[-11,-34],[11,-20],[44,-13],[120,-61],[119,-35],[49,-27],[0,-45],[-29,-38],[-1,-40],[-25,-45],[11,-37],[-23,-43],[-35,3],[-110,-24],[-42,-44],[-50,-7],[-69,-38],[-37,-57],[-60,-44],[-51,-73],[-66,-152],[-25,-110],[-37,-112],[-45,-50],[1,-238],[-23,-50],[26,2],[57,-40]],[[9184,2999],[26,-29],[36,-7],[18,-21],[11,-92],[60,-145],[26,-123],[67,-242],[5,-14],[88,-344],[35,-118],[108,-433],[11,-86],[-1,-46],[-99,-115],[-17,-41],[-1,-53],[-11,-51],[-1,-77],[5,-70],[-16,-23],[8,-41],[-7,-73],[7,-63],[14,-37],[-7,-25],[43,-123],[-11,-48],[-25,-31],[-3,-41],[-20,-61],[28,-60],[-33,-167],[-57,9],[-107,70],[-21,34],[-25,-6],[2,-38],[-20,-22],[-138,47],[-44,-33],[-45,-6],[-73,76],[-65,47],[-23,2],[-44,-21],[-43,31],[-43,9],[-64,29]],[[8718,327],[-101,8],[-34,-61],[-5,-57],[-58,-14],[9,-51],[-58,-43],[-60,12],[-36,-18],[-70,14],[-11,-51],[-23,-22],[-119,-44],[-30,0],[-68,60],[-56,-8],[-40,19],[-47,32],[13,54],[-37,55],[-6,73],[-24,16],[1,53],[-28,11],[-20,27],[-66,28],[-1,21],[-39,11],[-9,27],[-60,44],[-18,60],[22,31],[-73,41],[26,57],[-12,22],[-51,45],[-42,9],[-25,31],[25,89],[-36,12],[-17,50],[-42,4],[-26,68],[8,41],[-35,131],[-17,21],[-45,23],[-4,20],[-53,41],[-15,-2],[-43,36],[-10,44],[-84,59],[-37,13],[-19,31],[-31,21],[-30,-4],[-59,36],[-79,29],[-22,29],[15,326],[11,119],[-106,45],[-69,193],[-81,227],[-114,328],[-149,421],[-73,242]],[[13281,5490],[14,-12],[-10,-14],[-26,-23],[-99,-31],[-99,-40],[-114,-37],[-215,-93],[-79,-58],[-109,-59],[-29,-21],[-84,-93],[-60,-58],[-32,-39],[-68,-68],[-58,-48],[-84,-99],[-44,-105],[-63,-88],[-54,-46],[-49,-75],[-57,-120],[-49,-31],[-5,-32],[-26,-18],[26,-56],[-7,-42],[-102,-64],[-39,-39],[-6,-44],[-49,-16],[-76,12],[-92,-10],[-21,-52],[-42,-1],[-21,-14],[-77,20],[-17,16],[-78,13],[-18,-34],[-77,-67],[-31,0],[-22,-57],[2,-57],[-50,-19],[-1,-68],[-62,-11],[-71,10],[-43,-22],[-62,6],[-63,20],[-81,-2],[-48,-89],[-30,-29],[-47,-23],[-56,-15],[-35,5],[-15,-16],[-80,2],[-21,33],[-49,-2],[-58,-38],[-44,-19],[-21,-25],[-53,-19],[-49,-47],[-2,-15],[-36,-35],[-6,-31],[-47,-60],[-38,-21],[-53,-82],[-68,-37],[-15,-17],[-58,22],[-9,34],[-18,10],[-89,-24],[-44,22],[-18,-14],[7,-43],[-63,-4],[-36,-24],[-38,12],[-50,0],[-39,-9],[-82,10],[-10,-17]]],"transform":{"scale":[0.00019553460098395358,0.00019724996712856805],"translate":[36.86460129827172,-0.08590389669817539]},"objects":{"wards.011.final":{"type":"GeometryCollection","geometries":[{"arcs":[[0,1,2]],"type":"Polygon","properties":{"code":"0241","name":"Wabera","constituency_code":"049","county_code":"011"}},{"arcs":[[-1,3,4]],"type":"Polygon","properties":{"code":"0242","name":"Bulla Pesa","constituency_code":"049","county_code":"011"}},{"arcs":[[5,6,7,8,9]],"type":"Polygon","properties":{"code":"0243","name":"Chari","constituency_code":"049","county_code":"011"}},{"arcs":[[10,11,-6,12]],"type":"Polygon","properties":{"code":"0244","name":"Cherab","constituency_code":"049","county_code":"011"}},{"arcs":[[13,14,-9,15,16]],"type":"Polygon","properties":{"code":"0245","name":"Ngare Mara","constituency_code":"049","county_code":"011"}},{"arcs":[[-2,-5,17,18,19,-14,20]],"type":"Polygon","properties":{"code":"0246","name":"Burat","constituency_code":"049","county_code":"011"}},{"arcs":[[-19,21]],"type":"Polygon","properties":{"code":"0247","name":"Oldo/nyiro","constituency_code":"049","county_code":"011"}},{"arcs":[[22,-7,-12,23,24]],"type":"Polygon","properties":{"code":"0248","name":"Garbatulla","constituency_code":"050","county_code":"011"}},{"arcs":[[25,-16,-8,-23]],"type":"Polygon","properties":{"code":"0249","name":"Kinna","constituency_code":"050","county_code":"011"}},{"arcs":[[-24,-11,26]],"type":"Polygon","properties":{"code":"0250","name":"Sericho","constituency_code":"050","county_code":"011"}}]}}}