{"type":"Topology","arcs":[[[5154,2727],[-26,-30]],[[5128,2697],[-101,42],[-77,-1],[-1,55],[-18,8],[1,52],[21,34]],[[4953,2887],[-24,16],[16,35],[38,10]],[[4983,2948],[46,-16],[32,-34],[26,-79],[55,-35],[12,-57]],[[5128,2697],[-62,-110],[2,-29]],[[5068,2558],[-21,-63]],[[5047,2495],[-50,31],[-54,61],[-49,-44],[-50,24],[-162,140],[-63,46]],[[4619,2753],[39,99],[49,25],[83,25],[74,-24]],[[4864,2878],[89,9]],[[5154,2727],[32,5],[30,37],[63,-8],[66,32],[62,4],[113,-4],[29,-43],[33,-15],[16,-31],[33,-8],[34,-42],[70,-30]],[[5735,2624],[-101,-122],[-7,-80],[-69,-51],[-11,-23]],[[5547,2348],[-93,74],[-43,-34],[-36,-4],[-39,68],[-51,-9],[-95,38],[-34,34],[-21,65],[-44,-27],[-23,5]],[[5047,2495],[-19,-16],[-31,-64],[17,-79],[28,2],[5,-72],[16,-52],[43,-29],[73,-25],[54,-9],[24,-33],[-51,-52],[28,-8],[31,-68],[47,-17],[24,-56],[-14,-31],[-1,-154]],[[5321,1732],[-68,-14],[-57,13],[-23,60],[10,30],[-28,43],[9,27],[-26,23],[-61,6],[-48,29],[-31,2],[-36,68],[9,100],[-56,-20],[-40,22],[-56,86],[-8,75],[26,86],[-14,29],[-46,-11],[-59,62],[-30,79]],[[4688,2527],[-17,23],[-52,203]],[[5547,2348],[-12,-40],[-6,-84],[-19,-46],[-25,-109],[12,-68],[-24,-86],[-58,-130],[-51,-54],[-31,-10]],[[5333,1721],[-12,11]],[[5035,3228],[2,-90],[40,-63]],[[5077,3075],[-59,-72],[-33,-1]],[[4985,3002],[-2,77],[-19,-2],[-37,43],[-38,11],[-55,55],[-23,-9],[-55,66],[-79,40],[-22,-25],[-53,1],[-97,75],[-16,43],[-43,49],[-23,7],[-58,-38],[-11,36],[-49,41],[1,40],[-52,45],[-15,45],[-16,93],[13,21],[-6,58],[7,44]],[[4237,3818],[38,-33],[24,-78],[39,-23],[29,-35],[15,-55],[76,-88],[37,-10],[87,-5],[32,-14],[33,42],[47,-7],[57,-24],[64,-74],[44,-8],[48,-40],[15,-36],[51,-34],[18,-48],[44,-20]],[[5594,1470],[-39,49],[-24,67],[-46,53],[-15,-5],[4,3],[-45,52],[-67,12],[-29,20]],[[5735,2624],[184,220],[92,102],[-142,-19],[-123,-21],[-47,70],[-76,-16],[-143,-13],[-29,25],[-78,14],[-32,37],[-111,14],[-141,24],[-12,14]],[[5035,3228],[70,8],[32,14]],[[5137,3250],[33,25],[22,-19],[75,-20]],[[5267,3236],[33,36],[76,-34],[45,32],[26,-25],[49,-15],[74,36],[45,9],[105,-30],[73,-39],[40,9],[95,-39],[75,-15],[158,-44],[203,233]],[[6364,3350],[122,-54],[-13,-144],[-17,-394],[25,-35],[91,-36],[67,-44],[34,6],[36,-26],[21,-38],[42,-15],[96,-72],[12,-53],[49,-43],[17,2],[61,-49],[5,-25],[52,-27],[18,-26],[41,-159],[-9,-49],[29,-82],[48,-5],[20,-61],[40,-14],[-28,-108],[28,-37],[48,-11],[59,-55],[14,-26],[-30,-70],[84,-50],[-26,-36],[21,-73],[68,-53],[11,-34],[45,-13],[0,-26],[76,-33],[22,-33],[33,-13],[-1,-64],[27,-20],[7,-88],[42,-66],[-14,-65],[53,-40],[-2,-6],[-19,-18],[-81,-18],[-53,16],[-14,-42],[-33,-41],[-30,2],[-20,34],[-54,14],[-28,30],[-81,60],[-29,11],[-45,-7],[-51,-27],[-33,41],[-72,50],[-56,25],[14,36],[-30,39],[-31,14],[-19,51],[-72,43],[-42,1],[-24,20],[-92,6],[-21,-38],[-45,39],[-1,23],[-41,9],[-19,75],[-41,13],[8,34],[-64,20],[-25,25],[-91,-24],[-28,18],[-80,50],[-68,10],[-112,111],[-79,40],[-51,-13],[-36,39],[-55,-52],[-52,6],[-38,-35],[-39,-85],[-50,28],[-24,-54],[-32,11],[-34,-10],[-66,24],[-15,-21]],[[4983,2948],[2,54]],[[4864,2878],[-19,45],[-56,52],[-34,-3],[-33,30],[-37,55],[-11,54],[-57,35],[-49,6],[-28,41],[-71,28],[-75,68],[-42,27],[-72,4],[-34,38],[-32,75],[-1,28],[-40,32],[-127,117],[-91,97],[-73,90],[-42,117],[-36,30],[-57,68],[-19,48],[-17,94],[-2,49],[-33,226],[-5,115]],[[3671,4544],[69,21],[286,102]],[[4026,4667],[21,-140],[8,-131],[39,-276],[39,-139],[40,-101],[55,-31],[9,-31]],[[4619,2753],[-7,-14],[-27,-76],[-2,-5],[-2,-7],[-13,-26],[-4,-6],[-31,-36],[-15,-13],[-34,-4],[-22,30]],[[4462,2596],[-6,323],[-29,42],[-87,72],[-2,15],[-54,43],[-48,51],[-133,166],[-115,187],[-89,138],[-24,28],[-38,13],[-63,-4],[-26,48],[10,69],[-12,84],[-22,28],[-22,82],[-60,128],[-29,76],[-17,82],[2,180],[-19,64]],[[3579,4511],[92,33]],[[5137,3250],[12,43],[-92,23],[-68,57],[5,28],[-55,75],[-109,18],[-145,73],[-7,34],[27,55],[-65,58],[-2,28],[-52,79],[-69,70],[-74,141],[-54,163],[-12,90],[-27,131],[-14,125],[-15,234]],[[4321,4775],[427,206]],[[4748,4981],[19,-11],[-6,-68],[-13,-26],[9,-43],[-27,-43],[-14,-51],[1,-63],[13,-29],[15,-113],[2,-55],[63,-105],[-21,-59],[37,-50],[-4,-51],[50,-93],[-1,-65],[12,-9],[37,-110],[51,-42],[17,-30],[-38,-47],[-68,-63],[31,-56],[37,-38],[70,-43],[4,-57],[45,-14],[42,-67]],[[5111,3480],[34,-30],[13,-48],[27,-22],[7,-43],[26,0],[49,-101]],[[4026,4667],[295,108]],[[5111,3480],[23,41],[56,63],[50,35]],[[5240,3619],[68,13],[92,-30],[121,-9],[103,-15],[111,-3],[146,-18],[230,36],[53,16],[122,-24]],[[6286,3585],[78,-235]],[[4748,4981],[225,106],[279,136]],[[5252,5223],[37,-130],[48,-131],[82,-275],[14,-67],[-40,-87],[-20,-90],[-45,-81],[-2,-53],[-18,-52],[-100,-116],[-11,-44],[-68,-95],[-26,-61],[-2,-40],[86,-71],[25,-76],[18,-8],[-18,-57],[28,-70]],[[5252,5223],[57,25],[391,189],[108,-378],[84,-293],[171,-510],[130,-397],[93,-274]],[[2936,3379],[90,114],[-36,298],[-28,0],[-53,-1],[-21,95],[-3,159],[8,127],[23,39],[5,62],[126,45]],[[3047,4317],[2,-28],[107,-713],[28,-205],[22,-96],[52,13],[54,-37],[49,-49],[82,-47],[55,-8],[25,-33],[113,-45],[35,15],[18,-74],[66,-129],[8,-69],[104,-99],[64,-29],[52,-42],[89,-48],[-6,-11]],[[4066,2583],[-83,-62],[-78,44],[-48,2],[-21,45],[-41,43],[-135,3],[-89,25],[-91,99],[-53,72],[-14,61],[-79,106],[-117,-97]],[[3217,2924],[-166,264],[-115,191]],[[4066,2583],[9,-19],[125,-84],[80,-64],[2,-32],[30,-42]],[[4312,2342],[41,-70],[63,-86],[29,-29]],[[4445,2157],[-26,-45],[-31,-6],[-24,49],[-57,1],[-3,-19]],[[4304,2137],[-13,31],[-41,17],[-27,29],[-49,-16],[-22,34],[6,27],[-44,46],[-58,37],[-41,42],[-79,34],[-74,11],[-60,42],[-101,51],[-86,62],[-67,2],[-87,-23],[-17,11],[-87,112],[-140,238]],[[2839,3339],[53,-2],[44,42]],[[4304,2137],[-7,-33],[-71,-35],[11,-25],[-26,-60]],[[4211,1984],[-2,-1]],[[4209,1983],[-67,30],[-55,41],[-22,30],[-163,119],[-101,95],[-91,14],[-42,22],[-17,-36],[-29,-7],[-47,28],[-81,-44],[-22,-25]],[[3472,2250],[-59,41],[-87,133],[-10,27],[-51,64],[-83,131],[-39,83],[-43,112],[-60,68],[-22,-9],[-37,53],[-44,83],[39,57],[-56,122],[-52,-28],[-33,57],[-26,25],[30,70]],[[4209,1983],[-126,-71],[-94,-115]],[[3989,1797],[0,72],[-12,32],[-44,26]],[[3933,1927],[-37,10],[-20,34],[-68,7],[-33,20],[-92,-21],[-53,42],[-42,124],[-24,14],[-53,68],[-15,6]],[[3496,2231],[-24,19]],[[4211,1984],[39,-81],[36,-24],[-23,-84],[25,-39],[77,-57],[21,-33],[4,-54],[48,-49],[51,-24],[5,-31],[64,-31]],[[4558,1477],[85,-46],[32,-43],[35,-15],[34,13],[47,-28],[58,-9],[14,14],[111,6]],[[4974,1369],[47,-26],[44,20],[-41,-36],[-68,6],[-22,14],[-144,-9],[-43,-15],[-19,-37]],[[4728,1286],[-33,39],[-42,4],[-51,43],[-51,14],[-29,73],[-32,24],[-108,38],[-109,-12],[-51,29],[-31,35],[-69,8],[-40,54],[-59,0],[-15,24],[-20,93],[1,45]],[[5594,1470],[-44,31],[-139,78],[-93,91],[-41,18],[-44,-4],[-95,10],[-27,27],[-16,-49],[-45,4],[-35,57],[-92,-48],[-18,42],[-56,6],[-73,-143],[-40,-65],[75,-34],[-29,-59],[68,15],[28,-11],[95,-11],[1,-56]],[[4558,1477],[-6,62],[71,28],[50,8],[21,77],[35,11],[19,80],[38,61],[-71,118],[-18,62],[-24,13],[-9,44],[-90,70]],[[4574,2111],[3,33],[-17,38],[4,41],[43,24],[17,155],[0,70],[-20,42],[21,19],[45,-33],[18,27]],[[4445,2157],[59,6],[70,-52]],[[4312,2342],[23,65],[38,45],[31,15],[22,43],[-25,18],[19,31]],[[4420,2559],[42,37]],[[3047,4317],[186,65],[200,76]],[[3433,4458],[57,-105],[-6,-73],[30,-78],[-2,-43],[32,-47],[65,-33],[1,-57],[20,-50],[0,-61],[-23,-33],[-20,-95],[65,-196],[5,-51],[64,-83],[143,-209],[57,-55],[95,-48],[17,-52],[31,-10],[65,-63],[28,-58],[-3,-120],[54,-107],[92,-83],[59,-63],[61,-26]],[[3433,4458],[146,53]],[[3217,1789],[25,-37],[49,-18],[-17,-30],[53,-15]],[[3327,1689],[-22,-89]],[[3305,1600],[-46,-11],[-70,35],[-52,13],[-13,73],[30,69],[63,10]],[[3327,1689],[69,-3],[4,-53],[24,-78],[55,11]],[[3479,1566],[35,-51],[9,-36],[47,-26],[25,-45]],[[3595,1408],[-81,48],[-25,7],[-35,-29],[-18,45],[-46,28],[-54,1],[-39,51],[8,41]],[[3933,1927],[4,-34],[-27,-35],[-15,-85],[49,-21],[5,-26],[-56,-16],[-58,100],[-1,57],[-60,14],[-61,55],[-84,2],[-23,32]],[[3606,1970],[0,28],[-40,38],[-28,-19],[-31,6],[-38,31],[-26,75],[-33,24],[-38,-11],[-13,-27],[-14,-86],[-61,-2],[22,-64],[-41,-127],[-48,-47]],[[3595,1408],[-34,-36]],[[3561,1372],[-38,23],[-57,-12],[-26,-21],[-89,-16],[-11,-31],[-90,22]],[[3250,1337],[-59,24],[7,26],[-49,20],[-18,32],[-30,8],[-47,53],[-78,36],[-23,87],[-97,26]],[[2856,1649],[47,66],[30,-9],[58,39],[68,11],[-5,45],[-33,-7],[-4,83],[42,18],[-32,56],[25,52],[-36,66]],[[3016,2069],[34,62],[37,-4],[128,12],[41,52],[82,35],[52,-2],[51,17],[55,-10]],[[3606,1970],[-29,-89],[1,-43],[34,-63],[23,-16],[-66,-79],[-28,-21],[-20,-75],[-42,-18]],[[4728,1286],[-12,-84]],[[4716,1202],[-66,11],[-26,41],[-108,-16],[-67,19]],[[4449,1257],[-61,9],[-20,27],[-63,3],[-27,38],[-57,7],[-145,75],[-10,16],[-105,-59],[-50,34],[-37,-18],[-68,-3],[-72,-28],[-18,-48],[-25,-3]],[[3691,1307],[-130,65]],[[960,1912],[-38,-23],[22,-44],[1,-57],[43,-44],[40,-7],[85,-48],[46,-58],[47,-36],[4,-35],[34,-63]],[[1244,1497],[-37,-51],[-43,31],[-49,17],[-58,-28],[-47,9],[-23,-27],[-30,53],[-53,46],[-38,20],[-3,-58],[52,-37],[41,-57],[4,-53],[44,-44],[-434,3],[-17,-88],[-100,-31],[-33,-28],[2,-33],[42,-46],[-26,-34],[-19,-65]],[[419,996],[-135,94],[-26,27],[4,29],[-68,55],[-48,45],[-33,83],[-21,11],[-16,54],[-76,67],[123,95],[119,-1],[112,39],[21,34],[101,34],[106,8],[86,44],[34,40],[63,15],[82,44],[7,103],[33,7],[73,-11]],[[960,1912],[59,87],[115,118],[-6,54],[7,82],[80,88],[40,23],[30,36],[73,40],[73,-15],[52,33],[-22,50],[65,6],[1,98],[30,44],[4,55],[18,35],[-3,37],[34,6],[14,62],[-27,39],[104,89],[8,0],[121,88],[3,67],[170,10],[220,-90],[206,-58],[193,-60]],[[2622,2936],[-36,-46],[-1,-41],[-74,-86]],[[2511,2763],[-21,-46],[-87,-41],[-34,-49],[-18,-93],[18,-77],[-1,-38],[22,-40],[-38,-35],[59,-49],[-37,-70],[-18,-108],[17,-48],[-3,-47],[19,-65],[-28,-67]],[[2361,1890],[-37,-14],[-27,-34],[-124,-68],[-288,-73],[-98,-32],[38,-112],[-22,-54],[-11,-65],[-18,2]],[[1774,1440],[-41,18],[-100,-30],[-13,-41],[-43,16],[-42,-31],[-85,-11],[-35,-39],[-56,25],[-46,74],[-69,76]],[[2856,1649],[-11,-12]],[[2845,1637],[-20,34],[-66,62],[-28,42],[21,42],[-63,70],[-5,44],[51,210],[-91,195],[-40,101],[13,27],[-19,43],[17,85],[-15,40],[-46,22],[-43,109]],[[2622,2936],[7,28],[36,32],[28,55],[-15,21],[24,61],[-2,22]],[[2700,3155],[60,-45],[18,-105],[-17,-8],[22,-136],[33,-126],[30,-57],[21,-160],[48,-182],[-27,-38],[-6,-77],[19,-99],[51,1],[21,-28],[43,-26]],[[2700,3155],[1,44],[-18,28],[25,67],[26,43],[103,2],[2,0]],[[4449,1257],[-70,-47],[-102,-3],[-41,-90],[10,-43],[-21,-90],[-27,-13],[-67,56],[-37,-56],[-61,-9],[-43,-34],[-92,-3],[-61,-10],[-106,22],[-49,-29],[-60,38],[-37,-44],[-27,-6]],[[3558,896],[-47,45],[-41,9]],[[3470,950],[37,57],[30,9],[79,-6],[37,24],[-18,36],[-46,11],[7,58],[57,24],[101,-11],[70,30],[-7,34],[-61,-12],[-18,77],[-47,26]],[[3470,950],[-24,-25]],[[3446,925],[-69,13],[-40,27],[-11,40],[-49,91]],[[3277,1096],[-30,13],[6,34],[-78,62],[-11,76],[67,18],[19,38]],[[3277,1096],[-23,-16],[-48,13],[-84,63],[-84,4],[-21,16],[-35,-15],[-48,8],[-35,20],[-57,-38],[-92,-35]],[[2750,1116],[-1466,-715]],[[1284,401],[-1,1]],[[1283,402],[491,1038]],[[2361,1890],[-15,-48],[-26,-13],[-7,-41],[59,-2],[33,15],[88,2],[30,21],[27,47],[56,23],[-2,-70],[25,-79],[9,-64],[33,-126],[10,-67],[90,-30],[25,107],[78,35],[-29,37]],[[4716,1202],[3,-38],[-58,-74],[-3,-98],[63,-27],[-59,-36],[-2,-42],[41,-16],[-46,-38],[-38,-12],[3,-30],[-65,-22],[18,-56],[-81,-46],[-5,-19]],[[4487,648],[-45,22],[-28,34],[-41,19],[-56,-32],[-27,26],[-93,13],[-71,-14],[-23,18],[-129,-60],[-68,11],[-39,42],[-77,15],[-46,49],[-57,24],[-30,39],[-70,14],[-29,28]],[[4487,648],[-19,-29],[43,-72],[-87,-63],[-281,-160]],[[4143,324],[-67,45],[-29,99],[-67,52],[-33,66],[-22,-4],[-37,59],[-35,-11],[-25,26],[-100,-40],[-15,11],[-104,-51],[-8,51],[24,29],[-1,41],[16,80],[-29,-1],[-37,24],[-28,-5],[-83,25]],[[3463,820],[-30,36],[13,69]],[[3972,353],[-43,-62],[-39,-95],[-24,-30],[-72,-30],[-25,-36],[-69,-23],[-23,6],[-162,-10],[-31,-24],[-98,8]],[[3386,57],[-35,36],[-23,73],[-94,101],[24,26],[-33,27],[-8,31],[24,43],[38,36]],[[3279,430],[43,0]],[[3322,430],[164,-31],[46,4],[17,-22],[35,17],[37,-13],[95,29],[45,-31],[60,7],[24,30],[30,-35],[52,-36],[45,4]],[[3386,57],[-9,-51],[-39,-6],[-25,19],[-74,2],[-114,48],[-54,64],[-63,-1],[-65,35],[-36,34]],[[2907,201],[-24,17],[-52,63],[79,20],[76,-8],[25,69],[44,-40],[39,6],[29,38],[-24,33],[-24,-7],[-31,39],[-47,-14],[-41,5],[-42,-47],[-65,24],[-46,53],[99,2],[46,22],[41,3],[77,-50],[101,25],[4,-24],[108,0]],[[4143,324],[0,-4],[-33,-31],[-75,53],[-63,11]],[[3322,430],[-27,36],[22,82],[-11,9],[2,87],[22,45],[-40,31],[-41,-4],[-17,64],[-27,-4]],[[3205,776],[4,60],[45,24],[29,-35],[39,-21],[40,5],[36,-35],[28,-7],[37,53]],[[2750,1116],[32,-18],[-2,-109],[23,-31],[-5,-98],[91,13],[202,-27],[76,-37],[38,-33]],[[2907,201],[-49,16],[-76,-28],[-81,26],[-95,-10],[-47,-17],[-147,5],[-1121,204],[-2,1],[-3,2],[-2,1]],[[1283,402],[-410,282],[-454,312]]],"transform":{"scale":[0.00017102841445849694,0.0001629572209659872],"translate":[37.088325839987085,-0.2174820825134846]},"objects":{"wards.012.final":{"type":"GeometryCollection","geometries":[{"arcs":[[0,1,2,3]],"type":"Polygon","properties":{"code":"0251","name":"Maua","constituency_code":"051","county_code":"012"}},{"arcs":[[-2,4,5,6,7,8]],"type":"Polygon","properties":{"code":"0252","name":"Kiegoi/antubochiu","constituency_code":"051","county_code":"012"}},{"arcs":[[-1,9,10,11,-5]],"type":"Polygon","properties":{"code":"0253","name":"Athiru Gaiti","constituency_code":"051","county_code":"012"}},{"arcs":[[-7,12,13,14]],"type":"Polygon","properties":{"code":"0254","name":"Akachiu","constituency_code":"051","county_code":"012"}},{"arcs":[[-6,-12,15,16,-13]],"type":"Polygon","properties":{"code":"0255","name":"Kanuni","constituency_code":"051","county_code":"012"}},{"arcs":[[17,18,19,20]],"type":"Polygon","properties":{"code":"0256","name":"Akirang'ondu","constituency_code":"052","county_code":"012"}},{"arcs":[[21,-16,-11,22,-18,23,24,25,26]],"type":"Polygon","properties":{"code":"0257","name":"Athiru Ruujine","constituency_code":"052","county_code":"012"}},{"arcs":[[-4,27,-19,-23,-10]],"type":"Polygon","properties":{"code":"0258","name":"Igembe East","constituency_code":"052","county_code":"012"}},{"arcs":[[-3,-9,28,29,30,-20,-28]],"type":"Polygon","properties":{"code":"0259","name":"Njia","constituency_code":"052","county_code":"012"}},{"arcs":[[-8,31,32,33,-29]],"type":"Polygon","properties":{"code":"0260","name":"Kangeta","constituency_code":"052","county_code":"012"}},{"arcs":[[-25,34,35,36,37]],"type":"Polygon","properties":{"code":"0261","name":"Antuambui","constituency_code":"053","county_code":"012"}},{"arcs":[[-21,-31,38,-35,-24]],"type":"Polygon","properties":{"code":"0262","name":"Ntunene","constituency_code":"053","county_code":"012"}},{"arcs":[[-26,-38,39,40,41]],"type":"Polygon","properties":{"code":"0263","name":"Antubetwe Kiongo","constituency_code":"053","county_code":"012"}},{"arcs":[[-37,42,43,-40]],"type":"Polygon","properties":{"code":"0264","name":"Naathu","constituency_code":"053","county_code":"012"}},{"arcs":[[-41,-44,44]],"type":"Polygon","properties":{"code":"0265","name":"Amwathi","constituency_code":"053","county_code":"012"}},{"arcs":[[45,46,47,48]],"type":"Polygon","properties":{"code":"0266","name":"Athwana","constituency_code":"054","county_code":"012"}},{"arcs":[[-48,49,50,51,52]],"type":"Polygon","properties":{"code":"0267","name":"Akithii","constituency_code":"054","county_code":"012"}},{"arcs":[[53,-49,-53,54,55,56,57]],"type":"Polygon","properties":{"code":"0268","name":"Kianjai","constituency_code":"054","county_code":"012"}},{"arcs":[[-57,58,59,60,61]],"type":"Polygon","properties":{"code":"0269","name":"Nkomo","constituency_code":"054","county_code":"012"}},{"arcs":[[-56,62,63,64,65,-59]],"type":"Polygon","properties":{"code":"0270","name":"Mbeu","constituency_code":"054","county_code":"012"}},{"arcs":[[-14,-17,-22,66,-64,67,68]],"type":"Polygon","properties":{"code":"0271","name":"Thangatha","constituency_code":"055","county_code":"012"}},{"arcs":[[-52,69,-68,-63,-55]],"type":"Polygon","properties":{"code":"0272","name":"Mikinduri","constituency_code":"055","county_code":"012"}},{"arcs":[[-15,-69,-70,-51,70,71,-32]],"type":"Polygon","properties":{"code":"0273","name":"Kiguchwa","constituency_code":"055","county_code":"012"}},{"arcs":[[-47,72,73,-71,-50]],"type":"Polygon","properties":{"code":"0274","name":"Muthara","constituency_code":"055","county_code":"012"}},{"arcs":[[-33,-72,-74,74]],"type":"Polygon","properties":{"code":"0275","name":"Karama","constituency_code":"055","county_code":"012"}},{"arcs":[[75,76,77]],"type":"Polygon","properties":{"code":"0276","name":"Municipality","constituency_code":"056","county_code":"012"}},{"arcs":[[-77,78,79,80]],"type":"Polygon","properties":{"code":"0277","name":"Ntima East","constituency_code":"056","county_code":"012"}},{"arcs":[[-61,81,82,-78,-81,83,84,85,86,87]],"type":"Polygon","properties":{"code":"0278","name":"Ntima West","constituency_code":"056","county_code":"012"}},{"arcs":[[-76,-83,88,-79]],"type":"Polygon","properties":{"code":"0279","name":"Nyaki West","constituency_code":"056","county_code":"012"}},{"arcs":[[-60,-66,89,90,91,92,-84,-80,-89,-82]],"type":"Polygon","properties":{"code":"0280","name":"Nyaki East","constituency_code":"056","county_code":"012"}},{"arcs":[[93,94,95]],"type":"Polygon","properties":{"code":"0281","name":"Timau","constituency_code":"057","county_code":"012"}},{"arcs":[[-94,96,97,98,99,100]],"type":"Polygon","properties":{"code":"0282","name":"Kisima","constituency_code":"057","county_code":"012"}},{"arcs":[[-87,101,102,-98,103,104]],"type":"Polygon","properties":{"code":"0283","name":"Kiirua/naari","constituency_code":"057","county_code":"012"}},{"arcs":[[-58,-62,-88,-105,105]],"type":"Polygon","properties":{"code":"0284","name":"Ruiri/rwarera","constituency_code":"057","county_code":"012"}},{"arcs":[[-92,106,107,108]],"type":"Polygon","properties":{"code":"0285","name":"Mwanganthia","constituency_code":"058","county_code":"012"}},{"arcs":[[-85,-93,-109,109,110,111]],"type":"Polygon","properties":{"code":"0286","name":"Abothuguchi Central","constituency_code":"058","county_code":"012"}},{"arcs":[[-86,-112,112,113,114,115,-100,116,-102]],"type":"Polygon","properties":{"code":"0287","name":"Abothuguchi West","constituency_code":"058","county_code":"012"}},{"arcs":[[-91,117,118,-107]],"type":"Polygon","properties":{"code":"0288","name":"Kiagu","constituency_code":"058","county_code":"012"}},{"arcs":[[-99,-103,-117]],"type":"Polygon","properties":{"code":"0289","name":"Kibirichia","constituency_code":"057","county_code":"012"}},{"arcs":[[-108,-119,119,120,121,-110]],"type":"Polygon","properties":{"code":"0290","name":"Mitunguu","constituency_code":"059","county_code":"012"}},{"arcs":[[122,123,124,125]],"type":"Polygon","properties":{"code":"0291","name":"Igoji East","constituency_code":"059","county_code":"012"}},{"arcs":[[-124,126,127]],"type":"Polygon","properties":{"code":"0292","name":"Igoji West","constituency_code":"059","county_code":"012"}},{"arcs":[[-121,128,-126,129,130]],"type":"Polygon","properties":{"code":"0293","name":"Abogeta East","constituency_code":"059","county_code":"012"}},{"arcs":[[-114,131,-130,-125,-128,132]],"type":"Polygon","properties":{"code":"0294","name":"Abogeta West","constituency_code":"059","county_code":"012"}},{"arcs":[[[-95,-101,-116,133]],[[-111,-122,-131,-132,-113]]],"type":"MultiPolygon","properties":{"code":"0295","name":"Nkuene","constituency_code":"059","county_code":"012"}}]}}}