{"type":"Topology","arcs":[[[2704,1192],[-98,8],[-70,-28],[-52,-7],[-44,14],[-26,-51],[-21,-92],[-41,-19],[-25,58]],[[2327,1075],[-30,35],[-50,-16],[-15,-22],[-40,28],[-55,8],[-48,32],[-44,1],[-28,-40],[-39,13],[-46,-29],[-34,3],[-13,-29],[-66,48],[-37,-20],[-31,24]],[[1751,1111],[16,128],[-25,9],[-21,58]],[[1721,1306],[32,-35],[43,6],[140,-15],[24,20],[45,-5],[11,-26],[57,2],[69,16],[64,-1],[80,-48],[30,-46],[61,-9],[37,46],[112,7],[26,26],[34,-5],[42,25],[51,-20],[25,-52]],[[1721,1306],[-35,43],[43,29],[38,72],[36,5],[40,-18],[23,29],[50,-5],[93,-58],[34,14],[62,-6],[56,21]],[[2161,1432],[53,-33],[39,-52],[60,21],[113,-7],[27,-16],[73,19],[21,-30],[89,20],[10,-24],[61,1],[22,20]],[[2729,1351],[70,-85],[28,-4]],[[2827,1262],[54,-83],[-2,-103],[-32,-4],[-16,31],[-46,13]],[[2785,1116],[-32,47],[-49,29]],[[2797,2183],[36,-128],[-36,-25],[13,-53],[-17,-42],[23,-54],[52,-44],[45,-77],[8,-69],[2,0],[1,-1]],[[2924,1690],[-67,35],[-44,-7],[-49,10],[-15,-22],[18,-101],[101,-42],[66,-76],[-12,-60],[-109,-81],[14,-84]],[[2729,1351],[-136,87],[-20,36],[-71,65],[-20,-12],[-33,45],[-57,-14],[-72,78],[-52,36],[-63,10]],[[2205,1682],[-54,49],[-42,-6],[-58,54],[-44,10]],[[2007,1789],[39,7],[8,63],[96,-9],[31,29],[158,12],[23,-7],[68,28],[24,45],[71,36],[23,37],[38,116],[43,77],[61,-14],[74,-66],[33,40]],[[2924,1690],[89,-122],[13,-51],[30,-29],[39,-76],[49,-123],[33,-57],[21,-98],[35,-38],[102,-20],[19,-26],[-33,-99],[-2,-61],[49,-31],[-33,-35],[24,-77]],[[3359,747],[-21,51],[-30,25],[-30,-38],[-42,-15],[2,-45],[-15,-76],[-30,-40],[5,-85],[-68,-39],[-26,-39],[-28,-84],[-62,-1],[-59,-87],[-44,-42],[0,-36],[-109,-103],[-53,-23],[-18,-36],[-28,14],[-63,-28],[-60,-2],[-17,21],[-81,5],[-87,-44],[-36,7],[-20,38],[-80,26],[-8,23],[-47,15],[-19,35]],[[2185,144],[30,43],[21,118],[25,29]],[[2261,334],[65,-31],[38,3],[37,81],[40,34]],[[2441,421],[66,5],[48,-66],[70,13],[41,45],[-4,62],[30,17],[60,-13],[40,12],[19,28],[-26,34],[-50,19],[-33,51],[-5,53],[24,79],[53,68],[41,18],[-121,193],[5,39],[86,38]],[[5034,3533],[28,-23],[89,30],[25,-31],[62,-24],[-8,-42],[41,-15],[18,-92],[40,-12],[1,-29],[45,-48],[20,47],[90,-7],[24,-25],[40,-1],[72,-52],[18,-63],[30,-17],[30,-47],[-14,-44],[55,-31],[-28,-35],[-25,-83],[-64,-65],[-11,-53],[-33,7],[-34,-25],[-29,-58],[-56,22],[-9,21],[-58,20],[-42,-44],[-56,-28],[-21,-38],[-39,-28],[-49,-86],[-4,-65],[-27,-20],[-10,-76],[5,-43],[-56,-22],[-22,-38],[-44,-21],[-10,-110],[0,-115],[-18,-76],[-103,-237],[6,-34],[-16,-59],[-45,-18],[-33,5],[-37,-30],[-25,-97],[-49,-45],[-14,-42],[-65,-66],[-45,8],[-24,-29],[-76,40],[-92,6],[-96,-18],[-64,0],[-72,18],[-46,50],[-67,0],[-52,12]],[[3985,1412],[-12,25],[17,56],[-13,33],[24,52],[-2,51],[33,43],[-1,66],[14,60],[-25,55],[35,207],[-26,82],[10,93],[-3,74],[23,62],[-16,32],[21,47],[-22,28],[-27,93],[-5,106]],[[4010,2677],[9,122],[19,44],[-4,106],[-14,31],[7,50],[-13,38],[20,126],[-10,20]],[[4024,3214],[42,29],[24,-36],[38,41],[1,30],[66,32],[69,-17],[71,50],[34,0],[9,64],[34,-18],[36,-56],[34,-87],[25,3],[25,-52],[-5,-29],[41,-54],[21,-5],[69,-113],[76,112],[188,286],[76,77],[36,62]],[[4024,3214],[-11,69],[-61,-20],[-25,43],[-51,25],[-53,70],[-29,9],[-27,-23],[-67,75]],[[3700,3462],[-42,-25],[-47,32],[-1,69],[-93,14],[-27,13],[-67,-19],[29,73],[-74,41],[39,80],[72,176],[54,-8],[18,-51],[90,59],[34,-71],[44,-4],[17,59],[26,-32],[93,-12],[43,4],[40,-22],[91,-111],[137,-96],[44,-38],[14,25],[65,-29],[33,13],[31,-14],[24,66],[49,-34],[38,104],[38,43],[50,-7],[54,63],[35,-48],[50,16],[78,-48],[110,-136],[66,-13],[79,-61]],[[4010,2677],[-53,-13],[-47,6],[-29,-24],[-6,-65],[-66,44],[-40,-11],[-67,123],[-71,90],[-4,29],[-50,49],[-17,83],[-44,89],[-65,105],[-48,54],[-41,-18]],[[3362,3218],[-3,47],[11,102],[18,46],[43,18],[141,11],[22,-17],[67,-7],[39,44]],[[3157,2460],[28,9],[36,-58],[-3,-64],[14,-125],[35,-56],[70,-308],[30,-56],[102,-103],[-56,-27],[-43,-39],[68,-100],[9,-38],[37,-47],[95,-12],[112,-2],[35,22],[52,-27],[86,42],[48,-63],[34,-15]],[[3946,1393],[-22,-62],[-2,-78],[-53,-108],[-20,-98],[29,-27],[0,-59],[-23,-3],[-52,-161],[35,-54],[-59,-79],[33,-39],[5,-55],[-28,-57],[2,-99],[-28,-22],[1,-83],[-71,-104],[-90,-18],[-37,15],[-28,-17],[-26,30],[10,60],[-39,19],[-38,-8],[-16,46],[-33,16],[-2,73],[-60,19],[4,77],[33,35],[2,62],[-39,29],[25,104]],[[2797,2183],[0,3],[275,198],[85,76]],[[3985,1412],[-39,-19]],[[3157,2460],[-42,89],[19,35],[4,24],[80,56],[-18,68],[64,28],[-3,37],[37,14],[46,47],[-40,19],[2,52],[57,44],[-61,34],[3,120],[57,91]],[[2161,1432],[-73,75],[-55,3],[-11,30],[17,66],[-2,53],[39,-5],[43,32],[86,-4]],[[1751,1111],[-7,2]],[[1744,1113],[-106,71],[-1638,1092]],[[0,2276],[1099,-250],[144,-7],[46,22],[93,12],[80,-32],[74,35],[48,-19],[36,-42],[63,-44],[62,1],[54,-77],[111,-60],[73,-2],[24,-24]],[[2441,421],[-42,108],[-44,45],[-41,65],[-4,32],[-45,27],[9,86],[-91,55],[-25,-18],[-43,6]],[[2115,827],[-12,78],[95,46],[92,110],[37,14]],[[2115,827],[-65,39],[-81,25],[-38,-14],[-129,91],[-36,-13],[-52,37]],[[1714,992],[-1,29],[31,92]],[[2185,144],[-52,48],[-64,6],[-50,30],[-22,45],[-66,56],[-41,57],[-3,39],[-37,45],[-45,-5],[-52,21],[-10,24],[-64,2],[-85,76],[-19,40],[-30,-2],[-59,46],[-22,-18],[-64,40],[-17,19],[-742,838],[-641,725]],[[1714,992],[11,-94],[-10,-42],[102,-99],[39,-3],[20,26],[64,-31],[27,-65],[107,6],[23,-93],[-2,-32],[90,-44],[107,-117],[5,-39],[-36,-31]]],"transform":{"scale":[0.0001744164993132303,0.00013283125069236352],"translate":[37.30916707907226,-0.45517172467487854]},"objects":{"wards.013.final":{"type":"GeometryCollection","geometries":[{"arcs":[[0,1,2,3]],"type":"Polygon","properties":{"code":"0296","name":"Mitheru","constituency_code":"060","county_code":"013"}},{"arcs":[[-4,4,5,6,7,8]],"type":"Polygon","properties":{"code":"0297","name":"Muthambi","constituency_code":"060","county_code":"013"}},{"arcs":[[9,10,-7,11,12,13]],"type":"Polygon","properties":{"code":"0298","name":"Mwimbi","constituency_code":"060","county_code":"013"}},{"arcs":[[-8,-11,14,15,16,17,18]],"type":"Polygon","properties":{"code":"0305","name":"Igambang'ombe","constituency_code":"061","county_code":"013"}},{"arcs":[[19,20,21,22]],"type":"Polygon","properties":{"code":"0306","name":"Gatunga","constituency_code":"062","county_code":"013"}},{"arcs":[[-23,23,24]],"type":"Polygon","properties":{"code":"0307","name":"Mukothima","constituency_code":"062","county_code":"013"}},{"arcs":[[-24,-22,25,26]],"type":"Polygon","properties":{"code":"0308","name":"Nkondi","constituency_code":"062","county_code":"013"}},{"arcs":[[27,28,-15,-10,29]],"type":"Polygon","properties":{"code":"0309","name":"Chiakariga","constituency_code":"062","county_code":"013"}},{"arcs":[[-26,-21,30,-28,31]],"type":"Polygon","properties":{"code":"0310","name":"Marimanti","constituency_code":"062","county_code":"013"}},{"arcs":[[-6,32,-12]],"type":"Polygon","properties":{"code":"0299","name":"Ganga","constituency_code":"060","county_code":"013"}},{"arcs":[[-13,-33,-5,-3,33,34,35]],"type":"Polygon","properties":{"code":"0300","name":"Chogoria","constituency_code":"060","county_code":"013"}},{"arcs":[[-1,-9,-19,36,37]],"type":"Polygon","properties":{"code":"0301","name":"Mariani","constituency_code":"061","county_code":"013"}},{"arcs":[[-2,-38,38,39,-34]],"type":"Polygon","properties":{"code":"0302","name":"Karingani","constituency_code":"061","county_code":"013"}},{"arcs":[[-17,40,-35,-40,41]],"type":"Polygon","properties":{"code":"0303","name":"Magumoni","constituency_code":"061","county_code":"013"}},{"arcs":[[-18,-42,-39,-37]],"type":"Polygon","properties":{"code":"0304","name":"Mugwe","constituency_code":"061","county_code":"013"}}]}}}