{"type":"Topology","arcs":[[[1892,3134],[5,-74]],[[1897,3060],[-57,-25],[-39,-44],[-65,5],[-38,33],[-65,0],[-37,27]],[[1596,3056],[-4,76],[-68,41],[-26,39],[-35,108],[44,11],[0,33],[-41,6],[-25,48],[73,79],[61,41]],[[1575,3538],[30,-76],[80,-78],[90,-41],[43,-47],[56,-39],[18,-123]],[[1897,3060],[27,-43]],[[1924,3017],[-11,-35]],[[1913,2982],[-78,-59],[-99,-25],[-94,-2],[-65,-20],[-12,-126]],[[1565,2750],[-60,-81],[-36,-6],[-18,28],[22,120],[11,102],[-4,60],[-58,-11]],[[1422,2962],[35,59],[-25,77],[57,-27],[70,15],[37,-30]],[[1300,2960],[2,-112],[16,-3],[21,-149],[-44,-24],[11,-46],[-22,-71],[53,-24],[15,-30],[-24,-45]],[[1328,2456],[-58,5],[-40,42],[-3,81],[-80,66],[-54,74],[-12,44],[33,54]],[[1114,2822],[11,65]],[[1125,2887],[50,101],[86,29],[44,39],[10,-75],[-15,-21]],[[1913,2982],[27,-44],[-26,-22],[38,-43],[32,-83],[81,-12],[56,-43],[140,-33],[12,-20]],[[2273,2682],[-114,-8],[-65,-35],[-51,12],[-14,-55],[-53,-32],[-60,-9]],[[1916,2555],[-149,-31],[-29,-43],[-96,71],[-40,106],[-41,43],[4,49]],[[1916,2555],[16,-30]],[[1932,2525],[-57,-16],[-66,-60],[6,-79],[-82,-33],[-25,19],[-54,-9],[-74,-86],[-139,-108]],[[1441,2153],[49,80],[-63,86],[-13,83],[-74,18],[-12,36]],[[1300,2960],[55,12],[67,-10]],[[1930,3740],[-78,22],[-68,-44]],[[1784,3718],[-122,71],[-71,-1],[0,30],[-140,12]],[[1451,3830],[-44,-1],[-84,-63],[24,-85],[43,-30],[-14,-50],[12,-34],[-15,-40],[20,-50],[-21,-67],[-48,-29],[-14,-115],[-44,-56],[-85,-178],[-31,-25],[-20,-44],[-5,-76]],[[1114,2822],[-44,92],[15,59],[17,54],[-3,119],[-36,18],[24,95],[-15,60],[-2,7],[-339,773],[-454,1033],[3,-1],[765,-645],[885,-746]],[[1451,3830],[7,-57],[34,-18],[54,-108],[-9,-51],[30,-16],[8,-42]],[[1892,3134],[32,29],[73,116],[-34,54],[-19,182],[-58,103]],[[1886,3618],[60,-47],[82,-39],[19,-27],[-5,-59],[22,-48],[71,-20],[39,-30]],[[2174,3348],[22,-53],[45,-13],[61,-61]],[[2302,3221],[-55,-48],[42,-79],[-21,-50],[-62,-29],[-72,29],[-21,-7],[-61,58],[-75,-18],[-46,-33],[-7,-27]],[[1784,3718],[50,-32],[52,-68]],[[2302,3221],[40,-26],[33,-51],[45,-21],[-2,-49],[52,-39],[31,-51],[107,-67],[20,-60],[67,-2],[1,27],[62,-11],[55,-41],[44,-2],[22,-23]],[[2879,2805],[-31,-43],[9,-33],[-17,-49]],[[2840,2680],[-30,16],[-72,-14],[-23,12],[-28,-47],[-60,10],[3,-46],[-106,1],[-4,16],[-167,27],[-46,-3],[-34,30]],[[1930,3740],[20,-17],[77,-35],[26,16],[70,-42],[36,2],[23,-35],[102,-68],[76,-1],[11,-22],[63,-18]],[[2434,3520],[-23,-37],[-107,-98],[-52,16],[-78,-53]],[[2910,3203],[-49,-41],[1,-35],[-45,-76],[-11,-66],[115,-50],[77,-17],[50,-60],[-24,-28],[-109,1],[-36,-26]],[[2434,3520],[54,4],[43,-40],[4,-35],[49,-51],[78,-49],[27,-41],[60,-26],[76,-6],[62,-42],[23,-31]],[[4278,1745],[17,-112],[-5,-54],[65,-29],[-37,-125],[15,-39],[76,-1],[13,-100],[16,-24],[-29,-89],[-70,-130],[-66,-40],[12,-84],[-60,-19],[-30,-100],[28,-28],[-90,-65],[-33,11],[-144,-11],[-44,10],[-46,-21],[-31,49]],[[3835,744],[-82,51],[-24,52],[-64,18],[-38,33],[-21,51],[-82,41],[-12,25],[-58,-16],[-37,54],[-39,17],[-24,39],[-31,4],[-50,87],[-4,46],[-27,33],[-72,150],[-94,87],[48,28],[-31,29],[-22,153]],[[3071,1726],[32,0],[40,-32],[40,-7],[35,29],[45,4],[53,37],[55,18],[18,53],[59,19],[29,29],[55,-9],[71,53],[45,13],[102,-115],[56,-45],[66,-34],[76,26],[61,-9],[27,51],[118,-27],[35,2],[89,-37]],[[1566,1249],[74,-17],[36,19],[48,-22],[16,-28],[170,37],[96,27],[14,-23],[68,-5],[8,-41],[42,-47],[93,-56],[89,36]],[[2320,1129],[30,7],[33,-56],[67,-5],[83,-73],[0,-50],[-17,-32],[-1,-55],[-24,-55],[28,-104],[65,-51],[87,-50],[28,36],[26,-41],[32,2],[23,-37]],[[2780,565],[-14,-45],[-73,-54],[-18,-6],[-88,38],[-38,-22],[-28,35],[-47,2],[-17,-84],[-48,7],[-28,-25],[-79,-5],[-23,-45],[-34,11],[-61,-33],[32,-31],[-32,-55],[-79,11],[-81,-18],[-30,30],[-56,-62],[-93,-31],[-33,-46],[23,-69],[-16,-34],[-100,-34],[-17,17],[-2,70],[-89,28],[-43,-24],[-82,37],[-44,34],[-46,51],[21,64],[-51,24],[-37,-15],[-17,30]],[[1312,316],[-16,81],[-32,57],[-69,42],[1,104],[29,4],[-8,88],[-33,83],[-48,14],[-41,40],[57,69],[9,51],[31,38],[28,68],[101,105],[18,59]],[[1339,1219],[5,38],[50,22],[98,-21],[50,-22],[24,13]],[[3835,744],[-51,7],[-30,-24],[-57,4],[-30,22],[-52,-80],[-51,-43],[-55,-19],[-58,29],[-93,-13],[-17,69],[-39,60],[-18,102],[-27,64],[-79,29],[-50,-37],[-82,3],[-98,-34],[3,-28],[-44,-41],[-67,-1],[-12,-152],[-48,-96]],[[2320,1129],[39,150],[35,89],[-20,62],[-26,141],[19,49],[2,109],[39,87],[-25,21],[-25,89]],[[2358,1926],[19,82],[36,-6],[97,-48],[39,4],[46,-36],[66,-12],[63,-56]],[[2724,1854],[20,-60],[86,-34],[98,-20],[15,-31],[54,20],[74,-3]],[[1932,2525],[106,-49],[8,-168],[-67,-66],[54,-26],[63,-61],[-60,-58],[-18,-43],[53,-74],[33,17],[19,43],[32,11],[53,-15],[12,22],[59,-13],[79,-119]],[[1566,1249],[-50,76],[-76,55],[13,122],[-39,87],[18,10],[9,59],[-39,137],[41,59],[5,68],[53,45],[-1,86],[-59,100]],[[1312,316],[-45,-6],[-51,25],[-7,31],[-78,8],[-30,-27],[-117,47],[26,40],[-30,22],[-50,-13],[-35,-30],[-67,12],[-73,-12],[-1,35],[-46,11],[-46,32],[-41,8],[-46,-14],[-58,24],[-43,-30],[-68,25],[-46,45],[-44,114],[-69,50],[13,66],[-38,42],[-41,15],[-58,72],[-120,-30],[-3,51],[64,156],[139,8],[46,26],[77,7],[16,-61],[20,-21],[39,-33],[140,-49],[81,17],[4,57],[87,-20],[111,74],[126,34],[109,4],[154,111],[126,-20]],[[2910,3203],[56,-14],[9,-20],[96,-24],[24,-33],[43,-6],[103,39],[98,-4],[19,-19],[73,2],[74,25],[34,-13],[22,32],[62,21],[130,92],[0,31],[53,38],[70,77],[75,0],[33,76],[31,34],[81,35],[-6,75],[35,36],[18,68],[-2,39],[50,14],[36,34],[36,-22],[25,-46],[-30,-92],[47,-26],[-3,-55],[-39,-31],[-5,-69],[72,-17],[3,-65],[39,-14],[18,-41],[46,8],[46,-17],[-12,-54],[32,-27],[34,16],[43,-14],[-8,-40],[-44,-95],[-53,-63],[-52,-54],[-27,-73],[-101,-209],[-47,-79],[-43,-106],[40,-131],[-14,-106],[-21,-79],[32,-26]],[[4241,2211],[-50,-71],[-22,-2],[-134,-65],[-89,77],[-25,-38],[-70,38],[-24,46],[-61,18],[-49,44],[-42,15],[-6,80],[-121,-46],[-39,43],[-40,20],[-12,54],[-83,43],[-69,17],[-13,18],[-96,-101],[-84,-12],[-58,-43],[-50,18],[-70,6]],[[2934,2370],[-125,89],[31,221]],[[2724,1854],[-23,124],[-50,28],[-18,29],[23,123],[40,-10],[108,75],[-2,45],[28,16],[2,45],[31,33],[71,8]],[[4241,2211],[102,-76],[-8,-25],[123,-134],[22,-18],[-40,-48],[-67,-54],[-93,-47],[-2,-64]]],"transform":{"scale":[0.00014617401244151174,0.0001493442075126356],"translate":[37.26822401049385,-0.9190095544175415]},"objects":{"wards.014.final":{"type":"GeometryCollection","geometries":[{"arcs":[[0,1,2,3]],"type":"Polygon","properties":{"code":"0311","name":"Gaturi North","constituency_code":"063","county_code":"014"}},{"arcs":[[-2,4,5,6,7,8]],"type":"Polygon","properties":{"code":"0312","name":"Gaturi South","constituency_code":"063","county_code":"014"}},{"arcs":[[9,10,11,12]],"type":"Polygon","properties":{"code":"0313","name":"Kirimari","constituency_code":"063","county_code":"014"}},{"arcs":[[-7,13,14,15]],"type":"Polygon","properties":{"code":"0314","name":"Kithimu","constituency_code":"063","county_code":"014"}},{"arcs":[[-8,-16,16,17,18,-10,19]],"type":"Polygon","properties":{"code":"0315","name":"Mbeti North","constituency_code":"063","county_code":"014"}},{"arcs":[[20,21,22,-12,23]],"type":"Polygon","properties":{"code":"0316","name":"Nginda","constituency_code":"063","county_code":"014"}},{"arcs":[[-3,-9,-20,-13,-23,24]],"type":"Polygon","properties":{"code":"0317","name":"Ruguru-Ngandori","constituency_code":"063","county_code":"014"}},{"arcs":[[-1,25,26,27,28,-5]],"type":"Polygon","properties":{"code":"0318","name":"Central","constituency_code":"064","county_code":"014"}},{"arcs":[[-4,-25,-22,29,-26]],"type":"Polygon","properties":{"code":"0319","name":"Kaagari North","constituency_code":"064","county_code":"014"}},{"arcs":[[-6,-29,30,31,32,-14]],"type":"Polygon","properties":{"code":"0320","name":"Kaagari South","constituency_code":"064","county_code":"014"}},{"arcs":[[33,34,-27,-30,-21]],"type":"Polygon","properties":{"code":"0321","name":"Kyeni North","constituency_code":"064","county_code":"014"}},{"arcs":[[35,-31,-28,-35,36]],"type":"Polygon","properties":{"code":"0322","name":"Kyeni South","constituency_code":"064","county_code":"014"}},{"arcs":[[37,38,39]],"type":"Polygon","properties":{"code":"0323","name":"Kiambere","constituency_code":"065","county_code":"014"}},{"arcs":[[40,41,42,43,44]],"type":"Polygon","properties":{"code":"0324","name":"Makima","constituency_code":"065","county_code":"014"}},{"arcs":[[-39,45,-42,46,47,48]],"type":"Polygon","properties":{"code":"0325","name":"Mavuria","constituency_code":"065","county_code":"014"}},{"arcs":[[-18,49,-47,-41,50]],"type":"Polygon","properties":{"code":"0326","name":"Mbeti South","constituency_code":"065","county_code":"014"}},{"arcs":[[-44,51]],"type":"Polygon","properties":{"code":"0327","name":"Mwea","constituency_code":"065","county_code":"014"}},{"arcs":[[52,53,54,-32,-36]],"type":"Polygon","properties":{"code":"0328","name":"Evurore","constituency_code":"066","county_code":"014"}},{"arcs":[[-40,-49,55,-54,56]],"type":"Polygon","properties":{"code":"0329","name":"Muminji","constituency_code":"066","county_code":"014"}},{"arcs":[[-15,-33,-55,-56,-48,-50,-17]],"type":"Polygon","properties":{"code":"0330","name":"Nthawa","constituency_code":"066","county_code":"014"}}]}}}