{"type":"Topology","arcs":[[[4886,15181],[-67,-45],[-12,-42],[-39,-15],[-88,-11],[-21,11],[-56,-20],[-165,-39],[-83,-49],[-222,-59],[40,-42],[-1,-76],[-52,-85],[-27,-57],[-79,-117],[-15,-107],[3,-116],[-6,-42],[-52,-15],[-38,-80],[-36,-2],[-19,-24],[36,-28],[24,11],[40,-20],[-37,-51],[13,-43]],[[3927,14018],[-19,-122],[-19,-33],[-50,-45],[-22,-55],[-77,-71],[-121,-71],[-70,-18],[-67,-27]],[[3482,13576],[-115,-14],[-63,11],[-27,-25],[-116,0],[-115,14],[-67,-1],[-35,-24],[-33,32],[-65,-5],[-18,-28],[-16,-73],[-29,-9],[-43,-40],[-16,17],[-56,10]],[[2668,13441],[37,45],[31,19],[77,93],[-5,61],[16,34],[-9,38],[47,65],[19,55],[47,22],[17,46],[-5,62],[37,45],[87,246],[-34,3],[-24,27],[3,31],[-36,88],[6,113],[9,14],[-33,75],[15,25],[14,85],[14,15],[-16,43],[4,170],[17,35],[-82,128],[-57,63]],[[2864,15187],[10,68],[28,29],[26,51],[74,44],[99,48],[149,97],[56,19],[18,23]],[[3324,15566],[103,-48],[139,-22],[160,-2],[72,25],[67,56],[35,58],[21,74],[80,-13],[35,-105],[-24,-29],[-24,-91],[-7,-64],[16,-29],[1,-83],[94,-35],[54,-13],[104,-39],[255,-6],[98,78],[283,-97]],[[1847,13407],[25,76],[-13,21],[-12,86],[-64,0],[-14,34],[32,108],[-55,24],[4,47],[-14,96],[1,55],[80,40],[56,47],[35,41],[-19,16],[-105,115],[7,21],[-87,66],[-27,22],[18,68],[12,91],[-35,113],[37,91],[40,68],[86,180],[23,62],[45,47]],[[1903,15042],[89,-45],[102,-6],[32,-23],[55,49],[43,-14],[77,-4],[13,18],[63,-25],[60,21],[78,-1],[89,79],[31,3],[82,67],[55,5],[27,19],[65,2]],[[2668,13441],[-14,-32],[-74,-11],[-107,5],[-25,-26],[-49,17],[-14,-31],[-80,-18],[-11,-24]],[[2294,13321],[-27,-7],[-24,30],[-31,6],[-24,-32],[-38,-18],[-48,6],[-37,42],[-66,-2],[-25,64],[-28,5],[-69,-34],[-30,26]],[[5711,15767],[492,-825],[78,-149],[442,-729],[366,-612],[244,-504],[10,-12],[27,-56]],[[7370,12880],[-378,-20],[-41,0],[-22,17],[-7,69],[-65,80],[-5,21],[-95,91],[-47,23],[-53,53],[-130,43],[-57,57],[-32,12],[-63,-9],[-47,45],[-38,12],[-101,60],[-27,42],[-19,79],[-47,20],[-70,-24],[-44,24],[-60,-2],[-28,35],[-130,36],[-55,-21],[-107,11],[-72,38],[-68,-5],[-77,6],[-62,-40],[-62,27],[-154,55],[-131,34],[-76,-47],[-29,21],[-61,-9],[-56,-45],[-67,-15],[-45,-35],[-91,22],[-44,-15],[-46,8],[-53,79],[-35,17],[-29,36],[36,72],[20,66],[-22,23],[-35,-11],[-31,16],[-76,1],[-37,45],[-31,-14],[-20,-46],[-43,31],[-9,31],[-31,35],[-49,25],[-89,-22]],[[4886,15181],[21,13],[283,215],[44,92],[61,53],[83,38],[188,76],[145,92],[0,7]],[[3107,16164],[38,-121],[-23,-18],[24,-86],[35,-56],[42,-41],[5,-39],[24,-10],[40,-111],[41,-59],[-9,-57]],[[1903,15042],[45,54],[37,81],[7,35],[92,14],[72,79],[-1,64],[28,17],[-2,75],[29,44],[-5,42],[-34,29],[60,61],[-35,41],[53,123],[23,3],[0,45],[-29,21],[21,74],[53,83],[2,60],[23,47],[39,15],[53,-10],[68,0],[47,-38],[74,-13],[64,0],[98,13],[94,-4],[77,-31],[24,22],[46,-6],[66,51],[15,31]],[[3107,16164],[49,35],[26,75],[38,22],[33,-4],[46,14],[17,45],[-7,26],[105,181],[18,59],[1,87],[9,85],[46,15],[21,30],[58,17],[-6,32],[11,59],[28,15],[3,50],[50,66],[39,20],[22,29],[57,22],[43,34],[59,-16],[9,-16],[57,-16],[29,44],[35,19],[34,-5],[11,40],[65,50],[25,64],[29,26],[72,-47],[33,-38],[50,25],[46,7],[28,-11],[81,-57],[28,-27],[54,-14],[20,-31],[30,-2],[33,38],[14,40],[53,-16],[81,17],[18,17],[90,-147],[409,-688],[131,-215],[41,-74],[177,-294],[55,-84]],[[1612,13006],[77,56],[-24,24],[26,86],[50,17],[-10,71],[56,35],[60,112]],[[2294,13321],[51,-66],[48,-112],[68,-44],[35,-4],[15,-37],[46,-31],[38,-57],[32,10],[21,-56],[24,4],[28,-41],[91,33],[61,-31],[1,-22]],[[2853,12867],[-18,-24],[-87,-23],[-48,-31],[15,-50],[-75,-26],[-174,-28],[-14,-29],[34,-30],[22,-71],[-3,-33],[30,-29],[14,-46],[27,-20],[1,-46],[-17,-12],[9,-59],[38,-28]],[[2607,12282],[23,-49],[58,-77],[21,-39],[-5,-110],[-17,-82],[32,-37]],[[2719,11888],[-48,-78],[-66,-10],[-38,65],[-59,39],[-56,-9],[-62,44],[-67,66],[-36,-55],[-57,-42],[-17,37],[-27,13],[-64,56],[7,35],[-27,73],[-29,50],[17,66],[-78,85],[-73,20],[-13,67],[-23,34],[-74,47],[-65,8],[-90,30],[-29,34],[-12,66],[31,22],[-16,86],[29,23],[10,42],[-7,43],[-47,22],[-41,51],[-6,49],[26,39]],[[2719,11888],[44,-2],[25,-23],[42,-101],[9,-42]],[[2839,11720],[9,-37],[-25,-23],[18,-35],[-36,-11],[-22,-50],[-62,-28],[-34,-44],[-113,23],[-23,17],[-33,-7],[-67,42],[-54,47],[-19,-13],[-52,17],[-27,53],[25,24],[-19,30],[-52,31],[-17,-86],[-24,-47],[-46,9],[-56,-48],[17,-39],[26,-5],[13,-41],[35,-37],[21,8],[36,-29]],[[2258,11441],[-23,-45],[8,-87],[35,-18],[41,-81],[-5,-25],[-63,-50],[-50,48],[-23,53],[11,41],[-92,86],[0,30],[-31,30],[1,38],[-30,34],[-34,-16],[-39,27],[-6,45],[-59,34],[-73,94],[-48,0],[-38,28],[-34,53],[69,52],[-22,51],[-31,16],[-40,56],[-67,38],[-22,-10],[-31,55]],[[1562,12018],[36,34],[-25,45],[-37,19],[-54,-2],[31,43],[-13,48],[-29,22],[34,43],[-7,30],[-71,76],[-4,61],[-28,12],[-28,36],[-60,9],[23,26],[-12,76],[42,64],[-4,30],[16,49],[37,33],[48,61],[-20,34],[47,13],[-6,65],[-24,16],[7,45],[123,9],[28,-9]],[[2258,11441],[58,-36],[23,-33],[34,-15],[48,-83],[21,-19],[31,49],[76,-27],[15,-30],[40,17],[83,-48],[19,-26],[84,-30],[9,-35],[33,-11]],[[2832,11114],[-17,-47],[-22,-120]],[[2793,10947],[-65,16],[-31,19],[-71,10],[-30,-12],[-33,12],[-75,0],[-51,19],[-11,26],[-77,16],[-39,23],[-59,-16],[-49,46],[-29,-6],[-29,24],[-93,20],[-80,-4],[-56,25],[-24,-7],[-45,25],[-64,20],[-43,74],[-40,-20],[-92,-82],[-50,26],[-21,25]],[[1536,11226],[-41,-4],[-70,13],[-61,45],[-45,14],[-42,-9],[-33,-25],[-39,-2]],[[1205,11258],[34,88],[2,43],[63,70],[11,53],[38,-3],[27,21],[23,52],[44,41],[28,54],[-12,71],[14,19],[8,117],[-16,53],[27,41],[66,40]],[[2607,12282],[43,32],[52,0],[58,-21],[50,18],[65,-13],[11,-51],[42,-9],[74,-37],[9,-74],[29,-40],[38,-21],[44,-6],[72,-40],[10,-35],[64,-87],[13,-57]],[[3281,11841],[-55,11]],[[3226,11852],[-4,28],[-33,10],[-40,45],[-53,-12],[-50,-43],[-11,-37],[-56,24],[-21,-36],[-24,-6],[-8,-42],[-21,-12],[-19,-45],[-47,-6]],[[2853,12867],[82,-6],[54,13],[16,-40],[47,-57],[14,22],[114,-52],[55,-31],[-6,-48],[43,-6],[38,-76],[24,-14],[16,-76],[44,-20],[59,-54],[107,-6],[19,26],[35,2],[45,43],[21,40],[22,2],[32,56]],[[3734,12585],[6,-51],[23,-35],[-29,-54],[-28,-7],[2,-74],[20,-77],[-27,-25],[-58,-162],[-42,-56],[-19,1],[-57,-105],[-72,-47],[-46,23],[-44,-15],[-9,-28],[-54,-9],[-19,-23]],[[3226,11852],[-18,-25],[-8,-278],[9,-122],[-16,-59],[14,-57],[8,-119],[-1,-121]],[[3214,11071],[-50,21],[-62,85],[-126,7],[7,-62],[-32,-12],[-26,26],[-70,-1],[-23,-21]],[[3734,12585],[9,68],[14,20],[-11,45],[29,40],[63,4]],[[3838,12762],[36,-5],[49,-50],[44,-27],[60,-18],[7,-33],[68,-32]],[[4102,12597],[4,-152],[-2,-194],[7,-201],[-5,-56],[-27,-50],[-45,-54],[-22,-66],[-19,-150],[-49,-69],[-12,-41],[-3,-63],[28,-186],[-22,-65],[-61,-69],[-7,-67],[6,-60],[-18,-45],[-40,-19],[-114,-83]],[[3701,10907],[-48,33],[-11,24],[-71,19],[-43,-23],[-85,6],[-119,50]],[[3324,11016],[-110,55]],[[7370,12880],[428,-882]],[[7798,11998],[-58,-3],[-264,-2],[-311,2],[-173,-2],[-203,2],[-785,0],[-30,29],[-78,22],[-58,-12],[-91,-43],[-111,62],[-45,0],[-36,34],[-48,25],[-13,26],[-41,10],[-17,48],[-3,46],[18,45],[-31,20],[-2,69],[-28,15],[-13,35],[-37,-1],[-27,23],[-37,-4],[-116,49],[-117,35],[-67,-14],[-12,-29],[-37,-14],[-84,2],[-150,15],[-103,-4],[-145,10],[-164,-4],[-49,-15],[-26,49],[-19,5],[-85,68]],[[3838,12762],[5,97],[37,68],[-51,48],[-6,43],[-21,40],[4,32],[-22,38],[14,64],[-96,64],[-19,43],[-33,25],[-68,84],[-97,154],[-3,14]],[[7985,11460],[-44,19],[-60,-14],[-29,13],[-55,-34],[-70,24],[-148,-42],[-25,-36],[-68,-26],[-70,19],[-12,-24],[-40,3],[-34,-13],[-146,26],[-60,59],[-35,6],[-62,-9],[-69,3],[-35,-31],[-86,37],[-47,-9],[-40,-25],[-81,-7],[-57,46],[-43,18],[-56,-8],[-41,28],[-71,15],[-113,-24],[-51,13],[-86,-20],[-70,23],[-161,13],[-85,29],[-50,-8],[-72,51],[-41,11],[-73,-10],[-43,-18],[-43,4],[-24,-23],[-46,-119],[-23,-138],[-64,-272],[-60,-10],[-33,21],[-56,14],[-106,1],[-52,14],[-87,-65],[-46,-23],[-49,21],[-96,9],[-36,-40],[-69,-32]],[[4666,10920],[-57,-19],[-113,18],[-107,29],[-117,5],[-30,-13],[-19,-42],[10,-33],[-22,-80],[8,-33],[-88,11],[-89,-9],[-209,4],[-16,20],[-75,5],[-33,81],[-8,43]],[[7798,11998],[175,-362],[12,-176]],[[1658,8249],[21,-44],[45,-51],[38,16],[41,-57],[-3,-25],[55,-55],[16,-52],[18,-2],[23,-58],[97,2],[57,36],[4,31],[57,-18],[37,-37]],[[2164,7935],[12,-50],[32,-3],[20,-34],[-4,-63],[40,5],[26,-17],[-19,-72],[73,20],[12,-20],[48,14],[22,-74],[-10,-33],[-52,-16],[0,-36],[31,-57],[-27,-30],[39,-86],[3,-39],[54,-80],[21,-82],[5,-66],[28,-25],[48,2],[38,-39],[8,-44],[23,-36],[59,-28],[32,-1],[-6,-45],[55,-40],[44,-5]],[[2819,6855],[-2,-21]],[[2817,6834],[-32,-32],[-95,-3],[-63,-39],[-67,20],[-64,-5],[-42,19],[-37,0],[-34,-20],[-50,6],[-168,101],[-41,36],[-29,43],[-122,-48],[-190,-7]],[[1783,6905],[2,54],[-46,17],[-34,-2],[-17,49],[19,40],[33,24],[-38,36],[-35,9],[-77,86],[-24,16],[-103,105],[-45,99],[-1,43],[22,19],[46,-12],[27,33],[10,58],[-13,77],[-18,58],[-34,50],[6,41],[-28,27],[-28,-1],[10,113],[-34,11],[-10,25],[-62,25],[16,57],[-14,36],[-59,32],[-38,96],[-26,51]],[[1190,8277],[51,52],[148,15],[11,-64],[25,-48],[107,13],[90,-2],[36,6]],[[1536,11226],[11,-54],[76,-56],[24,-60],[35,-15],[46,-40],[57,10],[85,-35],[50,-1],[49,17],[-43,-75],[-25,-8],[10,-53],[-24,-92],[47,14],[33,-22],[61,19],[36,-65],[-47,-80],[42,5],[16,-61],[-13,-35]],[[2062,10539],[-32,15],[-41,-1],[-46,-34],[-31,8],[-21,-27],[-63,-15],[-75,-76],[7,-45],[-123,16],[-99,-29],[-38,18],[-19,57],[-37,47],[-58,-2],[-44,18],[-24,68],[-56,3],[-26,-35],[-85,8],[-64,-3],[-53,50]],[[1034,10580],[-53,57],[23,32],[-52,50],[-38,14],[-53,56],[40,21],[5,100],[17,30],[65,56],[47,22],[20,54],[40,31],[61,99]],[[1156,11202],[49,56]],[[2062,10539],[54,-9],[23,23],[47,5],[16,22],[48,-3],[-3,-62],[28,-28],[-46,-48],[-2,-48],[27,-17]],[[2254,10374],[26,16],[37,-30],[6,-89],[-56,-47],[-20,8],[-67,-11],[-6,52],[-29,27],[-74,-12],[-59,-88],[-49,-29],[-16,-43],[-19,-94],[-44,-23],[-26,-42],[-4,-47]],[[1854,9922],[-53,-28],[-117,-8],[-46,11],[-22,-57],[-28,0]],[[1588,9840],[-27,12],[-15,35],[-91,-6],[-54,3],[-50,26],[-15,26],[-21,125],[-51,71],[-132,144],[-88,106],[-37,112],[3,41],[24,45]],[[1190,8277],[-37,37],[-8,39],[-40,45],[-8,37],[-35,48],[-25,73],[-47,18],[-67,85],[-27,72],[-34,1],[-47,50],[-55,115],[-29,11],[-39,75],[-75,12],[-35,56],[41,41],[60,14],[39,-26],[105,-19],[139,47],[78,7],[24,26],[14,57],[49,40],[53,57],[62,45],[41,19],[-34,117],[0,26],[-30,97],[-6,54],[-27,6],[-57,86],[-44,29],[-32,59],[-52,32],[-50,8],[-50,-19],[-25,7],[-9,40],[-27,15],[-19,34],[-26,9],[1,26],[-61,134],[-48,127],[-30,17],[-25,62],[-44,49],[5,17],[-44,88],[-4,45],[-24,39],[-41,6],[-120,153],[-12,37],[-31,20],[-16,52],[-54,118],[-60,85],[-41,50],[-60,23],[-37,-6],[-17,55],[-22,5],[-14,261],[94,1],[171,11],[118,12],[248,20],[72,10],[154,3],[45,-53],[254,-224]],[[1588,9840],[9,-57],[40,-84],[3,-71],[12,-42],[1,-124],[18,-46],[-2,-81],[-12,-77],[10,-78],[22,-42],[21,-119],[63,-6],[-7,-31]],[[1766,8982],[8,-64],[-76,-29],[-18,-31],[9,-47],[-20,-14],[-1,-84]],[[1668,8713],[-7,-38],[9,-83],[-12,-17],[26,-39],[-20,-35],[24,-77],[8,-67],[-27,5],[-14,-36],[3,-77]],[[2254,10374],[1,34],[32,20],[14,36],[56,2],[45,49],[50,28],[50,8],[31,33]],[[2533,10584],[16,-41],[22,-155]],[[2571,10388],[-6,-51],[12,-42],[-17,-20],[-70,-28],[-37,-104],[-71,-66],[-22,-6]],[[2360,10071],[-22,9],[-46,-21],[-21,-32],[-32,-19]],[[2239,10008],[-63,-45],[-56,16],[-36,-29],[-39,6],[-33,-26],[-59,25],[-80,-39],[-19,6]],[[2793,10947],[-28,-189],[-72,27],[-85,-4],[-47,-13],[-26,8],[19,-76],[0,-77],[-21,-39]],[[1668,8713],[30,13],[88,-4],[65,-28],[107,-59],[43,-43],[76,-53],[86,-15],[8,29],[-23,39],[-24,111],[-24,57],[99,77],[-8,32],[34,31],[-3,120],[18,72],[99,3],[-5,35],[22,12],[108,-49]],[[2464,9093],[-1,-57],[-13,-55],[134,-60],[-4,-27],[23,-79],[15,-22],[59,-29],[-37,-66],[-30,-29],[19,-50],[77,2],[15,-37],[27,-21],[20,-81],[55,-50],[31,-53],[-3,-39]],[[2851,8340],[-64,13],[-62,3],[-45,-15],[-108,10],[-71,-2],[-125,-46],[-62,-8],[-78,-24],[-48,-24],[1,-41],[52,-59],[10,-58],[-37,-38],[-45,-16],[8,-50],[-13,-50]],[[2464,9093],[46,70],[45,9],[19,66],[-3,27]],[[2571,9265],[28,0],[42,-53],[60,31],[33,-29],[21,-42],[23,-11]],[[2778,9161],[34,-49],[23,-67],[21,-28],[69,-36],[43,-54],[36,-24],[35,-75],[-2,-79],[49,-28],[37,-57],[9,-37],[49,-35],[75,-99],[31,-70]],[[3287,8423],[-26,-38]],[[3261,8385],[-125,-12],[-29,-27],[-25,6],[-54,-16],[-52,1],[-69,17],[-56,-14]],[[2571,10388],[34,62],[132,-30],[49,-37],[32,-10],[-5,-89],[-73,-11],[63,-54],[49,-7],[48,19],[92,5],[7,-115],[-20,-47],[-1,-70],[-13,-77],[-51,-9],[-4,-53],[12,-30]],[[2922,9835],[-12,-18],[-47,6],[-16,-16],[-6,-88],[-30,-13]],[[2811,9706],[-41,27],[-50,3],[-51,-17],[-24,23],[-63,1],[-86,50]],[[2496,9793],[16,45],[-65,52],[46,85],[3,28],[-59,22],[-65,-33],[-12,79]],[[2239,10008],[45,-15],[2,-43],[27,-53],[74,-16],[5,-22],[-40,-48],[-29,4],[-24,-54],[17,-50]],[[2316,9711],[-23,-59]],[[2293,9652],[-40,-38],[-46,1],[-60,-32],[-31,-96],[30,3],[17,-38],[14,-81],[-54,-46],[-53,1],[10,-36],[-18,-139],[-85,-22],[-33,-18],[-18,-45],[-53,-33],[-11,-30],[-96,-21]],[[3324,11016],[-5,-59],[-23,-44],[-52,10],[-17,-62],[2,-118],[30,-130],[16,-156],[39,-126],[2,-60],[13,-57]],[[3329,10214],[-75,-54],[-75,-75],[-93,-100],[-2,-38],[17,-36],[-53,-11],[-85,-85],[-41,20]],[[2293,9652],[28,-2],[33,31],[76,-12],[11,-60],[50,-28],[56,-94],[-6,-42],[25,-46],[-21,-52],[-11,-81],[37,-1]],[[2496,9793],[-91,-28],[-15,-31],[-37,-28],[-37,5]],[[2778,9161],[84,-23],[20,26],[-49,77],[-17,115],[0,114],[-6,122],[9,38],[-8,76]],[[3329,10214],[38,-137],[5,-59],[24,-71],[-2,-36]],[[3394,9911],[-8,-96],[-15,-58],[-22,-39],[-81,-94],[-27,-62],[2,-35],[-28,-80],[-3,-105],[41,-58],[11,-77],[28,-58],[37,-103],[18,-24],[76,-64],[31,-57],[-9,-110]],[[3445,8791],[-45,-119],[-12,-58],[20,-104],[-8,-29],[-99,-38],[-14,-20]],[[7985,11460],[48,-922],[7,-116],[21,-5],[5,-48],[32,-704],[36,-790]],[[8134,8875],[-94,18],[-72,31],[-151,34],[-54,38],[-58,15],[-47,-21],[-115,31],[-8,20],[-79,81],[-36,21],[-33,0],[-57,-20],[-81,10],[-81,-3],[-30,65],[-67,19],[-40,30],[-35,1],[-46,32],[-37,-20]],[[6913,9257],[-88,-1],[-30,-16],[-66,1],[-67,-11],[-116,-36],[-50,33],[-63,4],[-62,-11],[-84,37],[-63,15],[-56,-2],[-78,-17],[-33,-38],[-33,-19],[-40,37],[-67,-3],[-78,53],[-80,-18],[-76,-2],[-53,24],[-46,-2],[-24,44],[-123,66],[-63,-7],[-29,24],[-53,-10],[-59,51],[-50,0],[-40,32],[-47,-17]],[[5096,9468],[-41,2],[4,212],[-6,32],[-63,34],[-39,5],[-22,21],[-150,2],[-58,25]],[[4721,9801],[53,69],[115,61],[37,27],[-89,56],[-56,73],[80,183],[38,127],[6,50],[-15,98],[-35,72],[-17,53],[-56,96],[-29,21],[-21,86],[-66,47]],[[4721,9801],[-23,-52],[-25,-103],[-56,-23],[-52,8],[-22,52],[-124,-11],[-53,60],[-72,0],[-227,88],[-6,-6],[-322,126],[-41,9],[-50,28],[-59,-9],[-75,-38],[-66,13],[-54,-32]],[[3445,8791],[27,-54],[36,-99],[61,54],[171,-17],[67,17],[70,-13],[47,31],[-26,63],[5,46],[287,-24],[101,8],[37,11],[30,72],[44,37],[-27,40],[22,15],[83,-20],[16,56],[-9,51],[31,44],[14,51],[35,34],[53,-9],[27,-51],[44,-40],[62,-34],[178,120],[120,176],[49,97],[-4,15]],[[6913,9257],[-197,-241],[-217,-76],[-424,-249],[-216,-98],[-557,-242],[-108,-49],[-133,-83],[5,-46],[-20,-72],[8,-73],[-4,-66],[-67,-33],[-18,-74],[-29,-22],[-30,19],[-90,-56],[-3,25],[-107,17],[-29,-16],[-25,-72],[-33,-26],[8,-30],[-50,-36],[-43,6],[-56,-35],[-109,-9],[-4,30],[-62,-4],[-182,5],[-95,-8],[-157,-1],[-57,6]],[[3812,7648],[-22,64],[-31,-1],[-77,110],[-23,46],[-58,87],[6,62],[-34,42],[-84,11]],[[3489,8069],[-61,77],[-93,80],[-25,35],[-16,67],[-33,57]],[[2817,6834],[96,-113],[-20,-50],[3,-81],[38,-42],[-20,-49],[49,-9],[-19,-35],[-2,-44],[22,-13],[37,37],[15,-23]],[[3016,6412],[27,-71],[-13,-16],[7,-58],[32,-55],[0,-55],[14,-26],[-27,-47],[55,-1],[38,-36],[23,8],[32,-60],[0,-51],[70,-43],[10,-29],[-9,-64],[85,-28],[-43,-45],[49,-20],[-11,-48],[68,-52],[-49,-32],[-5,-19],[89,-92],[16,-69],[73,-36],[19,-50],[-9,-18],[-50,1],[21,-61],[34,25],[43,9],[46,-107],[46,15],[-2,-45],[64,-41],[26,-6],[14,-45],[35,-20],[46,-55],[15,-50],[540,442]],[[4435,5361],[63,53],[397,325],[390,310]],[[5285,6049],[224,180],[173,-6],[1925,-62],[412,-23]],[[8019,6138],[-209,-512],[-6,-2],[-508,-968],[-271,-517],[-49,-25],[-8,-45],[-20,-13],[-89,1],[-43,-14],[-28,-30],[-111,-17],[-22,-32],[-6,-45],[-93,-67],[-22,-33],[-57,-30],[-37,-41],[-68,-29],[-137,-30],[-112,-3],[-58,10],[-13,28],[-49,-4],[373,-507],[364,-489],[352,-477],[357,-484],[748,-1010],[313,-444],[69,-128],[-11,-13],[-26,-6],[-41,43],[-43,10],[-11,48],[-62,-3],[-29,14],[-129,-27],[-59,6],[-29,-13],[-49,-70],[-81,-14],[-71,6],[-111,26],[-31,-32],[-65,-14],[-47,-1],[-79,31],[-31,-1],[-101,-57],[-88,-57],[-73,-10],[-28,32],[-25,2],[-24,-29],[-48,-8],[-55,-33],[-59,-11],[-57,27],[14,45],[-50,37],[-55,3],[-53,19],[-125,-5],[-91,14],[-67,38],[-116,31],[-55,-16],[-159,-16],[-26,-8],[-20,54],[-46,31],[-34,47],[-30,21],[-76,1],[-110,28],[-19,20],[9,46],[-72,-22],[-28,12],[-61,54],[-126,7],[-95,42],[-37,29],[-41,-11],[-65,2],[-39,-46],[-62,3],[-1,18],[-2,140],[-40,14],[-3,44],[-26,28],[-18,46],[-53,-2],[-9,54],[-45,96],[-34,46],[2,29],[-62,23],[26,49],[-10,27],[-60,10],[11,58],[-37,22],[6,34],[-45,21],[-23,35],[18,30],[-3,43],[-21,44],[-6,59],[-45,32],[23,41],[7,53],[46,24],[8,19],[-34,64],[-5,27],[-43,93],[-27,35],[-13,62],[-34,53],[-51,135],[-40,80],[-22,81],[-29,57],[4,30],[-89,83],[2,43],[-27,20],[-3,40],[-54,147],[-20,37],[-16,67],[-44,15],[-27,101],[-18,25],[37,50],[-38,27],[-52,16],[7,31],[-23,46],[5,43],[-17,16],[-6,53],[-24,15],[-5,62],[-48,13],[-37,62],[-45,25],[-41,188],[-10,14],[-36,138],[-15,13],[-125,16],[-40,48],[-39,8],[-22,40],[-65,27],[-19,89],[-50,158],[-66,6],[-19,36],[-56,52],[-67,-1],[-130,61],[-21,33],[-76,6],[-62,14],[-24,21],[-22,22],[-8,60],[-34,8],[6,91],[-42,11],[-30,57],[-42,0],[-30,17],[-6,40],[-25,18],[-53,69],[0,44],[-17,88],[-28,35],[33,30],[-41,17],[-40,84],[-8,55],[-37,34],[15,43],[-41,37],[-40,-1],[-53,26],[-30,76],[-21,15],[-80,-37],[-96,-20],[-42,-24],[-82,-31],[-20,121],[-56,74],[2,56],[14,54],[-2,37],[16,26],[-11,35],[17,99],[-9,80],[-27,39],[4,47],[-21,60],[-40,11],[-31,30],[26,49],[-29,32],[10,48],[-26,20],[6,27],[-52,37],[-60,174],[12,16],[-20,42],[15,35],[-14,52],[-29,50],[19,103],[29,23],[0,39],[-59,-9],[-27,15],[8,54],[-23,62],[-11,58]],[[3489,8069],[-101,-48],[16,-144],[-35,-36],[-27,-61],[0,-34],[-51,-75],[13,-59],[-5,-60],[14,-33],[-50,-25],[11,-23],[-50,-45],[57,-110],[9,-29],[-2,-71],[-12,-55],[-64,-109],[-51,-25],[-55,0],[-125,-64],[-45,27],[-55,-60],[19,-42],[-32,-4],[-49,-29]],[[3016,6412],[57,70],[43,14],[22,28],[70,29],[40,34],[96,48],[89,25],[84,-2],[109,-54],[94,-25],[95,104]],[[3815,6683],[18,-68],[31,-37],[-32,-51],[34,-38],[16,-129],[27,-46],[-84,-52],[-24,-72],[39,-51],[38,-9],[43,-88],[32,-14],[53,-102],[-14,-40],[39,-113],[60,-37],[20,-67],[32,-10],[29,-43],[8,-42],[44,-56],[47,-28],[44,-7],[52,-81],[68,-41]],[[3815,6683],[26,48],[26,7],[17,47],[29,-16]],[[3913,6769],[19,2],[100,64],[80,-48],[57,-24],[54,60],[81,113],[79,-92],[231,-235],[-6,-28],[61,-66],[144,-108],[108,-93],[157,-100],[207,-165]],[[3913,6769],[-24,73],[1,64],[-16,39],[-31,123],[-35,2],[-40,58],[19,28],[13,57],[-12,50],[-25,49],[6,50],[68,149],[-22,92],[-3,45]],[[8134,8875],[47,-614],[18,-255],[-33,-42],[-45,-27],[-35,10],[-92,-51],[-33,-35],[155,-568],[175,-637],[-35,-69],[-228,-449],[-9,0]]],"transform":{"scale":[0.00017140033405878868,0.00017373071322484494],"translate":[37.59609552918707,-3.0731311353971793]},"objects":{"wards.015.final":{"type":"GeometryCollection","geometries":[{"arcs":[[0,1,2,3,4,5]],"type":"Polygon","properties":{"code":"0331","name":"Kyuso","constituency_code":"067","county_code":"015"}},{"arcs":[[6,7,-4,8,9]],"type":"Polygon","properties":{"code":"0332","name":"Mumoni","constituency_code":"067","county_code":"015"}},{"arcs":[[10,11,-1,12]],"type":"Polygon","properties":{"code":"0333","name":"Ngomeni","constituency_code":"067","county_code":"015"}},{"arcs":[[13,-5,-8,14]],"type":"Polygon","properties":{"code":"0334","name":"Tharaka","constituency_code":"067","county_code":"015"}},{"arcs":[[-13,-6,-14,15]],"type":"Polygon","properties":{"code":"0335","name":"Tseikuru","constituency_code":"067","county_code":"015"}},{"arcs":[[16,-10,17,18,19,20]],"type":"Polygon","properties":{"code":"0336","name":"Kiomo/kyethani","constituency_code":"068","county_code":"015"}},{"arcs":[[-21,21,22,23,24]],"type":"Polygon","properties":{"code":"0337","name":"Kyome/thaana","constituency_code":"068","county_code":"015"}},{"arcs":[[-24,25,26,27,28,29]],"type":"Polygon","properties":{"code":"0338","name":"Nguutani","constituency_code":"068","county_code":"015"}},{"arcs":[[-20,30,31,32,-22]],"type":"Polygon","properties":{"code":"0339","name":"Central","constituency_code":"069","county_code":"015"}},{"arcs":[[-19,33,34,-31]],"type":"Polygon","properties":{"code":"0340","name":"Kivou","constituency_code":"069","county_code":"015"}},{"arcs":[[-23,-33,35,36,-26]],"type":"Polygon","properties":{"code":"0341","name":"Migwani","constituency_code":"069","county_code":"015"}},{"arcs":[[-32,-35,37,38,39,40,41,-36]],"type":"Polygon","properties":{"code":"0342","name":"Mui","constituency_code":"069","county_code":"015"}},{"arcs":[[42,43,-39,44,-2,-12]],"type":"Polygon","properties":{"code":"0343","name":"Nguni","constituency_code":"069","county_code":"015"}},{"arcs":[[45,46,-40,-44,47]],"type":"Polygon","properties":{"code":"0344","name":"Nuu","constituency_code":"069","county_code":"015"}},{"arcs":[[-3,-45,-38,-34,-18,-9]],"type":"Polygon","properties":{"code":"0345","name":"Waita","constituency_code":"069","county_code":"015"}},{"arcs":[[48,49,50,51,52,53]],"type":"Polygon","properties":{"code":"0346","name":"Kanyangi","constituency_code":"070","county_code":"015"}},{"arcs":[[-29,54,55,56,57]],"type":"Polygon","properties":{"code":"0347","name":"Kauwi","constituency_code":"070","county_code":"015"}},{"arcs":[[-56,58,59,60,61]],"type":"Polygon","properties":{"code":"0348","name":"Kwamutonga/kithumula","constituency_code":"070","county_code":"015"}},{"arcs":[[-54,62,-57,-62,63,64,65]],"type":"Polygon","properties":{"code":"0349","name":"Kwavonza/yatta","constituency_code":"070","county_code":"015"}},{"arcs":[[-60,66,67,68,69,70]],"type":"Polygon","properties":{"code":"0350","name":"Matinyani","constituency_code":"070","county_code":"015"}},{"arcs":[[-28,71,-67,-59,-55]],"type":"Polygon","properties":{"code":"0351","name":"Mutongoni","constituency_code":"070","county_code":"015"}},{"arcs":[[-49,-66,72,73,74]],"type":"Polygon","properties":{"code":"0352","name":"Kisasi","constituency_code":"071","county_code":"015"}},{"arcs":[[-74,75,76,77,78,79]],"type":"Polygon","properties":{"code":"0353","name":"Mbitini","constituency_code":"071","county_code":"015"}},{"arcs":[[-69,80,81,82,83]],"type":"Polygon","properties":{"code":"0354","name":"Kyangwithya East","constituency_code":"072","county_code":"015"}},{"arcs":[[-61,-71,84,85,86,-64]],"type":"Polygon","properties":{"code":"0355","name":"Kyangwithya West","constituency_code":"072","county_code":"015"}},{"arcs":[[-27,-37,-42,87,88,-81,-68,-72]],"type":"Polygon","properties":{"code":"0356","name":"Miambani","constituency_code":"072","county_code":"015"}},{"arcs":[[-65,-87,89,-76,-73]],"type":"Polygon","properties":{"code":"0357","name":"Mulango","constituency_code":"072","county_code":"015"}},{"arcs":[[-70,-84,90,-85]],"type":"Polygon","properties":{"code":"0358","name":"Township","constituency_code":"072","county_code":"015"}},{"arcs":[[-78,91,-82,-89,92,93,94]],"type":"Polygon","properties":{"code":"0359","name":"Chuluni","constituency_code":"073","county_code":"015"}},{"arcs":[[95,96,97,98,99,-46]],"type":"Polygon","properties":{"code":"0360","name":"Endau/malalani","constituency_code":"073","county_code":"015"}},{"arcs":[[-41,-47,-100,100,-93,-88]],"type":"Polygon","properties":{"code":"0361","name":"Mutitu/kaliku","constituency_code":"073","county_code":"015"}},{"arcs":[[-77,-90,-86,-91,-83,-92]],"type":"Polygon","properties":{"code":"0362","name":"Nzambani","constituency_code":"073","county_code":"015"}},{"arcs":[[-79,-95,101,-98,102,103,104]],"type":"Polygon","properties":{"code":"0363","name":"Voo/kyamatu","constituency_code":"073","county_code":"015"}},{"arcs":[[-94,-101,-99,-102]],"type":"Polygon","properties":{"code":"0364","name":"Zombe/mwitika","constituency_code":"073","county_code":"015"}},{"arcs":[[-52,105,106,107,108,109]],"type":"Polygon","properties":{"code":"0365","name":"Athi","constituency_code":"074","county_code":"015"}},{"arcs":[[-50,-75,-80,-105,110]],"type":"Polygon","properties":{"code":"0366","name":"Ikanga/kyatune","constituency_code":"074","county_code":"015"}},{"arcs":[[-107,111,112]],"type":"Polygon","properties":{"code":"0367","name":"Ikutha","constituency_code":"074","county_code":"015"}},{"arcs":[[-108,-113,113,114]],"type":"Polygon","properties":{"code":"0368","name":"Kanziko","constituency_code":"074","county_code":"015"}},{"arcs":[[-109,-115,115,-103,-97,116]],"type":"Polygon","properties":{"code":"0369","name":"Mutha","constituency_code":"074","county_code":"015"}},{"arcs":[[-51,-111,-104,-116,-114,-112,-106]],"type":"Polygon","properties":{"code":"0370","name":"Mutomo","constituency_code":"074","county_code":"015"}}]}}}