{"type":"Topology","arcs":[[[3945,5724],[44,-33],[84,-36],[43,23],[90,-27],[3,-68],[16,-17],[102,33]],[[4327,5599],[-3,-39],[53,-6],[19,-21],[12,-64],[-32,-59],[58,-147],[34,-6],[49,-47],[1,-52],[23,-68],[12,-74],[23,-9],[-8,-64],[36,-42],[34,-12],[41,-61],[-20,-44],[-10,-69]],[[4649,4715],[-27,-56],[-81,-116],[-48,-80],[-126,-91],[-49,3],[-19,27],[-122,-38]],[[4177,4364],[58,216],[-23,112],[-29,52],[210,317],[-87,5],[-233,29],[-165,16],[-18,-72],[-125,-29]],[[3765,5010],[-39,7],[-15,62],[-37,62],[3,50],[-30,35],[37,23],[-10,60],[-18,22],[5,54],[27,44],[-5,64],[29,48],[47,-1],[48,73],[-10,43],[133,38],[15,30]],[[5773,4520],[-40,157],[-2,126],[-40,119],[-16,153],[2,83],[15,54],[53,55],[-74,43],[-47,-29],[-116,15],[-100,-1],[-33,-21],[-49,32],[-19,33],[-11,75],[-39,75],[-58,39],[-16,45],[5,74],[-21,68],[47,18],[-13,61],[53,45],[-74,36],[15,31],[-31,47],[47,69]],[[5211,6022],[74,52],[14,45],[48,93],[12,149],[68,0],[45,40],[-3,27],[99,34],[83,-3],[51,36],[79,-28],[28,-63],[18,-99],[40,-59],[17,-67],[93,12],[60,-28],[55,19],[52,41],[52,79],[31,-22],[58,-4],[30,23],[51,-6],[32,-48],[46,20],[45,-9],[-9,-51],[29,-18],[8,-75],[-57,-15],[24,-38],[-57,-70],[-44,-37],[-19,-56],[5,-34],[-50,-73],[14,-85],[-27,-30],[72,-10],[33,-41],[33,-14],[5,-70],[84,-85],[8,-35],[-41,-48],[35,-26],[16,-54],[-37,-49],[63,2],[45,-21],[29,-51],[-42,-39],[-78,-46],[-33,-46],[19,-61],[-9,-132],[-17,-22],[14,-81],[-32,-61],[-52,-47],[-28,-59],[-33,-24],[-45,3],[-13,-59],[-75,-80],[-2,-49],[-40,-100],[-57,-64],[-302,254],[-53,61]],[[3250,5970],[-172,-130],[-50,23],[-104,-50],[-50,-54],[-15,-34],[97,-175],[68,-22],[35,-68],[75,-42],[-43,-51],[67,-94],[-38,-80],[24,-92]],[[3144,5101],[-76,8],[-35,66],[66,38],[-69,85],[-19,-21],[-57,15],[-37,41],[-34,142],[-49,53],[13,20],[-134,88],[-124,60],[-128,131],[-74,103],[-66,0],[-15,18],[-103,39],[50,92],[173,2],[24,200],[3,94],[34,49],[3,0],[120,29],[59,-70],[41,-15],[40,-41],[-14,-64],[70,-49],[44,-112],[47,-44],[69,-24],[44,29],[58,-23],[46,14],[42,-9],[46,-30],[47,-11],[1,-34]],[[4327,5599],[16,33],[-23,68],[33,45],[94,30],[57,61],[30,-29],[82,17],[80,-11],[32,54],[-32,30],[61,32],[35,-11],[23,45],[80,5],[29,25],[48,-8],[17,82],[48,-2],[29,-34],[37,22],[90,-37],[18,6]],[[5773,4520],[-183,-4],[-85,-11],[-295,-22],[-140,-14],[-202,-13],[-112,-1]],[[4756,4455],[17,32],[-51,26],[-34,82],[-32,45],[-7,75]],[[3765,5010],[-30,-31],[16,-59],[-214,-102]],[[3537,4818],[-90,123],[-303,160]],[[3250,5970],[74,11],[67,-12],[36,30],[51,13],[30,-22],[-26,-39],[118,-46],[31,26],[78,-7],[8,-31],[51,-24],[45,6],[18,-30],[38,15],[51,-23],[-21,-63],[46,-50]],[[4982,4014],[72,-97],[64,-134],[18,-59],[37,-22],[15,-43],[141,-173],[50,-7],[28,-45],[5,-51],[52,-100],[-6,-19],[52,-56],[30,-70],[36,-19],[56,-145],[73,-153],[-1,-29]],[[5704,2792],[-132,29],[-141,-78],[-61,-48],[-69,-122],[-137,-32],[-187,-71]],[[4977,2470],[0,38],[-37,19],[21,33],[-63,24],[-4,72],[-37,36],[-29,80],[-65,80],[-69,21],[-50,70],[-91,5],[-41,23]],[[4512,2971],[-36,47],[-104,2],[-85,143],[-95,128],[-33,3]],[[4159,3294],[-51,67]],[[4108,3361],[176,148],[199,146]],[[4483,3655],[290,211],[209,148]],[[5704,2792],[31,-10],[22,-39],[32,-16],[11,-47],[29,-8],[60,22],[59,-9],[61,-36],[39,-67],[52,-33],[68,-98],[31,-6],[7,-62],[36,-110],[1,-30],[40,-133],[-49,-21],[-74,-52],[-62,-64],[-59,-46],[-17,-65],[-28,-30],[-92,-7],[-165,-54],[-125,22],[-46,30],[-71,-16],[-49,-47]],[[5446,1760],[8,73],[-55,98],[-56,52],[-53,5],[-6,50],[-40,26],[-53,1]],[[5191,2065],[-44,31],[2,64],[-45,79],[2,86],[-22,37],[-64,49],[-28,5],[-15,54]],[[4108,3361],[-106,20],[-76,123],[-93,5],[-50,60],[-32,-28],[-103,118],[-36,15],[8,52],[-37,27],[-48,10],[10,38],[-49,19],[-35,49],[-81,43],[-36,-5],[-33,52],[-56,39]],[[3255,3998],[-69,78],[-21,66],[-32,41],[-28,-11],[-97,84]],[[3008,4256],[139,153],[1,1]],[[3148,4410],[47,-11],[38,-46],[39,12],[11,-42],[109,-63],[80,-31],[43,4],[-5,37],[103,30],[12,30],[68,8],[55,31],[46,44],[128,-175],[37,13],[48,95],[78,-74],[64,38]],[[4149,4310],[14,-22],[-5,-67],[-49,-61],[-26,-51],[-1,-38],[35,-57],[47,-29],[61,-17],[-47,-49],[-15,-51],[31,-48],[43,-18],[20,34],[58,10],[168,-191]],[[4756,4455],[16,-296],[26,-7],[21,-61],[43,6],[72,-26],[48,-57]],[[4149,4310],[28,54]],[[3148,4410],[172,236],[105,70],[126,81],[-14,21]],[[3229,2893],[-98,-55],[-103,-3],[-16,-65]],[[3012,2770],[-81,-32],[0,49],[-51,63],[-7,71],[-28,7],[-36,70],[16,15]],[[2825,3013],[69,27],[-17,26],[23,110]],[[2900,3176],[82,5],[68,16],[47,-61],[3,-54],[74,-19],[88,-84],[-33,-86]],[[3229,2893],[47,-21],[28,-53],[82,66],[90,61]],[[3476,2946],[35,-74],[52,-22],[20,-53],[-26,-44],[-65,-51],[0,-45],[-24,-11],[-46,-75],[-21,-57],[25,-81]],[[3426,2433],[-119,-21],[-16,-24],[-49,-14]],[[3242,2374],[-46,36],[-76,38],[-4,36],[-46,94],[8,45],[-36,11],[-37,113],[7,23]],[[2900,3176],[26,35],[36,-5],[6,48],[75,31],[-39,63]],[[3004,3348],[46,-25],[31,61],[33,0],[61,-62],[60,-12]],[[3235,3310],[73,-34],[47,-44],[16,-43],[59,-83],[68,-62],[17,-32]],[[3515,3012],[1,-26],[-40,-40]],[[3242,2374],[-36,-37],[-68,-13],[-29,-39],[-15,-50]],[[3094,2235],[-50,10],[-39,40]],[[3005,2285],[-3,63],[-61,39],[10,40],[-16,32],[-71,36],[-56,54],[-38,61]],[[2770,2610],[-35,68],[-46,25],[-34,76],[-61,17],[-42,66],[-28,-3]],[[2524,2859],[6,51],[47,36],[23,64],[54,53]],[[2654,3063],[85,-44],[86,-6]],[[2334,4515],[9,-45],[-94,-25],[8,-71],[67,-65],[-34,-18],[-22,-83],[29,-84],[33,-59],[-68,-45],[9,-70],[-52,-15],[-27,-32],[2,-130],[124,-3]],[[2318,3770],[-42,-113],[-61,13],[-12,-17],[6,-70],[-76,-13],[-14,-32],[-115,29],[78,184],[-370,-8]],[[1712,3743],[70,50],[52,92],[57,48],[-5,60],[34,70],[-17,24],[27,39],[-56,65],[-24,84],[49,45],[35,15],[22,62],[67,38],[78,71],[76,7],[69,22],[88,-20]],[[3004,3348],[-18,46],[-34,10],[-68,75],[-2,43],[-25,79]],[[2857,3601],[-4,45],[-34,44]],[[2819,3690],[-16,53],[29,60],[-7,39],[115,116],[8,23],[57,-18],[62,2],[22,43],[78,-56]],[[3167,3952],[-40,-72],[-78,8],[-34,-101],[1,-32],[73,-101],[58,-137],[31,-56],[5,-38],[30,-18],[22,-95]],[[3255,3998],[-88,-46]],[[2819,3690],[-52,-57],[-119,19],[-70,-106],[-141,65],[-90,157],[-29,2]],[[2334,4515],[0,0],[25,-6],[91,87],[55,-12],[83,9],[48,-28],[62,-8],[106,-97],[14,-32],[70,-38],[10,-20],[97,-84],[13,-30]],[[2524,2859],[-103,-5],[-99,67],[-20,53],[90,92],[-52,27],[-78,-31],[-9,-26],[-87,27],[-22,-7],[8,-302]],[[2152,2754],[-317,9],[-36,61],[3,27],[-64,83],[-29,66],[-37,24],[-65,122],[-394,36]],[[1213,3182],[27,39],[73,27],[32,34],[1,51],[52,10],[-6,75],[66,-6],[-3,63],[61,34],[61,-3],[42,50],[60,-2],[28,30],[7,58],[26,49],[-23,37],[-5,15]],[[2857,3601],[-39,-6],[2,-36],[-50,-39],[1,-48],[-48,-38],[-17,-59],[-35,-14],[37,-94],[-64,-16],[5,-93],[37,-48],[-32,-47]],[[3005,2285],[-43,8],[-111,-96]],[[2851,2197],[-106,-49],[-30,-48],[-41,-20],[-47,25],[-50,-44]],[[2577,2061],[-42,30],[-35,54]],[[2500,2145],[73,48],[4,157],[24,73],[-7,39],[25,39],[102,23],[17,52],[32,34]],[[3094,2235],[63,-60],[0,-77],[27,-43],[-12,-94],[23,-28],[-15,-150],[29,-41],[42,-23],[58,-99]],[[3309,1620],[-49,4],[-57,-65],[-45,-22],[-17,-30],[-82,-81],[-4,63],[29,67],[-24,39],[-53,-27]],[[3007,1568],[-41,67],[-119,88]],[[2847,1723],[23,86],[39,-13],[51,59],[31,12],[6,91],[-12,77],[-107,-24],[-29,18],[0,47],[21,65],[31,33],[-50,23]],[[2500,2145],[-51,61],[-78,36],[29,31],[12,73],[-34,68],[5,93],[-74,-22],[-35,1],[-46,-41],[-67,66]],[[2161,2511],[-6,118]],[[2155,2629],[-3,125]],[[2847,1723],[-56,-45],[-13,-39],[-47,-2]],[[2731,1637],[-37,102],[-40,61],[-27,80]],[[2627,1880],[13,49],[-60,118]],[[2580,2047],[-3,14]],[[1996,2330],[-4,-40],[-46,-49],[42,-38],[-30,-49],[36,-65],[-13,-30],[-95,-37],[-1,-42],[29,-28],[23,-57],[-83,-37],[-39,6],[-22,-45],[-49,-48],[-5,-53],[-87,6],[-36,-31],[13,-134],[-26,-213]],[[1603,1346],[-442,-230],[-324,-171],[-159,199],[-40,-33],[-66,80],[44,31],[-72,93],[-60,91],[-44,9],[20,62],[-35,38],[40,56],[-11,30],[16,42],[67,40],[-8,39],[26,43],[-9,53],[43,-7],[38,96],[30,6],[27,72],[-6,42],[28,60],[-7,81],[-26,35],[1,60]],[[674,2263],[51,29],[-27,52],[41,35],[31,-6],[42,31],[-33,39],[-16,50],[35,12],[38,-14],[87,60],[-28,35],[0,33],[36,27],[-4,37],[51,28],[25,42],[-9,44],[60,57],[-8,95],[80,-2],[54,-79],[11,-57],[48,-11],[-9,-46],[-52,-18],[-8,-84],[59,-75],[8,-36],[38,-33],[11,-62],[48,-41],[-2,-42],[24,-26],[-14,-81],[11,-66],[-24,-71],[30,-32],[5,-50],[54,-26],[75,47],[79,32],[63,113],[97,14],[42,22],[32,45],[119,54],[71,-8]],[[2155,2629],[-74,-17],[-70,-74],[-27,-78],[-53,-52],[65,-78]],[[674,2263],[-64,16],[-2,-42],[-25,-39],[-64,-50],[-87,38],[-48,0],[-54,32],[-61,51],[-10,65]],[[259,2334],[41,37],[-14,46],[28,42],[37,-11],[32,18],[1,490]],[[384,2956],[136,22],[-66,163],[1,0],[144,53],[51,-125],[169,57],[280,-62],[37,5],[1,42],[27,55],[49,16]],[[259,2334],[-26,59],[-96,60],[-36,-1],[-17,58],[-49,82],[-35,48],[51,37],[47,33],[-20,24],[99,85],[52,31],[9,33],[74,20],[72,53]],[[3338,773],[36,-73],[32,-18],[8,-53],[31,-27],[12,-59],[37,-21],[-77,-40],[-23,5],[-57,-34],[-99,-40],[-93,7],[-51,-16],[-62,8],[-194,-36],[-41,56],[-175,-108],[98,-228],[-59,12],[-38,-36],[-53,-72],[-98,49],[-147,160],[-17,-19],[-240,60],[-71,40],[-15,257],[-18,196],[-11,30],[93,40],[50,34],[13,26],[52,33],[-2,31],[57,52],[34,58],[52,-106],[74,15],[4,-88],[92,74],[84,-34],[29,-52],[43,53],[37,-82],[45,2],[105,-66],[116,5],[94,-33],[25,-19],[113,-18],[40,38],[90,34],[45,3]],[[2161,2511],[2,-196],[63,-92],[12,-35],[71,-104],[-10,-24]],[[2299,2060],[-28,-114],[-39,-42],[-3,-42],[16,-66],[-22,-39],[26,-133],[131,17]],[[2380,1641],[24,-57],[1,0],[0,-1]],[[2405,1583],[-9,-44],[-53,-40],[-21,-37],[40,-128]],[[2362,1334],[-124,-165],[-23,-20],[-210,-86],[-153,-79],[-121,214],[-53,112],[-75,36]],[[2627,1880],[-179,-51],[-5,-56],[-24,-24],[-39,-108]],[[2299,2060],[81,-13],[200,0]],[[3007,1568],[-58,-52],[-14,-30],[-58,-8],[-41,-28],[-15,-36],[-46,21],[-25,-46],[-59,-27],[-95,-23],[-39,-21],[-171,38],[-24,-22]],[[2405,1583],[142,-3],[65,-42],[82,-19],[36,6],[-8,99],[9,13]],[[5446,1760],[42,-64],[89,-13],[46,-85],[35,-13],[65,-130],[55,-57],[40,-2],[32,-82],[-55,-18],[-61,-38],[-37,-38],[29,-18],[-3,-61],[-49,-28],[5,-33],[-66,-43],[-54,35],[-64,120],[-52,17],[-70,-38],[-22,-38],[-18,-105],[33,-60],[-14,-46],[-66,-47],[-22,-54],[-54,-20],[-30,48],[-9,48],[-42,9],[-44,131],[-9,84],[-23,49],[-48,-8],[-49,48],[-32,60],[0,32]],[[4924,1302],[16,43],[-57,70],[-54,-14],[-1,146],[-15,103],[58,71]],[[4871,1721],[26,-13],[60,83],[-9,54],[15,57],[27,46],[90,50],[25,-1],[86,68]],[[4512,2971],[-39,-13],[-42,8],[-33,-23],[-18,-48],[-59,-52],[2,-51],[-49,-16],[-27,-54],[12,-49],[-25,-25],[-8,-58]],[[4226,2590],[-48,-32],[-29,-75],[-28,-21],[10,-39],[-32,-36],[-137,-5],[-34,-37],[-39,-2],[-55,-59],[-24,29],[-74,-48],[-37,17],[-147,-9],[-120,39],[8,69],[-14,52]],[[3515,3012],[64,-4],[58,21],[121,17],[42,101],[203,39],[40,43],[1,25],[115,40]],[[4226,2590],[61,-146],[13,-49],[-19,-68],[-40,16],[-21,-55],[7,-32],[-43,-49]],[[4184,2207],[-55,35],[-55,1],[-76,-22],[-32,-109],[-34,-27],[-13,-82],[-29,-55],[29,-75],[-55,-3],[-61,-38],[-43,-106],[35,-45],[14,-57]],[[3809,1624],[-50,-30],[-21,-34],[-98,-20],[-97,13],[-156,63],[-78,4]],[[4924,1302],[-32,28],[-31,-15],[-24,34],[-45,23],[-30,39],[-35,-37],[-54,-19],[-37,-35],[-17,52],[-81,-14],[-93,100],[34,27],[-30,24],[-46,-26],[-59,5],[-65,22],[-32,-8],[-57,88],[-39,-21],[-74,20],[-77,59],[-191,-24]],[[4184,2207],[4,-44],[39,-44],[40,-17],[11,-39],[40,2],[88,-30],[51,-6],[45,-45],[31,-61],[-3,-35],[37,-40],[23,-116],[32,-16],[7,-37],[51,-48],[53,26],[14,50],[63,51],[27,37],[34,-74]]],"transform":{"scale":[0.00014447189570444924,0.00015282999157928458],"translate":[36.90903828725223,-1.7696672543200898]},"objects":{"wards.016.final":{"type":"GeometryCollection","geometries":[{"arcs":[[0,1,2,3,4]],"type":"Polygon","properties":{"code":"0371","name":"Ekalakala","constituency_code":"075","county_code":"016"}},{"arcs":[[5,6]],"type":"Polygon","properties":{"code":"0372","name":"Kivaa","constituency_code":"075","county_code":"016"}},{"arcs":[[7,8]],"type":"Polygon","properties":{"code":"0373","name":"Mananja","constituency_code":"075","county_code":"016"}},{"arcs":[[9,-6,10,11,-2]],"type":"Polygon","properties":{"code":"0374","name":"Masinga Central","constituency_code":"075","county_code":"016"}},{"arcs":[[-5,12,13,-8,14]],"type":"Polygon","properties":{"code":"0375","name":"Muthesya","constituency_code":"075","county_code":"016"}},{"arcs":[[15,16,17,18,19,20,21]],"type":"Polygon","properties":{"code":"0376","name":"Ikombe","constituency_code":"076","county_code":"016"}},{"arcs":[[22,23,24,-17]],"type":"Polygon","properties":{"code":"0377","name":"Katangi","constituency_code":"076","county_code":"016"}},{"arcs":[[-21,25,26,27,28,29]],"type":"Polygon","properties":{"code":"0378","name":"Kithimani","constituency_code":"076","county_code":"016"}},{"arcs":[[30,-22,-30,31,-3,-12]],"type":"Polygon","properties":{"code":"0379","name":"Matuu","constituency_code":"076","county_code":"016"}},{"arcs":[[-4,-32,-29,32,-13]],"type":"Polygon","properties":{"code":"0380","name":"Ndalani","constituency_code":"076","county_code":"016"}},{"arcs":[[33,34,35,36]],"type":"Polygon","properties":{"code":"0381","name":"Kangundo Central","constituency_code":"077","county_code":"016"}},{"arcs":[[-34,37,38,39,40]],"type":"Polygon","properties":{"code":"0382","name":"Kangundo East","constituency_code":"077","county_code":"016"}},{"arcs":[[-37,41,42,43,44,-38]],"type":"Polygon","properties":{"code":"0383","name":"Kangundo North","constituency_code":"077","county_code":"016"}},{"arcs":[[-35,-41,45,46,47,48,49,50]],"type":"Polygon","properties":{"code":"0384","name":"Kangundo West","constituency_code":"077","county_code":"016"}},{"arcs":[[51,52,53]],"type":"Polygon","properties":{"code":"0385","name":"Kyeleni","constituency_code":"078","county_code":"016"}},{"arcs":[[-43,54,55,56,57]],"type":"Polygon","properties":{"code":"0386","name":"Matungulu East","constituency_code":"078","county_code":"016"}},{"arcs":[[-27,58,-57,59,-52,60]],"type":"Polygon","properties":{"code":"0387","name":"Matungulu North","constituency_code":"078","county_code":"016"}},{"arcs":[[-50,61,62,63,-53,-60,-56,64]],"type":"Polygon","properties":{"code":"0388","name":"Matungulu West","constituency_code":"078","county_code":"016"}},{"arcs":[[-36,-51,-65,-55,-42]],"type":"Polygon","properties":{"code":"0389","name":"Tala","constituency_code":"078","county_code":"016"}},{"arcs":[[-48,65,66,67,68]],"type":"Polygon","properties":{"code":"0390","name":"Kathiani Central","constituency_code":"079","county_code":"016"}},{"arcs":[[-47,69,70,71,72,-66]],"type":"Polygon","properties":{"code":"0391","name":"Lower Kaewa-Kaani","constituency_code":"079","county_code":"016"}},{"arcs":[[-49,-69,73,74,75,-62]],"type":"Polygon","properties":{"code":"0392","name":"Mitamboni","constituency_code":"079","county_code":"016"}},{"arcs":[[-67,-73,76,77,78,79]],"type":"Polygon","properties":{"code":"0393","name":"Upper Kaewa-Iveti","constituency_code":"079","county_code":"016"}},{"arcs":[[80,81,82]],"type":"Polygon","properties":{"code":"0394","name":"Kinanie","constituency_code":"080","county_code":"016"}},{"arcs":[[-63,-76,83,-83,84,85,86]],"type":"Polygon","properties":{"code":"0395","name":"Mathatani","constituency_code":"080","county_code":"016"}},{"arcs":[[-86,87]],"type":"Polygon","properties":{"code":"0396","name":"Syokimau-Mulolongo","constituency_code":"080","county_code":"016"}},{"arcs":[[88]],"type":"Polygon","properties":{"code":"0397","name":"Kola","constituency_code":"081","county_code":"016"}},{"arcs":[[-75,89,90,91,92,93,-81,-84]],"type":"Polygon","properties":{"code":"0398","name":"Mua","constituency_code":"081","county_code":"016"}},{"arcs":[[-79,94,-91,95]],"type":"Polygon","properties":{"code":"0399","name":"Mumbuni North","constituency_code":"081","county_code":"016"}},{"arcs":[[-68,-80,-96,-90,-74]],"type":"Polygon","properties":{"code":"0400","name":"Mutituni","constituency_code":"081","county_code":"016"}},{"arcs":[[-72,96,-93,97,-77]],"type":"Polygon","properties":{"code":"0401","name":"Muvuti-Kiima-Kimwe","constituency_code":"081","county_code":"016"}},{"arcs":[[-78,-98,-92,-95]],"type":"Polygon","properties":{"code":"0402","name":"Township","constituency_code":"081","county_code":"016"}},{"arcs":[[98,99,100,-24]],"type":"Polygon","properties":{"code":"0403","name":"Kibauni","constituency_code":"082","county_code":"016"}},{"arcs":[[-19,101,102,-39,-45,103]],"type":"Polygon","properties":{"code":"0404","name":"Makutano-Mwala","constituency_code":"082","county_code":"016"}},{"arcs":[[-40,-103,104,105,106,-70,-46]],"type":"Polygon","properties":{"code":"0405","name":"Masii","constituency_code":"082","county_code":"016"}},{"arcs":[[-20,-104,-44,-58,-59,-26]],"type":"Polygon","properties":{"code":"0406","name":"Mbiuni","constituency_code":"082","county_code":"016"}},{"arcs":[[-100,107,-106,108]],"type":"Polygon","properties":{"code":"0407","name":"Muthetheni","constituency_code":"082","county_code":"016"}},{"arcs":[[-18,-25,-101,-109,-105,-102]],"type":"Polygon","properties":{"code":"0408","name":"Wamunyu","constituency_code":"082","county_code":"016"}}]}}}