{"type":"Topology","arcs":[[[1568,8725],[-42,119],[-30,32],[-11,44],[-146,114],[-48,82],[34,31],[66,35],[80,79],[16,29],[44,21],[55,63],[47,-4],[76,-3],[150,-62],[93,-12],[96,19]],[[2048,9312],[41,-144],[47,-42],[-23,-23],[-21,-74],[40,-51],[114,-63],[-11,-39]],[[2235,8876],[-17,-53],[-56,-30],[-57,-13],[-45,17],[-10,-28],[-60,-51],[47,-52],[-61,-57],[-34,68],[-96,2],[-43,-65],[-89,122],[-66,-49],[-23,-2],[-57,40]],[[2235,8876],[63,-67],[32,-15]],[[2330,8794],[-43,-102],[0,-222],[-64,32],[-1,-30],[-69,-99],[-43,18],[-46,-15],[-29,-32],[-69,-18],[-40,29],[-53,-16],[-39,-44]],[[1834,8295],[-22,8]],[[1812,8303],[-36,20],[-12,57],[-30,27],[-7,52],[-31,17],[-35,71],[-93,178]],[[2330,8794],[56,15],[66,-51],[-15,-24],[13,-49],[-33,-79],[6,-43],[34,-67],[45,-16],[2,-126],[-7,-166]],[[2497,8188],[-21,2],[-72,-67],[-28,-45],[-39,-17],[-10,-49],[-132,-4],[-68,-16],[-39,4],[-51,26],[-7,31],[-47,4],[-42,53]],[[1941,8110],[10,25],[-36,55],[-56,48],[-25,57]],[[2048,9312],[20,33],[48,30],[184,23],[75,-57],[71,-20],[39,21],[55,-86],[31,7],[62,-21],[57,-5],[44,26],[30,-23],[-33,-27],[89,-97],[79,13],[16,-50]],[[2915,9079],[-14,-13],[-26,-92],[11,-40],[-6,-64],[15,-42],[-25,-50],[-42,-15],[-47,-58],[54,-89],[12,-40],[68,-40],[15,-52],[-95,-56],[-3,-137],[-16,-52],[54,10]],[[2870,8249],[-12,-59],[-22,-45],[-108,11],[-24,17],[-109,-20],[-98,35]],[[2915,9079],[36,34],[52,18],[34,37],[29,-38],[44,-23],[22,-33],[30,15],[31,-28],[0,-30],[32,-59],[47,-47],[46,8],[23,-48],[8,-81],[43,-128],[40,-9],[8,-46],[29,-47]],[[3469,8574],[-5,-71],[16,-47],[-27,-12],[42,-98],[23,-104],[39,18],[-7,-99],[36,-125],[42,34],[75,-151],[50,18],[-14,-62]],[[3739,7875],[-25,11],[-56,-37],[-94,-16]],[[3564,7833],[-32,-31],[-16,67],[-52,8],[-101,-22],[-1,152],[-144,-5]],[[3218,8002],[26,17],[3,45],[-68,20],[-27,63],[-84,55],[-107,52],[-40,-27],[-51,22]],[[3469,8574],[53,20],[22,52],[63,46],[14,45],[-33,58],[18,102],[21,37],[68,37],[50,-17],[62,-116],[52,-34],[64,41],[-5,33],[47,27],[3,60],[-28,16],[36,38],[59,37],[53,17],[78,-94],[54,-20],[28,-80],[40,-54],[9,-40],[46,-50],[9,-43],[43,-41],[30,-56],[43,-107],[68,-35],[16,-40],[-19,-62],[72,-28],[12,-27],[38,-13],[-11,-125],[31,1],[33,-30],[-7,-45],[39,-55],[21,-64],[14,-85],[-11,-64],[-31,-37],[-53,14],[-25,-22],[1,-48]],[[4656,7723],[-21,-36],[-133,6],[-5,31],[-81,22],[-9,27],[-48,-14],[-53,15],[-50,-35],[-51,42],[-64,-35]],[[4141,7746],[-79,20],[-21,27],[-52,-10],[-40,-31],[-86,5],[-31,45],[0,40],[-72,35],[-21,-2]],[[1571,7114],[45,15],[93,-5],[77,-58],[191,3],[75,19],[94,-8],[22,-18],[45,15],[33,-14]],[[2246,7063],[10,-28],[-38,-38],[-36,-15]],[[2182,6982],[-45,-8],[-34,-34],[-114,6],[-27,-13],[-11,-42],[-44,-36],[-95,-13],[-13,-50],[21,-105],[-4,-59],[-68,-56],[4,-68],[-23,-39],[-46,-6],[-19,-48],[7,-78],[68,-24],[-4,-52],[43,-21],[81,-8],[23,-23],[5,-51],[22,-16],[10,-50],[43,36],[40,3],[38,-23]],[[2040,6104],[21,-32],[52,11],[78,-52],[-72,-201]],[[2119,5830],[-46,17],[-132,89],[-336,234],[-127,61],[-26,11],[-304,29],[-34,32],[-81,-1],[-114,60],[-24,109],[-51,67],[-17,43],[-52,5],[-65,47],[-24,47]],[[686,6680],[11,39],[-84,127],[64,71],[284,43]],[[961,6960],[84,-129],[19,46],[63,32],[95,89],[65,157],[39,-12],[39,21],[3,-50],[44,-8],[42,17],[51,-22],[66,13]],[[961,6960],[-68,245],[89,140],[-13,53],[3,58],[26,128],[27,50],[55,-17],[75,103]],[[1155,7720],[81,13],[13,-37],[55,-34],[42,-68],[47,-38],[40,-8],[33,-151],[74,-41]],[[1540,7356],[-5,-37],[44,-88],[45,-28],[24,-36],[-40,-13],[-37,-40]],[[1064,7889],[19,-43],[50,-72]],[[1133,7774],[22,-54]],[[686,6680],[-62,51],[-81,16],[-87,5],[-30,-15],[-52,12],[-56,-15],[-47,33],[1,41],[-58,23],[-86,121],[-54,89],[38,10],[10,65],[16,11],[-5,105],[-35,37],[-3,29],[-89,65],[2,86],[15,28],[-23,35],[70,67],[-8,37],[60,97],[208,27],[127,10],[-69,187],[-22,140],[67,-39],[232,-58],[17,19],[143,-156],[94,-48],[51,70],[37,36],[57,-12]],[[3218,8002],[-110,-71],[-33,26],[-104,-95],[-17,-1],[-38,-89],[-33,-38],[-42,-7],[-28,20],[-54,9],[-55,-16],[-43,-59],[-73,-72],[-94,-78],[54,-49],[-4,-54],[-22,-29]],[[2522,7399],[-35,8],[-57,-67],[-36,1],[-208,106]],[[2186,7447],[-47,15],[-11,24],[-65,12],[-26,118],[-41,42],[44,23],[-11,58],[-37,41],[-158,127],[-47,51]],[[1787,7958],[32,23],[38,95],[60,36],[24,-2]],[[1064,7889],[-95,221],[169,106],[40,-55],[187,35],[60,-8],[50,16],[90,-7],[95,39],[55,33],[22,-5],[75,39]],[[1787,7958],[-61,3],[-26,-36],[-2,-47],[-23,-27]],[[1675,7851],[-38,-14],[-85,-58],[-39,62],[-37,82],[-80,24],[-35,80],[-40,-21],[-11,-46],[25,-97],[-7,-28],[-78,-4],[-16,42],[-78,-52],[-23,-47]],[[1675,7851],[52,-90],[17,-51],[34,-33],[-2,-26],[137,-19],[17,-28],[59,-27],[-20,-27],[-7,-88],[-47,-10],[-50,-61],[-38,2],[-91,70],[-24,-41],[-81,-51],[-31,21],[-60,-36]],[[2186,7447],[-51,-233],[18,-51],[93,-100]],[[3564,7833],[12,-34],[-11,-66],[-22,-27],[2,-43],[-23,-55],[-34,-36],[-98,45],[-39,-77],[-10,-64],[-37,-99],[-51,63],[-32,21],[-29,-64],[-79,42],[-32,-1],[-75,41],[-33,-2],[-30,28],[-95,-19],[-48,-44],[0,-49],[-21,-90],[-27,-46]],[[2752,7257],[-73,13],[-33,-15],[-119,60],[20,26],[-25,58]],[[4141,7746],[-45,-40],[-22,-77],[5,-46],[-16,-64],[-31,-36],[-25,7],[-55,-53],[-58,-15],[-52,31],[-24,-31],[-65,-11],[-3,-64],[-29,-4],[-3,-82],[-23,-33],[-56,2],[-28,-50]],[[3611,7180],[-29,-66],[-90,-162],[-19,-80],[48,-96],[38,-42],[31,-60],[19,-101],[35,-33],[30,-65],[38,-39],[-91,-44],[-27,5],[-35,-61],[5,-72]],[[3564,6264],[-30,56],[-12,79],[-54,28],[-66,59],[12,20],[-37,44]],[[3377,6550],[-17,13],[-34,100],[-54,56],[-59,20],[3,34],[-79,24],[3,61],[-38,4],[3,41],[-96,79],[1,39],[-39,36],[-17,44],[-34,-19],[-59,-59],[-93,96],[-27,108],[11,30]],[[4656,7723],[52,-109],[118,-115],[27,-19],[88,-95],[41,-9],[44,-41],[-39,-26],[-21,-44],[19,-54],[39,2],[53,-19],[-3,-60],[13,-64],[27,-68],[-9,-59],[30,-17],[68,10],[0,-44],[-33,-25],[-22,-114]],[[5148,6753],[-41,11],[-78,-7],[-51,23],[-27,-35],[-56,-21],[-83,35],[-62,-23],[-9,20],[-74,7],[-48,43],[-41,17],[-53,49],[-44,-6],[-72,43],[-32,30]],[[4377,6939],[-24,71],[0,42],[-24,95],[-75,43],[-58,9],[-31,-67],[-90,-19],[-40,8],[-43,-18],[-33,-39],[-32,25],[-14,47],[-59,-35],[1,-30],[-24,-64],[5,-42],[-36,-28],[8,-60],[-36,-45],[-51,63],[-2,90],[-15,24],[-16,97],[-53,29],[-24,45]],[[5148,6753],[33,-55],[17,-58],[-18,-38],[23,-47],[-14,-18],[69,-192],[60,-41],[-8,-30],[31,-21],[-12,-54],[33,-34],[-30,-55],[36,-33],[46,-12],[24,-67],[-5,-52],[31,-43],[10,-88],[-18,-109],[12,-39],[-19,-29],[3,-42],[-16,-58],[-3,-62],[65,-83]],[[5498,5393],[-118,25],[-17,39],[-69,-4],[-59,14],[-26,31],[-45,-31],[-22,31],[-34,-36],[-54,-1],[-35,73],[-78,-2],[-57,-41],[-27,33],[-101,76],[-33,3]],[[4723,5603],[-41,21],[-24,41],[-54,58],[-31,87],[-47,40],[-13,50],[-43,63],[9,28],[-14,79],[-21,20],[48,47],[26,43],[-30,58],[16,47],[-32,72],[-63,45],[-42,49],[-19,-3],[-39,63],[-47,20],[0,49],[50,42],[18,72],[14,118],[-20,19],[25,69],[28,39]],[[4723,5603],[-91,-4],[-33,-36],[-71,-43],[-14,46],[-111,75],[-87,66],[6,34],[-70,29],[-32,-30],[-22,50],[-65,-10],[-52,24]],[[4081,5804],[-38,20],[15,49],[-19,15],[-47,-23],[-30,24],[-55,-3],[-21,73],[-53,26],[-34,42],[-53,6],[-37,62],[-2,67],[-73,19],[-16,78],[-54,5]],[[3377,6550],[-20,-17],[-94,87],[-93,26],[-80,-16],[-24,12],[-70,-1],[0,-25],[39,-21],[-17,-49],[-54,-56],[68,-75],[-33,-25],[-92,38],[-117,8],[-18,-30],[14,-38]],[[2786,6368],[-32,-36],[-52,-17],[-73,37],[-3,-34],[-38,-45],[-19,65],[0,184],[-98,64],[-54,19]],[[2417,6605],[-40,33],[-70,36],[3,25],[-48,16],[-19,47],[-45,52],[15,51],[-40,38],[9,79]],[[2417,6605],[2,-36],[76,-90],[-26,-73],[-61,-10],[-34,-45],[-37,-74],[-49,-13],[-38,11],[-54,-11],[-19,81],[-43,5],[-59,-31],[-23,-70],[-12,-145]],[[5498,5393],[23,-133]],[[5521,5260],[-64,-67],[3,-62],[-21,-26],[19,-31],[-18,-32],[10,-68],[-36,-51],[-3,-86]],[[5411,4837],[-48,-5],[-213,4],[-82,30],[-138,-60],[22,-87],[61,-62],[-4,-24],[-50,-50],[-18,-38],[15,-106],[-16,-85],[-82,-17],[-33,-62],[-143,112],[-190,-217],[-48,-39]],[[4444,4131],[-37,79],[-119,149],[-79,83],[-30,42],[-62,-7],[-197,3],[-146,-27],[-20,-123],[-2,-117],[-17,-120],[-203,-89],[-108,-32],[-37,-20]],[[3387,3952],[-167,180],[-182,202],[72,21],[-2,37],[66,37],[48,-45],[90,39],[58,12],[20,32],[62,26],[43,-22],[47,76],[5,57],[40,37],[-16,25],[14,38],[1,68],[-16,18],[-10,72],[60,28],[31,54],[46,37],[69,92],[112,49],[-93,32],[-14,61],[-50,55]],[[3721,5270],[29,48],[0,60],[-16,51],[6,35],[38,68],[1,56],[-40,32],[85,16],[55,31],[88,71],[60,26],[7,29],[47,11]],[[5411,4837],[11,-102],[-28,-46],[16,-67],[38,-9],[17,-33],[-7,-52],[20,-62],[40,-37],[3,-39],[-28,-18],[-30,-69],[-20,-92]],[[5443,4211],[-17,23],[-97,16],[-51,-2],[-61,-49],[-50,0],[-21,-35],[-38,-180],[18,-86],[-25,-24],[38,-46],[72,-54]],[[5211,3774],[-294,-206],[-272,115],[-209,93],[16,303],[-8,52]],[[5521,5260],[94,34],[47,26],[111,23],[91,41],[25,-17],[34,-84],[61,-28],[46,1],[46,-42],[-16,-47],[41,-37],[10,-62],[46,-92],[47,-19],[-38,-34],[32,-38],[20,-97],[0,-49],[60,-76],[29,-20],[7,-44],[34,-19],[49,0],[33,-63],[48,-12],[-6,-101],[39,-9],[9,-66],[25,-24]],[[6545,4305],[-36,-12],[-131,-128],[-27,-16],[-119,-29],[-72,-5],[-38,-26],[-40,3],[-104,-21],[-66,21],[-103,51],[-22,39],[-142,-127],[-36,16],[-88,82],[6,43],[-21,21],[-63,-6]],[[6545,4305],[28,-23],[71,-16]],[[6644,4266],[-60,-23],[-19,-44],[-16,-164],[-59,23],[-27,-45],[-26,4],[-35,-49]],[[6402,3968],[-79,-34],[-47,-41],[-58,12],[-152,71],[-58,-24],[-177,50],[-22,-80],[-40,-54],[-56,-39],[-32,8],[-54,-28],[-68,-88],[-41,-2],[-47,-47],[-53,40],[-111,12],[-65,25],[-31,25]],[[3721,5270],[-41,-3],[-176,59],[-24,1],[-266,-35],[-35,2],[-161,47],[-135,99],[-56,69],[-86,-2],[-59,29],[7,43],[-46,30],[-17,29],[-79,31]],[[2547,5669],[49,47],[78,56],[81,131],[10,71],[-11,43],[39,87],[-16,43],[-45,64],[57,53],[6,90],[-9,14]],[[2547,5669],[-140,54],[-136,46],[-152,61]],[[6644,4266],[87,-6],[25,-37],[148,-68],[77,1],[64,-57],[22,-40],[76,-6],[57,-175],[22,-98],[74,-30],[26,-44],[44,-10],[46,-52],[143,-18],[17,-15],[41,-152],[12,-15],[47,-209],[51,-27],[43,-68],[55,-15],[5,-68],[28,-17],[7,-59],[20,-17],[-6,-47]],[[7875,2917],[-76,-10],[-67,20],[-130,-2],[-28,5],[-138,-10],[-16,-8],[-90,13],[-98,44],[-27,-35],[-48,4],[-81,-51],[-42,19],[-54,-32],[-55,9],[-40,-24],[-57,0],[-45,-16],[-160,56],[-15,19],[-134,-28],[-69,-7],[-107,-42],[-107,-75]],[[6191,2766],[-51,64],[-72,67],[-122,93],[37,37],[22,53],[25,0],[35,66],[6,79],[-15,51],[-31,19],[74,133],[228,400],[75,140]],[[6800,1951],[-87,81],[-65,97],[-90,98],[-21,46],[-61,41],[-29,79],[-86,38],[-80,54],[-50,73],[-24,92],[2,41]],[[6209,2691],[-18,75]],[[7875,2917],[26,-52],[-7,-34],[59,-17],[44,-30],[-42,-56],[20,-27],[31,-112],[50,-16],[18,-75],[24,-40],[61,-163],[4,-43],[31,-23],[-3,-47],[102,-92],[-4,-34],[33,-63],[26,-89],[45,-89],[59,-149],[39,-58],[14,-69],[32,-39],[49,-102],[5,-30],[39,-71],[-9,-21],[-53,-27],[-8,-58],[-26,-46],[51,-35],[8,-65],[24,-48],[3,-49],[-20,-32],[26,-39],[52,-23],[-8,-38],[43,-25],[-13,-63],[69,-11],[11,-30],[-29,-55],[71,-24],[-2,-33],[39,-51],[51,-106],[10,-60],[61,3],[21,-51],[29,-31],[4,-49],[46,-15],[2,-155],[-51,-6],[-28,41],[-79,-52],[-61,2],[-51,-45],[-28,25],[-43,90],[-34,36],[-90,71],[-70,79],[-75,106],[-20,12],[-72,-6],[-59,31],[-169,156],[-160,215],[-124,195],[-124,123],[-140,197],[-142,162],[-60,52],[-435,297],[-109,52],[-59,58]],[[5915,1484],[-312,-161],[-40,-18],[-242,102],[-54,61],[-22,85],[1,54],[17,14],[8,101],[-45,96],[-22,20],[-74,2],[-53,17],[-56,167],[-94,92],[-24,41],[-34,55],[-46,106],[-97,159],[-229,249],[-325,355],[-218,252],[-567,619]],[[6209,2691],[-35,38],[-76,-2],[-65,22],[-54,-23],[-71,31],[-22,-24],[-77,22],[-63,-44],[-102,4],[-18,-23],[-72,-14],[-53,29],[-67,-2],[-44,-79],[-7,-42],[-71,-39],[76,-84],[26,-40],[104,-126],[136,-135],[26,-40],[53,-35],[69,-27],[-32,-73],[-37,-57],[-41,19],[-95,-15],[73,-105],[-37,-56],[60,-36],[50,-113],[35,-22],[137,-116]],[[6800,1951],[-9,-51],[-47,-35],[-54,10],[-90,-2],[-38,-37],[-30,-5],[-23,-51],[-109,-51],[-209,-107],[-191,-91],[-85,-47]]],"transform":{"scale":[0.00014952678368961836,0.0001571681688859135],"translate":[37.14292028266657,-2.994846086312522]},"objects":{"wards.017.final":{"type":"GeometryCollection","geometries":[{"arcs":[[0,1,2]],"type":"Polygon","properties":{"code":"0411","name":"Tulimani","constituency_code":"083","county_code":"017"}},{"arcs":[[-3,3,4,5,6]],"type":"Polygon","properties":{"code":"0412","name":"Mbooni","constituency_code":"083","county_code":"017"}},{"arcs":[[-5,7,8,9]],"type":"Polygon","properties":{"code":"0413","name":"Kithungo/kitundu","constituency_code":"083","county_code":"017"}},{"arcs":[[10,11,12,-8,-4,-2]],"type":"Polygon","properties":{"code":"0414","name":"Kiteta/kisau","constituency_code":"083","county_code":"017"}},{"arcs":[[13,14,15,16,17,-12]],"type":"Polygon","properties":{"code":"0415","name":"Waia-Kako","constituency_code":"083","county_code":"017"}},{"arcs":[[18,19,20,-15]],"type":"Polygon","properties":{"code":"0416","name":"Kalawa","constituency_code":"083","county_code":"017"}},{"arcs":[[21,22,23,24,25,26,27]],"type":"Polygon","properties":{"code":"0417","name":"Kasikeu","constituency_code":"084","county_code":"017"}},{"arcs":[[-28,28,29,30]],"type":"Polygon","properties":{"code":"0418","name":"Mukaa","constituency_code":"084","county_code":"017"}},{"arcs":[[31,32,-29,-27,33]],"type":"Polygon","properties":{"code":"0419","name":"Kiima Kiu/kalanzoni","constituency_code":"084","county_code":"017"}},{"arcs":[[-9,-13,-18,34,35,36,37]],"type":"Polygon","properties":{"code":"0420","name":"Ukia","constituency_code":"085","county_code":"017"}},{"arcs":[[38,-6,-10,-38,39,40,-32]],"type":"Polygon","properties":{"code":"0421","name":"Kee","constituency_code":"085","county_code":"017"}},{"arcs":[[-30,-33,-41,41]],"type":"Polygon","properties":{"code":"0422","name":"Kilungu","constituency_code":"085","county_code":"017"}},{"arcs":[[-22,-31,-42,-40,-37,42]],"type":"Polygon","properties":{"code":"0423","name":"Ilima","constituency_code":"085","county_code":"017"}},{"arcs":[[-17,43,44,-35]],"type":"Polygon","properties":{"code":"0424","name":"Wote","constituency_code":"086","county_code":"017"}},{"arcs":[[-16,-21,45,46,47,48,-44]],"type":"Polygon","properties":{"code":"0425","name":"Muvau/kikuumini","constituency_code":"086","county_code":"017"}},{"arcs":[[49,50,51,-46,-20]],"type":"Polygon","properties":{"code":"0426","name":"Mavindini","constituency_code":"086","county_code":"017"}},{"arcs":[[52,53,54,-51]],"type":"Polygon","properties":{"code":"0427","name":"Kitise/kithuki","constituency_code":"086","county_code":"017"}},{"arcs":[[-47,-52,-55,55,56]],"type":"Polygon","properties":{"code":"0428","name":"Kathonzweni","constituency_code":"086","county_code":"017"}},{"arcs":[[-23,-43,-36,-45,-49,57,58,59]],"type":"Polygon","properties":{"code":"0429","name":"Nzaui/kilili/kalamba","constituency_code":"086","county_code":"017"}},{"arcs":[[-24,-60,60]],"type":"Polygon","properties":{"code":"0430","name":"Mbitini","constituency_code":"086","county_code":"017"}},{"arcs":[[61,62,63,64,65,66,-56,-54]],"type":"Polygon","properties":{"code":"0431","name":"Makindu","constituency_code":"087","county_code":"017"}},{"arcs":[[-64,67,68,69]],"type":"Polygon","properties":{"code":"0432","name":"Nguumo","constituency_code":"087","county_code":"017"}},{"arcs":[[70,71,-68,-63]],"type":"Polygon","properties":{"code":"0433","name":"Kikumbulyu North","constituency_code":"087","county_code":"017"}},{"arcs":[[72,73,74,-69,-72]],"type":"Polygon","properties":{"code":"0434","name":"Kikumbulyu South","constituency_code":"087","county_code":"017"}},{"arcs":[[-48,-57,-67,75,76,-58]],"type":"Polygon","properties":{"code":"0435","name":"Nguu/masumba","constituency_code":"087","county_code":"017"}},{"arcs":[[-25,-61,-59,-77,77]],"type":"Polygon","properties":{"code":"0436","name":"Emali/mulala","constituency_code":"087","county_code":"017"}},{"arcs":[[78,79,80,-74]],"type":"Polygon","properties":{"code":"0437","name":"Masongaleni","constituency_code":"088","county_code":"017"}},{"arcs":[[81,82,-80,83]],"type":"Polygon","properties":{"code":"0438","name":"Mtito Andei","constituency_code":"088","county_code":"017"}},{"arcs":[[84,-65,-70,-75,-81,-83,85]],"type":"Polygon","properties":{"code":"0439","name":"Thange","constituency_code":"088","county_code":"017"}},{"arcs":[[86,-86,-82]],"type":"Polygon","properties":{"code":"0440","name":"Ivingoni/nzambani","constituency_code":"088","county_code":"017"}}]}}}