{"type":"Topology","arcs":[[[946,4268],[-32,-53],[-24,-9],[-56,-95],[-19,-19],[-116,-68],[-9,-36],[12,-51],[84,-1],[16,-79],[20,-16],[83,11],[5,-29]],[[910,3823],[-25,2],[-6,-56],[-45,-41],[-21,-2],[-21,38],[-87,25],[-35,-18],[-18,-35],[-32,-4],[51,-60],[8,-47],[-13,-34]],[[666,3591],[-89,-60],[-29,37],[-134,47],[-21,24],[-47,-2]],[[346,3637],[-15,54],[6,43],[-16,37],[0,37],[38,16],[-71,44],[14,11],[-28,85],[-122,61],[-3,30],[-55,21]],[[94,4076],[22,20],[8,39],[47,-8],[-8,-40],[123,-18]],[[286,4069],[79,-11],[52,135],[93,-2],[3,51],[48,118],[45,16],[86,-29],[48,17],[-14,-64],[-31,-22],[30,-40],[221,30]],[[2073,2477],[43,-6]],[[2116,2471],[-124,-102],[40,-102],[43,4],[-74,-128],[-42,-33],[21,-13],[-17,-32],[8,-30],[35,-12],[-22,-39],[-10,-68],[-32,-12],[-35,40],[-44,0],[-91,45],[-54,-6],[-51,45],[-24,-12],[-150,-50],[15,-57],[33,-28],[15,-48],[-4,-34]],[[1552,1799],[-50,-23],[-227,-23],[-8,3],[-14,67],[22,45],[-25,28],[7,42],[-21,11],[4,38],[27,23],[-31,40],[18,22],[-6,33]],[[1248,2105],[9,37],[-10,27],[58,4],[18,37],[53,57],[13,66],[28,65],[66,5],[106,32],[48,38],[24,-18],[75,17],[41,0],[40,23],[29,1],[92,-38],[59,1],[76,18]],[[666,3591],[15,-63],[-1,-70],[29,-28],[2,-53],[-12,-46]],[[699,3331],[-2,-31],[-95,11],[-44,-20],[-2,-32],[49,-84],[-5,-42],[23,-71],[24,-25],[16,-76],[-53,-8],[38,-37],[-8,-51],[48,-45],[6,-22]],[[694,2798],[-118,-26],[-111,-94],[-3,7],[-76,245],[-69,-5],[-54,-14],[-24,16],[-40,0],[-29,-41],[-20,33],[-21,81],[-47,181],[-4,61],[-3,60],[189,70]],[[264,3372],[13,-15],[-2,-59],[36,7],[9,25],[50,37],[49,-6],[125,3],[-64,86],[-18,74],[-64,74],[-52,39]],[[910,3823],[49,6],[68,-13],[36,23],[5,-57],[34,-61],[19,41],[114,10],[6,-65],[92,4],[31,25],[166,36]],[[1530,3772],[-19,-20],[20,-95],[26,-45],[45,-50],[21,-40],[-198,-62]],[[1425,3460],[-7,67],[-92,-14],[-5,-94],[-236,-48]],[[1085,3371],[-110,-23],[-276,-17]],[[2330,5006],[-72,-69],[-53,-76],[-77,-84],[-73,-20],[-37,-41],[1,-33],[-68,-44],[-27,14],[-70,-16],[-62,-46],[-55,15]],[[1737,4606],[20,172],[2,47],[-140,60],[-86,50],[-82,-58],[-19,-25],[-3,-46],[-53,26],[-34,32]],[[1342,4864],[62,31],[-157,59],[132,135],[131,36],[95,177],[34,63],[99,-95],[185,-164],[44,-124],[32,-71],[34,8],[293,91],[4,-4]],[[2127,1135],[-143,223],[32,17],[-19,67],[-40,18],[9,36],[-26,10],[-12,66]],[[1928,1572],[26,54],[58,91],[-125,13],[-15,17],[-62,23],[7,21],[41,11],[101,-1],[26,41],[37,22],[3,30],[29,9],[88,-13]],[[2142,1890],[-29,-39],[208,-249],[186,-213],[-6,-25],[70,-66],[14,-50],[-9,-33],[24,-30],[-111,-49]],[[2489,1136],[-181,-81],[-35,89],[38,20],[-54,28],[-130,-57]],[[2955,1590],[-31,-228]],[[2924,1362],[-46,-15],[-66,-65],[-23,-33],[-54,-34],[-29,-37],[-13,-55],[-43,0],[-12,-39],[-42,-30]],[[2596,1054],[-13,50],[-49,-19],[-2,43],[-43,8]],[[2142,1890],[40,-23],[43,-4]],[[2225,1863],[51,-56],[102,-39],[34,13],[129,-5],[75,-25],[32,-26],[69,3],[60,-24],[36,-61],[45,-28],[44,-4],[53,-21]],[[2225,1863],[-27,51],[-33,33],[77,32],[18,33],[46,41],[74,46],[1,64],[41,56],[22,-12],[46,11],[34,53],[40,13],[87,67],[37,57],[36,11]],[[2724,2419],[65,-83],[55,-180]],[[2844,2156],[127,-422],[-4,-51],[-12,-93]],[[2116,2471],[73,14],[33,57],[37,-26],[26,-83],[35,-53],[45,-18],[36,6],[103,57],[149,89]],[[2653,2514],[71,-95]],[[1928,1572],[-37,-63],[-100,-8],[-135,-10],[-75,73],[-29,235]],[[2414,2808],[-116,-46],[-90,27],[-152,-110],[-33,-4]],[[2023,2675],[-11,-1],[-42,87],[-19,8],[-30,58],[-44,-6],[-22,-28],[-47,-10],[16,122],[-36,-3],[-62,22],[-158,-31],[-223,-24]],[[1345,2869],[11,51],[-24,26],[-10,84],[5,41],[-21,38],[25,34],[-5,83],[-31,53],[-6,50],[24,30],[30,-36],[108,-4],[36,31],[-3,49]],[[1484,3399],[127,-7],[27,12],[82,-3],[39,19],[60,1],[9,18],[48,27],[41,-2],[33,-23],[42,3],[72,-33],[89,-275],[261,-328]],[[1248,2105],[-33,17],[8,67],[-35,66],[-11,53],[-22,28]],[[1155,2336],[53,28],[-1,38],[41,21],[46,66],[79,82],[30,10],[-7,55],[10,18],[-29,46],[-19,56],[-2,55],[-17,24],[6,34]],[[2023,2675],[5,-50],[24,-27],[21,-121]],[[2924,1362],[-7,-42],[207,-181],[21,-24],[31,-73],[0,-57],[20,-44],[4,-71],[24,-73],[47,-50],[-7,-35],[-39,-33],[15,-34],[-12,-65],[-66,74],[-69,68],[-92,75],[-84,22],[-37,-21]],[[2880,798],[-75,13],[-45,26],[-54,14],[-59,77],[-54,5]],[[2593,933],[33,13],[-30,108]],[[2880,798],[-45,-24],[-28,17],[-43,-33],[14,-17],[61,7],[92,-25],[-325,-255]],[[2606,468],[-51,86],[-34,71],[-110,-28],[-12,56]],[[2399,653],[140,237],[54,43]],[[2399,653],[-70,-55],[-1,-30],[-59,-30],[-18,-23],[-11,-83],[-19,-16]],[[2221,416],[-81,258],[-97,295],[-61,95],[145,71]],[[2606,468],[6,-16],[-208,18],[15,-106],[63,-73],[-74,-133],[-59,-17],[-79,-45],[-27,-28],[56,-18],[-110,-50],[-54,57],[13,56],[43,134],[-14,83],[57,67],[-13,19]],[[2414,2808],[215,-268],[24,-26]],[[1085,3371],[7,-89],[-18,-45],[3,-75],[-16,-121],[-4,-79],[-22,-164],[1,-99],[-23,-30]],[[1013,2669],[-28,83],[-152,-55],[-132,15],[-7,86]],[[264,3372],[18,7],[-38,90],[-26,42],[-74,90],[-49,15],[-27,26],[2,54],[-21,80],[-49,202],[32,34],[62,64]],[[1425,3460],[59,-61]],[[1155,2336],[12,84],[-14,23],[-6,59],[-42,22],[10,61],[-17,32],[-75,38],[-10,14]],[[286,4069],[29,175],[-3,123],[-21,19],[30,42],[15,60],[-13,11],[28,49],[5,51],[21,60],[68,1],[127,67],[15,-44],[33,4],[26,61],[153,19],[-2,27]],[[797,4794],[6,-31],[41,-53],[52,-97],[30,-176],[0,-30],[51,-53],[24,-37]],[[1001,4317],[-4,-17],[-51,-32]],[[797,4794],[89,23],[23,14],[34,-83],[224,63]],[[1167,4811],[10,-20],[49,-28],[-10,-26],[19,-49],[48,-68],[54,-126],[8,-42]],[[1345,4452],[22,-102]],[[1367,4350],[-137,-30],[-7,18],[-63,-17],[-14,36],[-41,-15],[-59,-4],[-3,-40],[-42,19]],[[1367,4350],[-8,-61],[12,-74],[89,-191],[15,-69],[29,-85]],[[1504,3870],[8,-59],[18,-39]],[[1737,4606],[-37,-2],[-76,-40],[-35,-67],[-20,-20],[-15,-65],[-95,1],[-45,38],[-69,1]],[[1167,4811],[78,11],[-4,32],[39,12],[62,-2]],[[2330,5006],[83,-117],[14,-91],[65,-113],[38,-2],[97,30],[74,24],[81,-151],[-72,-6],[-299,-11],[-49,-8],[-31,-54],[-69,-48],[-28,-6],[-3,-29],[-31,-29],[0,-30],[-25,-45],[56,-38]],[[2231,4282],[-62,-1],[-60,-17],[-33,-39],[-113,-7],[-58,-12],[-53,-78],[-5,-76],[-16,-33],[-223,59],[41,-89],[-38,8],[-9,-32],[32,-54],[4,-43],[-134,2]],[[2300,4152],[8,-6],[133,8],[251,-23],[127,-235],[24,3],[186,-111],[-44,-5],[11,-46],[-202,-303]],[[2794,3434],[-1,64],[46,23],[18,34],[1,41],[-15,27],[-57,42],[-7,40],[10,35],[-411,192],[24,52],[-2,67],[-39,5],[-61,96]],[[2231,4282],[-31,-66],[39,7],[61,-71]],[[2794,3434],[-63,-102],[-61,-85],[-85,-122],[-19,-63],[-35,-75],[0,-47],[49,-73],[-72,-50],[4,-53],[64,-14],[92,-44],[-4,-26],[-45,-42],[62,-57],[107,-115],[2,-66],[1,-55],[71,-26],[28,-55],[-5,-43],[-41,-65]]],"transform":{"scale":[0.00016145188916298565,0.00019709831283133418],"translate":[36.20149240498464,-0.9210025060215595]},"objects":{"wards.018.final":{"type":"GeometryCollection","geometries":[{"arcs":[[0,1,2,3,4,5]],"type":"Polygon","properties":{"code":"0461","name":"Charagita","constituency_code":"092","county_code":"018"}},{"arcs":[[6,7,8,9]],"type":"Polygon","properties":{"code":"0452","name":"Githioro","constituency_code":"090","county_code":"018"}},{"arcs":[[-3,10,11,12,13]],"type":"Polygon","properties":{"code":"0454","name":"Kanjuiri Range","constituency_code":"091","county_code":"018"}},{"arcs":[[-2,14,15,16,17,-11]],"type":"Polygon","properties":{"code":"0457","name":"Rurii","constituency_code":"091","county_code":"018"}},{"arcs":[[18,19,20]],"type":"Polygon","properties":{"code":"0462","name":"Leshau/pondo","constituency_code":"093","county_code":"018"}},{"arcs":[[21,22,23,24]],"type":"Polygon","properties":{"code":"0441","name":"Engineer","constituency_code":"089","county_code":"018"}},{"arcs":[[25,26,27,-24,28,29]],"type":"Polygon","properties":{"code":"0442","name":"Gathara","constituency_code":"089","county_code":"018"}},{"arcs":[[-30,30,31,32]],"type":"Polygon","properties":{"code":"0443","name":"North Kinangop","constituency_code":"089","county_code":"018"}},{"arcs":[[-8,33,34,-31,-29,-23,35]],"type":"Polygon","properties":{"code":"0444","name":"Murungaru","constituency_code":"089","county_code":"018"}},{"arcs":[[36,37,38,39]],"type":"Polygon","properties":{"code":"0449","name":"Wanjohi","constituency_code":"090","county_code":"018"}},{"arcs":[[-10,40,41,-38,42]],"type":"Polygon","properties":{"code":"0450","name":"Kipipiri","constituency_code":"090","county_code":"018"}},{"arcs":[[43,44,45,-27]],"type":"Polygon","properties":{"code":"0445","name":"Njabini\\kiburu","constituency_code":"089","county_code":"018"}},{"arcs":[[46,47,48,-45]],"type":"Polygon","properties":{"code":"0446","name":"Nyakio","constituency_code":"089","county_code":"018"}},{"arcs":[[-25,-28,-46,-49,49,50]],"type":"Polygon","properties":{"code":"0447","name":"Githabai","constituency_code":"089","county_code":"018"}},{"arcs":[[-50,-48,51]],"type":"Polygon","properties":{"code":"0448","name":"Magumu","constituency_code":"089","county_code":"018"}},{"arcs":[[-7,-43,-37,52,-34]],"type":"Polygon","properties":{"code":"0451","name":"Geta","constituency_code":"090","county_code":"018"}},{"arcs":[[-12,-18,53,54]],"type":"Polygon","properties":{"code":"0453","name":"Karau","constituency_code":"091","county_code":"018"}},{"arcs":[[-4,-14,55]],"type":"Polygon","properties":{"code":"0455","name":"Mirangine","constituency_code":"091","county_code":"018"}},{"arcs":[[-17,56,-39,-42,57,-54]],"type":"Polygon","properties":{"code":"0456","name":"Kaimbaga","constituency_code":"091","county_code":"018"}},{"arcs":[[-6,58,59,60]],"type":"Polygon","properties":{"code":"0458","name":"Gathanji","constituency_code":"092","county_code":"018"}},{"arcs":[[61,62,63,64,-60]],"type":"Polygon","properties":{"code":"0459","name":"Gatimu","constituency_code":"092","county_code":"018"}},{"arcs":[[-1,-61,-65,65,66,-15]],"type":"Polygon","properties":{"code":"0460","name":"Weru","constituency_code":"092","county_code":"018"}},{"arcs":[[-20,67,-63,68]],"type":"Polygon","properties":{"code":"0463","name":"Kiriita","constituency_code":"093","county_code":"018"}},{"arcs":[[[-19,69,70,-66,-64,-68]],[[71,72]]],"type":"MultiPolygon","properties":{"code":"0464","name":"Central","constituency_code":"093","county_code":"018"}},{"arcs":[[-16,-67,-71,73,-73,74,-32,-35,-53,-40,-57]],"type":"Polygon","properties":{"code":"0465","name":"Shamata","constituency_code":"093","county_code":"018"}}]}}}