{"type":"Topology","arcs":[[[2701,1148],[18,-33],[34,0],[62,-61],[36,-95],[22,8],[47,-28],[3,-27]],[[2923,912],[-59,14],[-20,-28]],[[2844,898],[-49,11],[-4,34],[-76,-33],[-43,-1],[-37,-24],[-50,17],[-46,-3],[-7,-26],[-73,35],[-24,-26]],[[2435,882],[-27,-5],[-4,63],[-59,47],[-31,6]],[[2314,993],[-15,30],[0,69],[-23,91],[14,99],[-9,21]],[[2281,1303],[0,36]],[[2281,1339],[65,12],[50,-25],[31,-78],[38,11],[42,-16],[53,35],[47,-15],[40,-78],[54,-37]],[[1731,1770],[42,25],[73,-67],[-54,-7],[26,-101]],[[1818,1620],[-78,-23],[-69,-60],[45,-34],[79,-85],[77,-29],[9,-46],[31,-37]],[[1912,1306],[-21,-33],[-67,-29],[-134,34],[-80,-3],[-41,-15],[-31,10]],[[1538,1270],[27,87],[-77,14],[-24,-42],[-39,-20],[-25,27],[-91,11],[-62,-13],[-31,31],[-92,4],[-61,51],[-26,36],[-97,-10],[-7,37],[-46,59],[0,115]],[[887,1657],[0,24],[318,143],[1,39],[61,11],[44,-26],[59,-3],[43,22],[43,-9],[69,19],[30,-9],[58,-69],[42,1],[76,-30]],[[2314,993],[-27,-22],[-84,9]],[[2203,980],[-22,-5],[-38,80],[-27,19],[-101,-7],[-30,-32],[-65,-34],[-53,17],[-61,3],[-23,34],[-85,-5],[-58,43],[-86,-23],[-89,18],[5,75],[52,101],[16,6]],[[1912,1306],[89,40],[59,8]],[[2060,1354],[25,7],[16,-140],[43,2],[30,-27],[23,57],[0,37],[84,13]],[[3879,3874],[-15,-15],[6,-94],[-39,13],[-53,-62],[-6,-63],[13,-57]],[[3785,3596],[-66,1],[-50,25],[-34,-1],[-67,21],[-31,33],[-19,58],[-113,17],[-13,36],[-85,77],[-40,-15],[-63,-93],[-68,-33],[-74,-8],[-94,62],[-54,-19],[-66,13],[-76,29],[-44,-24],[-47,39],[-50,9],[1,-91],[-49,-206],[-33,-31],[-39,18]],[[2511,3513],[-21,11],[-14,59],[-93,47],[-54,71],[-15,243],[-27,136],[2,44],[72,32],[62,13],[156,103],[12,30],[142,206],[17,62],[52,59],[40,-30],[21,59],[37,22],[-2,-62],[80,-111],[59,-55],[80,-95],[48,120],[72,-64],[-5,-34],[27,-31],[143,-110],[477,-364]],[[280,1427],[-2,94],[-107,162],[-61,79],[45,60],[4,37],[-92,62],[-64,20],[-3,74],[71,70],[-48,104],[-1,66],[35,106],[19,89],[84,171]],[[160,2621],[27,-59],[50,-58],[39,49],[53,26],[46,101],[7,59],[29,27],[101,-22],[56,41],[21,68],[94,72],[44,-3],[22,40],[42,23],[72,13],[32,-18],[68,7],[59,-28],[42,43],[48,13],[18,35],[50,-32],[38,17],[26,53],[70,36],[40,51],[83,37]],[[1437,3212],[31,-100],[-7,-59]],[[1461,3053],[-125,-78],[109,-177],[33,1],[7,-50],[-55,-19],[-80,2],[-34,78],[-43,-8],[-13,-115],[14,-32],[-42,-77],[14,-18],[-61,-74],[-60,-15],[-19,-21],[-83,-8],[-49,-45],[-61,4],[56,-63],[198,-44],[59,30],[41,-5],[63,100],[36,-18],[43,9]],[[1409,2410],[1,-55],[60,-95],[11,-76],[65,-5],[26,-67],[132,-11],[59,1],[41,30],[48,-74],[0,-54],[-20,-17],[-54,-2],[-3,-73]],[[1775,1912],[-29,-16],[-15,-126]],[[887,1657],[0,23],[-607,-253]],[[3819,3231],[20,-42],[13,-80],[33,-30],[9,-125],[28,-30],[36,-74],[-39,-57],[-81,-89],[-71,0],[-69,-51],[-25,-1],[-97,-87],[-63,-40],[-69,3],[-31,-13],[-53,-55],[-55,-20],[-83,11],[-40,-21],[-61,-72],[-11,10],[-56,-91],[-47,-34],[-62,-15],[-41,-59],[-15,-79],[-52,-44]],[[2837,2046],[17,45],[-51,100],[-112,-2],[27,46],[33,96],[45,67],[35,87],[68,69],[-19,70],[-112,175],[124,107],[8,38],[66,47],[15,27],[73,12],[131,53],[33,-15],[48,9],[64,49],[52,63],[65,25],[36,32],[52,13],[91,-24],[55,20],[75,-29],[63,5]],[[160,2621],[61,121],[62,144],[201,427],[-11,65],[44,7],[-185,156],[316,124],[34,47],[227,61],[74,76],[19,-37],[147,53],[210,22],[25,-2],[3,-219],[102,-18],[81,-40],[-15,-75],[28,-30],[11,-71],[40,-67],[-40,-75],[-33,-8],[-56,-68],[-28,15],[-40,-17]],[[1409,2410],[36,-12],[5,-32],[88,-36],[12,-46],[68,-10],[63,15],[75,1],[54,77],[32,11],[54,-10],[47,9],[46,-19],[-2,48],[28,39],[55,4],[36,-18],[-6,-44],[59,-87],[43,-9],[46,-59],[68,-3]],[[2316,2229],[39,-68],[11,-44]],[[2366,2117],[-151,-130],[-76,30],[-126,39],[-13,-87],[-24,-38],[-49,25],[-36,-42],[-37,21],[-32,-24],[-47,1]],[[1461,3053],[82,-248],[87,57],[4,-34],[56,-50],[480,-166]],[[2170,2612],[181,-90],[-67,-172],[95,-60],[-63,-61]],[[3785,3596],[-27,-17],[8,-71],[22,-23],[-45,-37],[-129,-41],[-27,-25],[-138,16],[-118,8],[2,-31],[122,-5],[46,-26]],[[3501,3344],[-130,-40],[-28,-25],[-73,-15],[-44,-53],[-96,-67],[-46,0],[-32,-19],[-99,14],[-56,-10],[-50,28],[-93,3],[-64,-22],[-63,-116],[-32,0],[-86,-52],[0,0],[-3,-4]],[[2506,2966],[-32,72],[18,86],[16,23],[39,207],[-36,159]],[[2837,2046],[-65,-64],[-26,-61],[-31,-13],[-40,32],[-31,-44],[-49,-38],[30,-25],[-23,-82]],[[2602,1751],[-46,-6],[-53,35],[-47,65],[5,38],[-13,80],[-82,154]],[[2170,2612],[19,64],[43,20],[-10,28],[17,56],[33,19],[74,-15],[65,36],[38,56],[39,27],[18,63]],[[3501,3344],[123,-64],[101,20],[58,38],[27,-56],[9,-51]],[[3672,1581],[4,-10],[-28,-32],[2,-64],[-73,-17],[-33,24],[-39,-30],[-2,-146],[-35,-147],[-45,-52],[47,-130],[-16,-47],[-77,-68],[-32,21]],[[3345,883],[-39,41],[-20,54],[-27,20],[2,53],[32,33],[10,60],[-14,36],[-43,-3]],[[3246,1177],[-33,76],[22,24],[28,85],[-26,30]],[[3237,1392],[38,56],[51,27],[29,67],[78,71],[49,58],[10,39]],[[3492,1710],[74,4],[37,28],[36,-20],[-16,-38],[9,-54],[40,-49]],[[3246,1177],[-61,-86],[-75,-37],[-58,-12]],[[3052,1042],[-9,43],[18,94],[-22,19],[14,146],[34,42],[-22,49],[-66,80],[-25,15],[-26,127]],[[2948,1657],[38,18],[56,87],[45,10],[33,-51]],[[3120,1721],[26,-85],[-28,-110],[44,-28],[25,-54],[50,-52]],[[2701,1148],[19,47],[20,97],[-14,48],[-47,88]],[[2679,1428],[37,74]],[[2716,1502],[28,40],[61,-6],[16,26],[71,41],[56,54]],[[3052,1042],[-26,-52],[23,-46],[-87,-99]],[[2962,845],[-39,67]],[[3345,883],[-23,-27],[20,-68],[20,-8],[-24,-183],[-24,1]],[[3314,598],[-64,93],[5,50],[-36,35],[-47,-3],[-87,-42],[-45,10],[-34,59],[-37,1],[-7,44]],[[3120,1721],[35,31],[7,35],[-17,50],[21,27],[105,1],[18,59],[90,26],[30,-27],[-3,-52],[17,-22],[14,-78],[29,-8],[26,-53]],[[2716,1502],[-6,50],[-35,29],[-9,67],[-64,103]],[[3879,3874],[431,-329],[1,-1],[2,-1],[-641,-1962]],[[2058,545],[44,-10],[64,16],[54,-16],[38,22]],[[2258,557],[21,-77]],[[2279,480],[-59,-53],[-58,-9],[-46,-44],[-73,-21],[-87,-54],[-24,9],[-29,-42],[-129,8],[-53,-19],[-21,22],[-96,23],[-36,-12],[-91,92],[-48,-6],[-97,79],[-75,20],[-7,65]],[[1250,538],[69,-56],[60,-22],[37,21],[51,-7],[-6,86],[20,39]],[[1481,599],[45,-36],[61,6],[47,-13],[69,5],[24,-31],[122,-27],[25,32],[80,-6],[27,31],[45,19],[32,-34]],[[1481,599],[-25,14],[-17,73],[91,-9],[42,63],[-5,79],[114,5],[65,44],[58,1],[78,-14],[64,-48],[37,20],[59,-9],[45,-26],[39,23]],[[2126,815],[-2,-29],[-45,-50],[9,-22],[-18,-86],[-18,-36],[6,-47]],[[2435,882],[0,-27],[-59,-119],[11,-44],[-64,-133],[-65,-2]],[[2126,815],[15,63],[45,57],[17,45]],[[1250,538],[-51,20],[-33,-15],[-79,25],[-140,-7],[-60,-21],[-88,36],[-73,-34],[-99,-122],[16,-43],[1,-178],[-15,-59],[-46,41],[-97,159],[-31,76],[4,73],[-126,595],[41,92],[5,60],[-28,77],[-70,36],[-1,78]],[[2803,531],[9,-27],[47,-3],[29,-52],[-1,-28],[71,-81],[9,-49],[28,-25],[-22,-35],[31,-33],[154,-45],[8,-39],[33,-4],[32,-32],[48,-21]],[[3279,57],[-74,-50],[-42,-7],[-120,69],[0,58],[-45,26],[-50,2],[-20,33],[-88,63],[-52,-1],[-24,63],[-40,50],[-93,31],[-50,-1],[-59,44],[-124,0],[-13,59]],[[2385,496],[63,53],[43,22],[86,10]],[[2577,581],[63,-24],[56,-2],[51,-31],[56,7]],[[3314,598],[-6,-48],[39,-50],[-5,-34],[61,-80],[44,-13],[24,-35],[48,-17],[9,-73],[-34,-43],[-30,-140],[-27,5]],[[3437,70],[-27,105],[-62,92],[-19,46],[-42,45],[-47,17],[-63,40],[-5,52],[-29,17],[-107,120],[-49,12],[-8,38],[-69,50],[-62,-28],[4,-46],[-27,-37],[-22,-62]],[[2577,581],[-18,52],[16,51],[57,37],[39,6],[29,-24],[30,16],[39,58],[54,9],[42,46],[-21,66]],[[2385,496],[-56,8],[-50,-24]],[[3437,70],[-63,-4],[-28,-18],[-67,9]],[[2281,1339],[-28,107],[13,62],[35,31],[-63,30],[-31,0]],[[2207,1569],[-26,45],[-29,98],[-41,-25]],[[2111,1687],[-2,50],[65,-4],[73,-27],[8,27],[88,45],[36,-42],[44,12],[41,-84],[1,-69],[30,-23],[0,-67],[22,-58],[37,45],[125,-64]],[[1818,1620],[90,-4],[52,14],[26,-10]],[[1986,1620],[44,-80],[83,14],[52,-12]],[[2165,1542],[-10,-95],[-32,48],[-57,-33],[-6,-108]],[[2111,1687],[-99,-60],[-26,-7]],[[2165,1542],[42,27]]],"transform":{"scale":[0.00016271804293088938,0.00013976160978044664],"translate":[36.606466462470195,-0.6474703718335271]},"objects":{"wards.019.final":{"type":"GeometryCollection","geometries":[{"arcs":[[0,1,2,3,4,5,6]],"type":"Polygon","properties":{"code":"0465","name":"Aguthi-Gaaki","constituency_code":"094","county_code":"019"}},{"arcs":[[7,8,9,10,11]],"type":"Polygon","properties":{"code":"0466","name":"Dedan Kimathi","constituency_code":"094","county_code":"019"}},{"arcs":[[-5,12,13,-10,14,15]],"type":"Polygon","properties":{"code":"0467","name":"Wamagana","constituency_code":"094","county_code":"019"}},{"arcs":[[16,17,18]],"type":"Polygon","properties":{"code":"0468","name":"Gakawa","constituency_code":"095","county_code":"019"}},{"arcs":[[19,20,21,22,23,24,-12,25]],"type":"Polygon","properties":{"code":"0469","name":"Gatarakwa","constituency_code":"095","county_code":"019"}},{"arcs":[[26,27]],"type":"Polygon","properties":{"code":"0470","name":"Kabaru","constituency_code":"095","county_code":"019"}},{"arcs":[[-21,28]],"type":"Polygon","properties":{"code":"0471","name":"Mugunda","constituency_code":"095","county_code":"019"}},{"arcs":[[-24,29,30,31]],"type":"Polygon","properties":{"code":"0472","name":"Mweiga","constituency_code":"095","county_code":"019"}},{"arcs":[[-23,32,33,-30]],"type":"Polygon","properties":{"code":"0473","name":"Mwiyogo/endarasha","constituency_code":"095","county_code":"019"}},{"arcs":[[-18,34,35,36]],"type":"Polygon","properties":{"code":"0474","name":"Naromoru/kiamathaga","constituency_code":"095","county_code":"019"}},{"arcs":[[-28,37,38,-31,-34,39,-36,40]],"type":"Polygon","properties":{"code":"0475","name":"Thegu River","constituency_code":"095","county_code":"019"}},{"arcs":[[41,42,43,44,45]],"type":"Polygon","properties":{"code":"0476","name":"Iriaini","constituency_code":"096","county_code":"019"}},{"arcs":[[-44,46,47,48,49]],"type":"Polygon","properties":{"code":"0477","name":"Karatina Town","constituency_code":"096","county_code":"019"}},{"arcs":[[-1,50,51,52,-48,53,54]],"type":"Polygon","properties":{"code":"0478","name":"Kirimukuyu","constituency_code":"096","county_code":"019"}},{"arcs":[[-43,55,56,-54,-47]],"type":"Polygon","properties":{"code":"0479","name":"Konyu","constituency_code":"096","county_code":"019"}},{"arcs":[[-45,-50,57]],"type":"Polygon","properties":{"code":"0480","name":"Magutu","constituency_code":"096","county_code":"019"}},{"arcs":[[-46,-58,-49,-53,58,-38,-27,-41,-35,-17,59]],"type":"Polygon","properties":{"code":"0481","name":"Ruguru","constituency_code":"096","county_code":"019"}},{"arcs":[[60,61,62,63,64]],"type":"Polygon","properties":{"code":"0482","name":"Chinga","constituency_code":"097","county_code":"019"}},{"arcs":[[-65,65,66]],"type":"Polygon","properties":{"code":"0483","name":"Iria-Ini","constituency_code":"097","county_code":"019"}},{"arcs":[[-4,67,-61,-67,68,-13]],"type":"Polygon","properties":{"code":"0484","name":"Karima","constituency_code":"097","county_code":"019"}},{"arcs":[[-26,-11,-14,-69,-66,-64,69]],"type":"Polygon","properties":{"code":"0485","name":"Mahiga","constituency_code":"097","county_code":"019"}},{"arcs":[[70,71,72,73]],"type":"Polygon","properties":{"code":"0486","name":"Gikondi","constituency_code":"098","county_code":"019"}},{"arcs":[[-2,-55,-57,74,75,-74,76]],"type":"Polygon","properties":{"code":"0487","name":"Mukurwe-Ini Central","constituency_code":"098","county_code":"019"}},{"arcs":[[-3,-77,-73,77,-62,-68]],"type":"Polygon","properties":{"code":"0488","name":"Mukurwe-Ini West","constituency_code":"098","county_code":"019"}},{"arcs":[[-71,-76,78]],"type":"Polygon","properties":{"code":"0489","name":"Rugi","constituency_code":"098","county_code":"019"}},{"arcs":[[-7,79,80,81,-51]],"type":"Polygon","properties":{"code":"0490","name":"Gatitu/muruguru","constituency_code":"099","county_code":"019"}},{"arcs":[[-9,82,83,84,-15]],"type":"Polygon","properties":{"code":"0491","name":"Kamakwa/mukaro","constituency_code":"099","county_code":"019"}},{"arcs":[[-8,-25,-32,-39,-59,-52,-82,85,-83]],"type":"Polygon","properties":{"code":"0492","name":"Kiganjo/mathari","constituency_code":"099","county_code":"019"}},{"arcs":[[-6,-16,-85,86,-80]],"type":"Polygon","properties":{"code":"0493","name":"Ruring'u / Karia","constituency_code":"099","county_code":"019"}},{"arcs":[[-81,-87,-84,-86]],"type":"Polygon","properties":{"code":"0494","name":"Rware","constituency_code":"099","county_code":"019"}}]}}}