{"type":"Topology","arcs":[[[2225,649],[-37,-20],[1,-47],[-38,-6],[-29,38],[-37,-52],[-58,-19],[-36,6],[-52,67],[-63,21],[-121,84],[10,45],[-27,79],[-60,35],[40,52]],[[1718,932],[49,49],[-9,52],[48,21]],[[1806,1054],[-5,-51],[62,-35],[-36,-80],[63,-30],[61,8],[113,-28],[67,5],[51,-141],[60,-31],[-17,-22]],[[1489,886],[-11,-41],[56,-35]],[[1534,810],[-26,-10],[-95,15],[-34,25],[-84,21],[-60,-21],[6,-20],[-46,-43],[-3,-24]],[[1192,753],[-63,39],[19,22],[-64,40],[-20,37],[6,55],[-70,52],[-69,35]],[[931,1033],[11,35]],[[942,1068],[13,24],[81,64],[258,99],[40,-18]],[[1334,1237],[-10,-54],[22,-40],[-5,-55],[21,-46],[7,-64],[106,-56],[14,-36]],[[2398,1436],[45,-37],[67,-4],[14,-32],[86,-16],[15,-73],[72,-76],[-56,-71],[68,-89],[2,-75],[-62,-40],[-5,-60],[-48,-53],[44,-120],[-9,-52],[-22,-10],[46,-76],[-15,-108]],[[2640,444],[-17,20],[-75,29],[-36,-44],[-32,0],[-74,-28],[-3,34],[-52,14],[-87,91],[41,53],[-80,36]],[[1806,1054],[-38,29],[132,136],[6,150],[32,13],[-10,38]],[[1928,1420],[84,-12],[41,-18],[83,-3],[88,63],[54,17],[120,-31]],[[1395,147],[-24,18],[-18,54],[-89,-6],[-53,-23],[-161,-7],[-74,-138],[4,-45],[-3,0],[-12,6],[-26,24],[-3,78],[-18,8],[-26,81],[107,1],[-59,38],[21,24],[-62,49],[-15,84],[-95,78],[-39,157]],[[750,628],[26,74],[-50,54],[-26,51],[-40,29],[55,22]],[[715,858],[53,22],[80,54],[83,99]],[[1192,753],[51,-30],[65,-55],[-3,-39],[63,-130],[72,-54],[-29,-36]],[[1411,409],[3,-32],[37,-75],[63,-57],[-3,-43],[-116,-55]],[[1718,932],[-28,4],[-13,58],[-33,-10],[2,-39],[-30,-36],[-51,-2],[-76,-21]],[[1334,1237],[37,14],[42,74]],[[1413,1325],[48,-5],[126,36],[99,18],[75,-10]],[[1761,1364],[56,-1]],[[1817,1363],[92,27],[19,30]],[[2587,354],[-68,44],[-75,-46],[-28,-5],[-60,28],[-41,-22],[-75,1],[-108,29],[-127,3],[-70,-16],[-100,8],[-57,72],[10,39],[52,60],[-92,44],[-45,-39]],[[1703,554],[-87,32],[1,38],[27,17],[-13,55],[18,32],[-38,41],[-77,41]],[[2640,444],[88,-49],[58,-67],[-28,-12],[-58,20],[-113,18]],[[1703,554],[8,-14],[-114,-83],[-58,-10],[-94,-35],[-34,-3]],[[2587,354],[-59,-19],[-5,-34],[-146,18],[-177,-98],[-126,-4],[-146,-29],[-129,-66],[-100,17],[-5,-50],[-93,-14],[-161,43],[-45,29]],[[1761,1364],[-60,84],[-75,55],[-4,69],[-133,7],[-19,35],[-75,60],[-36,137],[99,91]],[[1458,1902],[14,-23],[57,-11],[40,30],[55,-8],[-21,-62],[30,-50],[42,9],[45,-14]],[[1720,1773],[-22,-84],[49,-41],[40,-102],[7,-57],[57,-51],[2,-40],[-36,-35]],[[2215,2158],[-57,-8],[-15,28],[-92,0],[-28,21],[-5,37],[-51,41],[-66,5],[12,-71],[-51,-25],[-37,2]],[[1825,2188],[-124,21],[-32,-7],[-50,22],[-53,-9],[-44,23],[-88,-48],[-72,15]],[[1362,2205],[-26,7],[-159,5],[-109,-21],[-66,9],[24,-54],[54,-59],[36,-14],[26,-50],[-21,-57],[14,-19]],[[1135,1952],[-54,-8],[-11,-47],[-36,-26],[-68,9],[-95,-10],[-5,-50],[138,-123],[18,-38],[71,-87]],[[1093,1572],[-84,-57],[-14,53],[-43,39],[-46,77],[-33,16]],[[873,1700],[-24,62],[-30,5],[-25,45],[1,59],[-61,27],[-14,56],[18,41],[100,83],[20,39],[-46,72],[-60,-33],[-16,-24],[-64,5],[-39,25],[-71,-7]],[[562,2155],[-89,-24]],[[473,2131],[-5,8],[825,1623],[3,-2],[525,-913],[392,-683],[2,-6]],[[1413,1325],[11,63],[-77,62],[-38,69]],[[1309,1519],[-31,47],[7,41],[-27,77],[-50,53],[-43,12],[11,73],[-11,81],[-30,49]],[[1362,2205],[26,-11],[27,-46],[-18,-55],[27,-47],[34,-144]],[[1825,2188],[8,-32],[-38,-30],[1,-78],[38,-54],[-10,-87],[16,-71]],[[1840,1836],[-54,-6],[-21,-32],[-45,-25]],[[2215,2158],[17,-53],[-28,-84],[41,-16],[5,-105],[-20,-48]],[[2230,1852],[-71,-4],[-28,80],[-102,18],[-41,-55],[-4,-38],[36,-54],[-25,-33],[-119,38],[-36,32]],[[2230,1852],[-18,-52],[51,-82],[-38,-48],[14,-38],[63,-66],[92,-58],[4,-72]],[[89,1544],[41,-36],[2,-52],[45,-35],[-19,-50],[19,-80],[106,2],[37,-8],[13,-48],[35,-64],[54,-37],[61,16],[81,4],[-12,-54],[49,-34],[-4,-85],[54,-49],[13,-41],[51,-35]],[[750,628],[-39,74],[-71,-43],[-87,-90],[-28,50],[-49,31],[-7,42],[-15,33],[-148,-20],[-40,70],[-67,40],[25,27],[-23,43],[38,116],[44,35],[-12,60],[-61,15],[-31,29],[-57,11],[-79,66],[8,28],[-51,41],[7,40],[32,-1],[31,152],[-26,6],[-26,56],[29,22],[42,-17]],[[89,1544],[98,56],[21,39],[-60,108],[57,43],[45,122],[3,121],[50,24],[43,-19]],[[346,2038],[-26,-47],[45,-79],[62,-57],[-42,-32],[-32,-47],[42,-45],[-28,-41],[57,-77],[19,-83],[-34,-37],[3,-42],[31,-76],[49,-1],[42,-42],[12,-36],[76,9],[28,-30],[83,-15],[51,-45],[40,5]],[[824,1220],[57,-20],[61,-132]],[[346,2038],[94,13],[-3,53],[36,27]],[[562,2155],[-18,-51],[6,-86],[33,-57],[20,-111],[21,-59],[-36,-44],[47,-24],[21,-57],[27,-2],[40,-42]],[[723,1622],[0,-114],[66,-29],[54,-44],[-11,-80],[-8,-135]],[[723,1622],[69,-9],[38,36],[44,16],[-1,35]],[[1093,1572],[59,-73],[44,-35],[54,-2],[-1,34],[60,23]]],"transform":{"scale":[0.00012650932985005416,0.00016894371747980935],"translate":[37.14475024386814,-0.7878814378846782]},"objects":{"wards.020.final":{"type":"GeometryCollection","geometries":[{"arcs":[[0,1,2]],"type":"Polygon","properties":{"code":"0495","name":"Gathigiriri","constituency_code":"100","county_code":"020"}},{"arcs":[[3,4,5,6,7,8]],"type":"Polygon","properties":{"code":"0496","name":"Kangai","constituency_code":"100","county_code":"020"}},{"arcs":[[9,10,-3,11,12]],"type":"Polygon","properties":{"code":"0497","name":"Murinduko","constituency_code":"100","county_code":"020"}},{"arcs":[[13,14,15,-6,16,17]],"type":"Polygon","properties":{"code":"0498","name":"Mutithi","constituency_code":"100","county_code":"020"}},{"arcs":[[-2,18,-9,19,20,21,22,-12]],"type":"Polygon","properties":{"code":"0499","name":"Nyangati","constituency_code":"100","county_code":"020"}},{"arcs":[[23,24,-4,-19,-1,-11,25]],"type":"Polygon","properties":{"code":"0500","name":"Tebere","constituency_code":"100","county_code":"020"}},{"arcs":[[-5,-25,26,-17]],"type":"Polygon","properties":{"code":"0501","name":"Thiba","constituency_code":"100","county_code":"020"}},{"arcs":[[27,-18,-27,-24]],"type":"Polygon","properties":{"code":"0502","name":"Wamumu","constituency_code":"100","county_code":"020"}},{"arcs":[[-22,28,29,30]],"type":"Polygon","properties":{"code":"0503","name":"Baragwi","constituency_code":"101","county_code":"020"}},{"arcs":[[31,32,33,34,35,36,37,38]],"type":"Polygon","properties":{"code":"0504","name":"Inoi","constituency_code":"101","county_code":"020"}},{"arcs":[[-21,39,40,-34,41,-29]],"type":"Polygon","properties":{"code":"0505","name":"Kabare","constituency_code":"101","county_code":"020"}},{"arcs":[[-30,-42,-33,42,43]],"type":"Polygon","properties":{"code":"0506","name":"Karumandi","constituency_code":"101","county_code":"020"}},{"arcs":[[44,45,-43,-32]],"type":"Polygon","properties":{"code":"0507","name":"Ngariama","constituency_code":"101","county_code":"020"}},{"arcs":[[-13,-23,-31,-44,-46,46]],"type":"Polygon","properties":{"code":"0508","name":"Njukiine","constituency_code":"101","county_code":"020"}},{"arcs":[[47,-15,48]],"type":"Polygon","properties":{"code":"0509","name":"Kariti","constituency_code":"102","county_code":"020"}},{"arcs":[[49,50,51,-7,-16,-48]],"type":"Polygon","properties":{"code":"0510","name":"Kiine","constituency_code":"102","county_code":"020"}},{"arcs":[[52,-38,53,54,-51]],"type":"Polygon","properties":{"code":"0511","name":"Mukure","constituency_code":"102","county_code":"020"}},{"arcs":[[-8,-52,-55,55,-36,56,-40,-20]],"type":"Polygon","properties":{"code":"0512","name":"Kanyekini","constituency_code":"103","county_code":"020"}},{"arcs":[[-35,-41,-57]],"type":"Polygon","properties":{"code":"0513","name":"Kerugoya","constituency_code":"103","county_code":"020"}},{"arcs":[[-37,-56,-54]],"type":"Polygon","properties":{"code":"0514","name":"Mutira","constituency_code":"103","county_code":"020"}}]}}}