{"type":"Topology","arcs":[[[1843,4043],[-42,-28],[15,-52],[-48,-40],[48,-57],[32,4],[49,-42],[83,1],[29,18],[32,-62],[95,-29],[6,-28]],[[2142,3728],[14,-93]],[[2156,3635],[-47,-34],[-61,25],[-114,88],[-39,-9],[-51,25],[-45,-27],[-43,2],[-82,27],[-134,-39],[-57,-27],[-41,28],[-101,44],[-25,-68]],[[1316,3670],[-57,-7],[-48,-29],[-25,-48],[-59,-11],[-90,19],[-43,-24],[14,-47],[-17,-28],[-77,32],[-25,-45],[-39,-152]],[[850,3330],[70,-26],[18,-30],[-18,-39],[4,-54],[-51,-71],[17,-68]],[[890,3042],[-16,-74],[-43,-115]],[[831,2853],[-35,42],[-45,24],[-54,59],[-41,18],[-77,141],[-47,9],[-47,51],[-7,40],[-54,91],[-55,-11],[-35,12],[-94,82],[-25,167],[17,97],[-5,48]],[[227,3723],[15,67],[-1,197],[-17,48],[102,136],[73,38],[90,-40],[61,24],[142,7],[80,-28],[34,17],[52,-22],[7,-72],[76,-23],[98,-88],[49,6],[93,-101],[36,13],[98,-26],[21,-24],[54,21],[131,-9],[29,46],[25,-9],[88,60],[75,24],[46,49],[59,9]],[[1843,4043],[60,59],[51,27],[57,-10],[13,-65],[126,0],[59,-49],[52,1],[93,-34],[42,-56],[24,-70]],[[2420,3846],[-53,-91],[-63,37],[-26,-56],[-60,-3],[-43,20],[-33,-25]],[[2614,3064],[-22,-28],[14,-85],[-5,-101],[-49,-20]],[[2552,2830],[-92,2],[-43,15],[-28,-33],[-27,32],[-52,6],[-42,30],[-67,-14],[-67,17],[-55,-28]],[[2079,2857],[-109,64],[-63,-22],[-76,4]],[[1831,2903],[-23,167],[8,32],[-59,18],[8,43]],[[1765,3163],[33,-9],[53,17],[72,-26],[26,19],[44,-16],[105,20],[30,-50],[83,-19],[29,28],[72,16],[44,-18],[26,-33],[39,10],[53,-22],[114,8],[26,-24]],[[2552,2830],[16,-107],[61,13],[43,-86],[-11,-37]],[[2661,2613],[-30,1],[-10,-88],[-56,35],[-8,-25],[26,-61],[-65,9],[-77,25],[-54,-21],[-67,71],[-70,-32],[-76,-11]],[[2174,2516],[-59,49],[-48,-15],[-42,26],[-62,8],[-30,-22],[-97,39]],[[1836,2601],[21,154],[-3,43],[102,25],[11,-23],[74,-29],[24,21],[14,65]],[[2614,3064],[98,25],[32,-20],[42,20]],[[2786,3089],[26,-13]],[[2812,3076],[37,-18],[34,-49]],[[2883,3009],[-13,17],[-100,-41],[-27,14],[-81,-50],[-12,-49],[40,-20],[85,2],[21,38],[60,1],[37,16],[87,-10],[0,-63],[75,-38],[27,-69]],[[3082,2757],[-5,1]],[[3077,2758],[-41,-9],[-28,-43]],[[3008,2706],[-35,-8],[-22,-55],[-72,-41],[-40,11],[-88,-33],[-90,33]],[[3710,2459],[-18,-15],[-141,55],[-47,44],[-34,-5],[-48,79],[-47,-2],[-28,-25],[-36,37],[-39,-6],[-10,81],[-36,49],[-62,-19],[-25,19],[-54,1]],[[3085,2752],[36,19],[36,68],[-37,38],[12,49],[133,58],[-50,36],[-59,10]],[[3156,3030],[35,21],[-15,39],[23,57],[38,183],[35,64],[46,-13]],[[3318,3381],[6,-56],[39,-43],[22,-66],[69,121],[56,57],[30,-98],[31,-212],[75,-105],[12,-113],[49,-65],[-16,-34],[46,-51],[-85,-1],[21,-109],[14,-11],[3,-104],[20,-32]],[[3085,2752],[-3,5]],[[2883,3009],[70,66],[73,-13],[43,18],[27,-58],[60,8]],[[1836,2601],[-83,12],[-44,51],[-94,29],[-96,-13],[-24,37],[-40,-9],[-127,56],[-77,113]],[[1251,2877],[-29,105],[-10,70],[38,71],[27,-9],[75,24],[60,-48],[61,39],[52,-16],[26,-46],[65,-3],[21,-28],[79,1],[49,-81],[47,-22],[19,-31]],[[2420,3846],[53,1],[89,-70],[21,-37],[50,-2],[45,-29],[1,-65],[121,-76],[44,8],[75,55],[67,-9],[29,19],[64,5],[28,-5],[18,-59],[-19,-36],[52,-53],[32,-95],[117,28],[11,-45]],[[2812,3076],[2,49],[-50,115],[-118,118],[-68,42],[-86,2],[-18,52],[-48,57],[-41,-1],[-12,46],[-82,33],[-51,-28],[-33,43],[-51,31]],[[2922,1840],[2,-91],[-94,-98]],[[2830,1651],[-40,9],[-64,45],[-68,25],[-34,-12],[-67,15],[-59,62],[-20,39],[-66,45],[-45,-3],[-38,-27],[-92,110],[-68,36]],[[2169,1995],[27,71]],[[2196,2066],[67,31],[51,-45],[33,-9],[91,7],[61,-48],[33,11],[31,-30],[51,5],[14,-70],[37,-4],[33,-53],[47,8],[25,-21],[67,6],[85,-14]],[[2196,2066],[35,117],[-48,40],[-57,6],[14,93]],[[2140,2322],[33,-19]],[[2173,2303],[26,-31],[67,0],[99,-87],[53,2],[8,-56],[50,16],[79,-11],[53,-36],[78,11],[63,61],[84,-35],[73,8],[-4,-57]],[[2902,2088],[8,-97],[18,-74],[-6,-77]],[[2169,1995],[-30,1],[-44,53],[-88,17],[-83,70],[-34,-7],[-50,69],[-72,76],[-53,25]],[[1715,2299],[30,161],[16,19]],[[1761,2479],[83,-59],[43,10],[76,-25],[73,42],[71,2]],[[2107,2449],[41,-70],[-8,-57]],[[831,2853],[-15,-54],[118,-146],[65,-44],[133,-15],[66,-47],[76,13],[16,-41],[101,-36],[87,13],[62,30],[29,-41],[93,14],[69,-24],[30,4]],[[1715,2299],[-37,16]],[[1678,2315],[-89,-29],[-99,16],[-73,45],[-8,25],[-63,29],[-40,-31],[-62,-5],[-43,-76],[-16,40],[-31,7],[-17,-36],[47,-102],[-4,-20]],[[1180,2178],[-63,17],[-60,-29],[-31,43],[-120,52],[-41,32],[-26,88],[-59,47],[-44,95],[-19,-3],[-69,43],[-55,86],[-64,59],[-67,111],[-4,84],[-18,49],[-6,74],[-71,71],[-44,25],[-89,18]],[[230,3140],[-21,38],[-209,283],[7,67],[31,357],[12,146],[32,-84],[98,-178],[47,-46]],[[890,3042],[90,-16],[97,-90],[58,-15],[85,-50],[31,6]],[[2174,2516],[-65,-47],[-2,-20]],[[3411,1011],[-58,-161],[69,-85],[-29,-40],[-72,-60],[-47,-17],[-64,24],[-51,65],[-118,11],[-53,55],[-72,-146],[-68,145],[-1,35],[-47,85],[-81,96],[-27,67]],[[2692,1085],[34,50],[69,62],[34,139],[8,77],[-25,40],[-7,52]],[[2805,1505],[-14,48]],[[2791,1553],[78,45],[57,21],[52,45],[92,33],[79,104]],[[3149,1801],[-6,-103],[13,-57],[27,-31],[42,-132],[71,-46],[13,15],[78,-18],[-11,-50],[-40,-84],[10,-67],[1,-109],[55,-67],[9,-41]],[[3629,1850],[67,-125],[116,-161],[111,-73],[121,-106]],[[4044,1385],[-164,-152],[25,-96],[24,-22]],[[3929,1115],[-143,-61],[-32,-4],[-47,-48],[1,81],[-58,-2],[-14,-81],[-225,11]],[[3149,1801],[15,32],[8,86],[71,10],[60,68]],[[3303,1997],[27,-111],[-9,-41],[20,-59],[59,31],[45,-9],[-8,-106],[40,-68],[29,66],[123,150]],[[3303,1997],[36,41],[23,133],[-50,87],[-37,42],[2,56],[-21,55],[-131,106],[-13,-161],[-19,-50]],[[3093,2306],[-17,61],[8,127],[-13,45],[-34,41],[34,83],[17,13],[-11,82]],[[3710,2459],[10,-8],[-31,-60],[-3,-115],[-22,-242],[-156,-3],[-44,-112],[92,-48],[14,-22],[59,1]],[[2902,2088],[93,-89],[73,-8],[41,116],[6,154],[-22,45]],[[2791,1553],[-1,30],[40,68]],[[2173,2303],[110,17],[73,-3],[17,21],[70,-29],[45,17],[-1,-54],[69,19],[121,59],[133,54],[74,19],[47,90],[66,74],[13,43],[-2,76]],[[2449,1170],[-180,-143],[-61,78]],[[2208,1105],[-74,88],[-29,69],[-65,101],[-40,97]],[[2000,1460],[33,14],[23,62],[31,-25]],[[2087,1511],[10,-29],[88,-66],[65,-85],[68,-30],[30,-44],[71,-47],[30,-40]],[[2087,1511],[55,86],[55,-12],[42,-40],[12,94]],[[2251,1639],[90,-81],[49,-69],[120,-84],[56,-96],[43,-108],[83,-116]],[[2692,1085],[-53,-86]],[[2639,999],[-58,35],[-32,49],[-33,16],[-67,71]],[[2251,1639],[-20,12],[-82,116],[-21,54],[-42,47],[-60,26],[-27,33]],[[1999,1927],[42,47],[26,-19],[100,-17],[136,-109],[9,-51],[-28,-60],[56,-71],[32,-20],[65,-81],[99,-16],[27,-28],[118,-41],[17,-20],[104,21],[3,43]],[[1999,1927],[-23,33],[-27,-48],[-51,46],[-28,-26]],[[1870,1932],[-67,113],[-9,88],[8,48],[-55,77],[-69,57]],[[2000,1460],[-40,57],[-94,20],[-54,45],[-7,30],[-99,62]],[[1706,1674],[2,69],[81,88],[74,42],[7,59]],[[1706,1674],[-70,44]],[[1636,1718],[-22,22],[-8,76],[-58,83],[-41,122],[-38,-7],[-24,53],[-28,-32],[-70,39],[-29,77],[-62,-3],[-76,30]],[[4566,373],[-92,188],[-184,-140],[-44,33],[-22,115],[4,47],[-63,6],[-70,-77],[-44,91],[-19,68],[-37,45],[-20,76],[11,77],[-19,40],[3,80],[-41,93]],[[4044,1385],[-12,-25],[45,-64],[30,-172],[34,-50],[52,-19],[16,26],[63,-104],[-60,-46],[32,-81],[68,-9],[273,-194],[82,-150],[12,-25],[-113,-99]],[[4566,373],[-95,-86],[-156,-287],[0,0],[-28,31],[-63,-5],[-59,98],[-28,-19],[-54,28],[-69,111],[-25,-21],[-71,100],[-39,37],[-121,181],[-26,17],[-30,59],[-90,-34],[-30,-26],[-41,5],[-44,50],[-36,-44],[-67,-54],[-5,-28],[-57,-9],[-43,-43],[-42,-20],[-94,72],[-18,-85],[-75,-35],[-45,-35],[-67,31],[-51,-7],[-23,16],[-67,-29],[-34,86],[-92,58],[-18,-23],[-36,30],[-54,10],[-36,5],[-68,73]],[[2469,581],[23,36],[51,160],[-13,64],[85,138],[24,20]],[[2469,581],[-42,-85],[-65,-11],[-61,15],[-47,27],[-59,130],[-35,18],[-73,87],[-96,81],[-55,79],[-98,38],[-41,72],[-27,75],[-46,39]],[[1724,1146],[-13,77],[60,-25],[26,-48],[45,49],[69,-65],[56,16],[4,24]],[[1971,1174],[64,-38],[7,-47],[74,-74],[42,-23],[11,55],[39,58]],[[1971,1174],[-29,41],[-63,18],[-18,42],[-115,97],[-27,64],[-60,54],[-39,55],[-59,45]],[[1561,1590],[42,95],[33,33]],[[1724,1146],[-198,157],[-53,135],[-91,21],[-52,121]],[[1330,1580],[-43,67],[6,79],[58,87],[104,-80],[24,-33],[45,-20],[37,-90]],[[1330,1580],[-86,55],[-24,-19],[-38,32],[-13,38],[-60,4],[-83,72],[-28,-4],[-73,93],[-26,2],[-34,48],[-136,93],[-26,36],[-83,62],[-126,-5],[-29,43],[-26,73],[-61,57],[-36,1],[-29,40],[13,102],[-16,53],[39,52],[8,55],[-48,79],[-24,113],[-5,112],[-19,70],[-1,89],[-30,114]],[[850,3330],[89,9],[52,-11],[39,16],[11,-44],[37,-4],[57,39],[64,-27],[47,8],[25,-20],[113,21],[34,19],[78,-10],[58,55],[71,-7]],[[1625,3374],[24,-64],[29,-33],[-13,-76],[40,-50],[60,12]],[[1625,3374],[124,64]],[[1749,3438],[70,-47],[104,5],[85,40],[12,36],[59,-4],[63,-102],[70,-30],[107,26],[75,-41],[145,-29],[31,-37],[52,-12],[78,-49],[16,-43],[68,-37],[2,-25]],[[1316,3670],[52,-11],[13,-35],[136,-58],[48,6],[39,-29],[96,7],[52,-54],[-3,-58]]],"transform":{"scale":[0.00016018703568628607,0.0001256422386244786],"translate":[36.67249329975203,-1.0957778956583764]},"objects":{"wards.021.final":{"type":"GeometryCollection","geometries":[{"arcs":[[0,1,2,3,4,5,6,7]],"type":"Polygon","properties":{"code":"0520","name":"Kiru","constituency_code":"105","county_code":"021"}},{"arcs":[[8,9,-1]],"type":"Polygon","properties":{"code":"0521","name":"Kamacharia","constituency_code":"105","county_code":"021"}},{"arcs":[[10,11,12,13,14]],"type":"Polygon","properties":{"code":"0522","name":"Wangu","constituency_code":"106","county_code":"021"}},{"arcs":[[-12,15,16,17,18]],"type":"Polygon","properties":{"code":"0523","name":"Mugoiri","constituency_code":"106","county_code":"021"}},{"arcs":[[[-11,19,20,21,22,23,24,25,-16]],[[26,27,28,29]]],"type":"MultiPolygon","properties":{"code":"0524","name":"Mbiri","constituency_code":"106","county_code":"021"}},{"arcs":[[-28,30,-23,31]],"type":"Polygon","properties":{"code":"0525","name":"Township","constituency_code":"106","county_code":"021"}},{"arcs":[[-13,-19,32,33]],"type":"Polygon","properties":{"code":"0526","name":"Murarandia","constituency_code":"106","county_code":"021"}},{"arcs":[[34,-29,-32,-22,35,-2,-10]],"type":"Polygon","properties":{"code":"0527","name":"Gaturi","constituency_code":"106","county_code":"021"}},{"arcs":[[36,37,38,39]],"type":"Polygon","properties":{"code":"0528","name":"Kahumbu","constituency_code":"107","county_code":"021"}},{"arcs":[[-40,40,41,42,43]],"type":"Polygon","properties":{"code":"0529","name":"Muthithi","constituency_code":"107","county_code":"021"}},{"arcs":[[-39,44,45,46,47,-41]],"type":"Polygon","properties":{"code":"0530","name":"Kigumo","constituency_code":"107","county_code":"021"}},{"arcs":[[-7,48,-46,49,50,51,52]],"type":"Polygon","properties":{"code":"0531","name":"Kangari","constituency_code":"107","county_code":"021"}},{"arcs":[[-6,53,-33,-18,54,-47,-49]],"type":"Polygon","properties":{"code":"0532","name":"Kinyona","constituency_code":"107","county_code":"021"}},{"arcs":[[55,56,57,58,59]],"type":"Polygon","properties":{"code":"0533","name":"Kimorori/wempa","constituency_code":"108","county_code":"021"}},{"arcs":[[60,61,62,-60,63,64]],"type":"Polygon","properties":{"code":"0534","name":"Makuyu","constituency_code":"108","county_code":"021"}},{"arcs":[[-65,65,66,-24,-31,-27,67]],"type":"Polygon","properties":{"code":"0535","name":"Kambiti","constituency_code":"108","county_code":"021"}},{"arcs":[[-37,-44,68,-66,-64,-59,69]],"type":"Polygon","properties":{"code":"0536","name":"Kamahuha","constituency_code":"108","county_code":"021"}},{"arcs":[[-25,-67,-69,-43,70]],"type":"Polygon","properties":{"code":"0537","name":"Ichagaki","constituency_code":"108","county_code":"021"}},{"arcs":[[-17,-26,-71,-42,-48,-55]],"type":"Polygon","properties":{"code":"0538","name":"Nginda","constituency_code":"108","county_code":"021"}},{"arcs":[[71,72,73,74]],"type":"Polygon","properties":{"code":"0539","name":"Ng'araria","constituency_code":"109","county_code":"021"}},{"arcs":[[-75,75,76,77,78]],"type":"Polygon","properties":{"code":"0540","name":"Muruka","constituency_code":"109","county_code":"021"}},{"arcs":[[-57,-77,79,80]],"type":"Polygon","properties":{"code":"0541","name":"Kagundu-Ini","constituency_code":"109","county_code":"021"}},{"arcs":[[-38,-70,-58,-81,81,82,-50,-45]],"type":"Polygon","properties":{"code":"0542","name":"Gaichanjiru","constituency_code":"109","county_code":"021"}},{"arcs":[[-74,83,84,-82,-80,-76]],"type":"Polygon","properties":{"code":"0543","name":"Ithiru","constituency_code":"109","county_code":"021"}},{"arcs":[[-51,-83,-85,85,86]],"type":"Polygon","properties":{"code":"0544","name":"Ruchu","constituency_code":"109","county_code":"021"}},{"arcs":[[87,-62,88]],"type":"Polygon","properties":{"code":"0545","name":"Ithanga","constituency_code":"110","county_code":"021"}},{"arcs":[[89,90,-78,-56,-63,-88]],"type":"Polygon","properties":{"code":"0546","name":"Kakuzi/mitubiri","constituency_code":"110","county_code":"021"}},{"arcs":[[-72,-79,-91,91,92,93]],"type":"Polygon","properties":{"code":"0547","name":"Mugumo-Ini","constituency_code":"110","county_code":"021"}},{"arcs":[[-73,-94,94,95,-86,-84]],"type":"Polygon","properties":{"code":"0548","name":"Kihumbu-Ini","constituency_code":"110","county_code":"021"}},{"arcs":[[-93,96,97,-95]],"type":"Polygon","properties":{"code":"0549","name":"Gatanga","constituency_code":"110","county_code":"021"}},{"arcs":[[-52,-87,-96,-98,98]],"type":"Polygon","properties":{"code":"0550","name":"Kariara","constituency_code":"110","county_code":"021"}},{"arcs":[[-5,99,100,-14,-34,-54]],"type":"Polygon","properties":{"code":"0516","name":"Kanyenya-Ini","constituency_code":"104","county_code":"021"}},{"arcs":[[-15,-101,101,102,-20]],"type":"Polygon","properties":{"code":"0517","name":"Muguru","constituency_code":"104","county_code":"021"}},{"arcs":[[-4,103,-102,-100]],"type":"Polygon","properties":{"code":"0518","name":"Rwathia","constituency_code":"104","county_code":"021"}},{"arcs":[[-3,-36,-21,-103,-104]],"type":"Polygon","properties":{"code":"0519","name":"Gitugi","constituency_code":"105","county_code":"021"}}]}}}