{"type":"Topology","arcs":[[[2432,2311],[80,-121],[30,-9],[-6,-97],[78,-84],[22,-41]],[[2636,1959],[-40,8],[-61,-50]],[[2535,1917],[-84,60],[-142,71],[-56,19],[-40,64],[-57,41],[-21,32]],[[2135,2204],[25,53],[42,-34],[19,57],[-20,46],[122,30],[80,-48],[29,3]],[[2135,2204],[-73,39],[-38,59],[-32,13],[-104,133],[-7,22],[-62,52],[-26,38],[-39,7]],[[1754,2567],[-92,47],[-47,55],[-48,-5],[-44,47],[-51,16]],[[1472,2727],[51,52],[42,84],[-53,100],[7,43]],[[1519,3006],[17,6]],[[1536,3012],[83,-131],[110,-30],[33,-30],[48,-112],[83,-33],[36,-32],[26,10],[37,-59],[39,5],[39,42],[34,9],[79,-75]],[[2183,2576],[33,-72],[18,-1],[135,-127],[67,-43],[-4,-22]],[[1536,3012],[35,36],[16,46],[69,-54],[70,44],[44,-34],[77,-23],[14,-17],[103,-37],[62,-9],[103,-119],[53,-14],[69,-49],[25,-39],[43,-30],[68,-20],[105,-127],[43,-20]],[[2535,2546],[-15,-38],[-47,62],[-122,61],[-30,55],[-41,-66],[-43,26],[-54,-70]],[[2535,2546],[23,42]],[[2558,2588],[60,-33],[32,-64],[22,-95],[43,-5],[94,-116],[9,-39],[41,-52]],[[2859,2184],[0,-1]],[[2859,2183],[-60,-108],[78,0],[24,-34],[-76,-136]],[[2825,1905],[-55,32],[-79,-38],[-55,60]],[[2657,2911],[198,-150],[47,-37],[26,-72],[41,-68],[98,-36]],[[3067,2548],[-43,-73]],[[3024,2475],[-56,61],[-56,0],[-9,-25],[-47,2],[-43,-63],[-72,46],[-52,74],[3,95],[-19,58],[-75,35]],[[2598,2758],[59,153]],[[2597,2759],[-15,-89],[-32,-41]],[[2550,2629],[-33,34],[-118,174],[-31,0]],[[2368,2837],[46,96],[64,-24],[69,-60],[13,-49],[37,-41]],[[1595,3700],[29,-41],[125,5],[84,-59],[26,-34]],[[1859,3571],[-37,-32],[-4,-92],[77,-112],[39,-46],[40,1],[62,-36],[-23,-43],[32,-46],[-26,-43],[61,-51],[29,-1],[47,-68],[135,-107],[11,-25],[66,-33]],[[2550,2629],[8,-41]],[[1519,3006],[-54,7],[-57,53],[-52,-6],[-43,26],[-12,55],[-68,-8],[-65,36],[-33,3],[-54,91],[8,40],[-30,41],[-49,229],[52,178],[13,24],[55,10],[41,-17],[46,110],[40,-53],[25,24],[68,-23],[22,-45],[70,-63],[65,-5],[39,-31],[49,18]],[[2598,2758],[-1,1]],[[1859,3571],[136,-89],[34,-46],[26,-2],[74,-89],[27,4],[84,-69],[60,-3],[12,-37],[38,-30],[24,18],[87,-52],[51,-116],[92,-20],[53,-129]],[[3024,2475],[45,-44],[-42,-76]],[[3027,2355],[-55,-105],[-55,41],[-58,-107]],[[2859,2183],[138,-50],[45,-90],[65,-66],[36,-63],[68,-29],[40,-31],[62,-78],[93,-50]],[[3406,1726],[-139,-151],[-34,-87],[-80,-74]],[[3153,1414],[-17,72],[-48,64],[1,33],[-48,139],[-117,73],[-99,108],[0,1],[0,1]],[[4322,1563],[-44,-53],[22,-97],[50,-76],[-25,-45],[15,-27],[-30,-81],[5,-70],[-52,-56],[-47,-106],[-63,-58],[4,-19]],[[4157,875],[-82,-16],[-36,25],[-20,-39],[-29,-4],[-39,59],[-32,-20],[-42,92],[-73,14],[-66,92],[-48,28]],[[3690,1106],[-50,43],[-68,27],[-51,-16],[-68,54],[-42,6],[-61,57],[-24,69],[-52,3],[-37,-19],[-63,14],[-21,69]],[[3153,1413],[0,1]],[[3406,1726],[13,-44],[83,-106],[55,5],[51,-71],[43,-25],[27,15],[55,-80],[27,6]],[[3760,1426],[36,-12],[30,27],[55,-32],[43,5],[40,-41],[65,-17],[43,33],[33,-22],[56,27],[64,49],[9,43],[42,50],[46,27]],[[3153,1413],[-82,-8],[-54,-20],[-64,-92]],[[2953,1293],[-53,51]],[[2900,1344],[-64,102],[-32,81],[-101,60],[-46,44],[-43,-18],[-63,26],[-50,5],[-42,33]],[[2459,1677],[-47,31]],[[2412,1708],[123,209]],[[3690,1106],[-106,-29],[-59,14],[-50,-36],[-64,11],[-87,-24],[-87,27],[-98,75],[-5,44],[-82,60],[-37,-3],[-58,26],[-4,22]],[[3027,2355],[71,-48],[35,-104],[129,-83],[91,-80],[66,-1],[52,-22],[51,-102],[65,-16],[39,-34],[54,-22]],[[3680,1843],[38,-41],[63,-108],[54,-28]],[[3835,1666],[-78,-228],[3,-12]],[[3835,1666],[55,7],[77,-41],[57,-57],[21,1],[-30,122],[142,-42],[-10,50],[71,-17],[75,117],[-56,116],[0,0]],[[4237,1922],[-45,94]],[[4192,2016],[75,33],[19,82],[93,-69],[42,19],[43,42],[58,8],[5,27],[67,51],[36,42],[43,-47],[42,-5]],[[4715,2199],[8,-84],[-18,-107],[-45,-85],[22,-56],[41,-41],[-8,-36]],[[4715,1790],[0,0],[-80,23],[-62,-26],[-68,-7],[-71,-84],[-61,-43],[-19,-73],[-32,-17]],[[3704,2147],[55,-10],[36,-28],[18,22],[92,-56],[34,-81],[67,27],[23,-15],[51,6],[67,-29],[45,33]],[[4237,1922],[-162,23],[-126,-2],[-112,48],[-69,11],[-45,-30]],[[3723,1972],[-29,28],[21,41],[-44,43],[33,63]],[[3680,1843],[43,129]],[[4715,2199],[30,25],[90,32],[30,-57],[27,-16],[120,-172],[39,-36],[71,-95],[25,20],[70,-106],[53,-27],[28,19],[60,-94],[62,5],[29,-30],[-126,-178],[-11,34],[-88,98],[-9,23],[-63,45],[-13,37],[-96,112],[-56,9],[-43,33],[-75,-10],[-49,13],[-83,-101],[-22,8]],[[3067,2548],[55,-76],[96,-77],[73,-83],[36,-18],[59,-124],[46,-26],[61,-14],[66,11],[42,81],[68,-70],[35,-5]],[[2953,1293],[-44,-152],[-88,-82]],[[2821,1059],[-24,24]],[[2797,1083],[-16,95],[11,69],[-42,-5],[37,85],[109,-17],[4,34]],[[4157,875],[22,-42],[-24,-57],[-7,-68],[-25,-34],[-54,1],[-37,-57],[-56,3],[-55,-39],[3,-73],[-59,7],[4,-88],[-46,-11],[-16,33],[-82,15],[2,31],[58,25],[-53,98],[-50,-29],[-109,244],[-34,-31],[-27,19],[-52,-43],[-38,-1]],[[3422,778],[-72,20],[-97,-49],[-97,58],[-167,110],[-26,-12]],[[2963,905],[-47,51],[-164,14]],[[2752,970],[69,89]],[[2797,1083],[-72,24],[-48,49],[-96,19],[-38,-9]],[[2543,1166],[-29,28],[-47,1],[-14,36],[63,120],[-17,26],[10,52],[-42,12],[15,41],[-61,33],[-67,6]],[[2354,1521],[34,68],[33,20],[38,68]],[[2766,880],[-47,-25],[-37,26]],[[2682,881],[1,1],[53,66]],[[2736,948],[30,-68]],[[2963,905],[-75,-47],[-46,8]],[[2842,866],[-76,14]],[[2736,948],[16,22]],[[2842,866],[-51,-162]],[[2791,704],[-32,1]],[[2759,705],[-70,114],[-33,25]],[[2656,844],[13,18],[13,19]],[[3422,778],[-88,-106],[-43,-2],[-39,-74],[-30,2],[-72,27],[-23,56],[-45,14],[-94,-45],[-49,13],[-32,-11],[-116,52]],[[2759,705],[-6,-3],[-59,34],[-61,80],[23,28]],[[1562,1995],[-15,-61],[10,-44],[81,-44],[49,15],[13,-48],[-8,-51],[26,-29]],[[1718,1733],[-8,-67],[-35,-122]],[[1675,1544],[-49,37],[-49,-32],[-55,25]],[[1522,1574],[-38,106],[-55,-7],[-31,26],[-49,75],[-41,-13],[-57,10],[-47,25],[-56,-19],[6,61],[-21,49]],[[1133,1887],[38,35],[50,15],[71,93]],[[1292,2030],[33,-5],[15,34],[96,-64],[36,35],[90,-35]],[[1562,1995],[67,24],[49,48],[108,47],[45,-32],[54,-6],[55,-22]],[[1940,2054],[24,3],[27,-41],[68,-66],[17,-42],[-31,-31],[-64,62],[-43,-22],[-5,-55],[25,-72],[123,-113]],[[2081,1677],[-33,-9],[-62,22],[-22,-34],[-77,20],[-54,-4],[-115,61]],[[2081,1677],[22,-26],[82,-20],[58,-44],[41,0]],[[2284,1587],[-24,-81],[-136,65],[-54,-138],[-30,27],[-74,7],[-13,28]],[[1953,1495],[-37,30],[-42,-16],[-168,54],[-31,-19]],[[2412,1708],[-22,35],[-30,-1],[-89,50],[-85,117],[-44,31],[-44,64],[-57,29],[-60,76],[-9,42]],[[1972,2151],[-26,11]],[[1946,2162],[-10,67],[-75,36],[-30,68],[-72,102],[-5,132]],[[2354,1521],[-22,44],[-48,22]],[[1940,2054],[32,97]],[[2335,1108],[110,-54],[75,-56]],[[2520,998],[37,-84],[4,-7],[0,0],[-90,0],[-60,-24],[-87,66],[-10,-51],[-56,-46],[-19,-78],[-50,20],[-56,0],[13,-38],[-233,157]],[[1913,913],[69,35],[-10,24],[-110,70],[-8,31]],[[1854,1073],[48,-1],[27,-29],[67,5],[53,-16],[24,-25],[22,50],[-17,78]],[[2078,1135],[108,-53],[-25,-51],[54,-8],[47,65],[73,20]],[[1854,1073],[-80,67]],[[1774,1140],[-29,21]],[[1745,1161],[137,137],[54,41]],[[1936,1339],[45,-37],[58,-24]],[[2039,1278],[-15,-73],[54,-70]],[[2039,1278],[113,-17],[46,-70],[85,-34],[10,-36],[42,-13]],[[2543,1166],[-61,-95],[32,-59],[6,-14]],[[1936,1339],[-23,35],[40,121]],[[1745,1161],[-127,92],[-24,-48],[-111,-116]],[[1483,1089],[-3,57],[35,65],[-13,33]],[[1502,1244],[38,84],[-52,69],[44,61],[-36,16],[-42,-19],[68,119]],[[1774,1140],[-33,-32],[2,-69],[-39,-49],[-34,-82]],[[1670,908],[-63,28],[-59,48],[-71,93]],[[1477,1077],[6,12]],[[1836,753],[-39,-85],[-50,4],[-85,58],[-8,-16]],[[1654,714],[-34,19]],[[1620,733],[15,36],[-7,55],[100,-30],[89,-11],[19,-30]],[[1913,913],[-48,1],[-28,-89]],[[1837,825],[-17,32],[-103,14],[-47,37]],[[1837,825],[28,-21],[-29,-51]],[[1620,733],[-96,67],[-56,59],[-1,66],[-41,5]],[[1426,930],[-45,41],[96,106]],[[1372,711],[-58,-37],[29,-57],[38,-27],[-1,-58],[54,-5]],[[1434,527],[-40,-33],[-58,32]],[[1336,526],[-67,2],[-39,39],[-96,-37]],[[1134,530],[-46,-5],[1,130]],[[1089,655],[0,18]],[[1089,673],[51,-4],[10,40],[40,22],[40,60],[45,-23],[9,-27],[48,-31],[40,1]],[[1372,711],[3,44]],[[1375,755],[121,-33],[41,-35],[48,-15],[51,5]],[[1636,677],[-1,-3],[-38,-81],[-112,21],[-9,-86],[-23,-1]],[[1453,527],[-19,0]],[[1089,673],[0,50],[-51,123],[-50,-12],[3,99],[-29,70],[31,91]],[[993,1094],[6,-18]],[[999,1076],[3,-51],[80,-72]],[[1082,953],[84,-52],[45,-45],[16,23],[72,-48],[76,-76]],[[1654,714],[-18,-37]],[[1082,953],[16,51],[74,10],[34,37],[37,-64],[46,-55],[77,6],[60,-8]],[[1453,527],[15,-31],[-28,-59],[-8,-54],[-28,30],[-82,16]],[[1322,429],[-11,62],[25,35]],[[837,572],[21,-16],[40,-124],[125,12],[42,30],[-9,-122],[36,-41],[-32,-28],[-35,3],[5,-61],[148,23],[25,-59]],[[1203,189],[-16,-70],[-38,-63],[-29,10],[-28,-66],[-36,85],[-150,39]],[[906,124],[7,30],[-69,82],[4,138],[-63,24],[-3,45],[-25,57],[15,70],[48,36],[17,-34]],[[1134,530],[46,-67],[-34,-32],[134,-83]],[[1280,348],[-46,-107],[-31,-52]],[[837,572],[12,-2],[106,75]],[[955,645],[43,9],[-2,-81],[44,-12],[-3,97],[52,-3]],[[1322,429],[-58,-47],[16,-34]],[[906,124],[-306,71],[-600,145],[136,214],[26,110]],[[162,664],[455,3],[132,34],[33,42],[-1,47],[-44,42],[9,48]],[[746,880],[90,42],[40,-120],[89,34],[8,-80],[-18,-111]],[[746,880],[14,50],[-35,68],[14,66],[64,111],[12,8]],[[815,1183],[24,13],[40,-21],[14,-65],[41,56],[84,-14],[-25,-58]],[[1003,1892],[-36,-125],[15,-91],[-27,-28]],[[955,1648],[-28,24],[-34,-15],[13,-65],[-65,-8],[-27,34],[-47,-3],[-39,23],[-40,172],[-58,2]],[[630,1812],[-3,97]],[[627,1909],[146,-4],[85,11],[96,-35],[49,11]],[[815,1183],[-21,117],[-20,55],[25,15],[-30,114],[-26,6],[-69,145],[-2,33],[-42,144]],[[955,1648],[19,-37],[-25,-52],[-5,-70]],[[944,1489],[10,-73],[-23,-60],[0,-111],[101,-13],[-3,-116],[-30,-40]],[[1502,1244],[-35,2],[-43,42],[-39,-3],[-38,68],[-44,35],[-122,49],[-12,16],[-64,-28],[-105,32],[-37,-5],[-19,37]],[[1003,1892],[22,33],[69,-13],[39,-25]],[[162,664],[97,417],[30,143],[46,205],[141,199],[16,-17],[134,297]],[[626,1908],[1,1]],[[1292,2030],[18,89],[-21,44],[-88,86],[11,74]],[[1212,2323],[33,21]],[[1245,2344],[200,-66],[38,16],[113,-7],[27,-33],[44,-9],[32,100],[61,-3],[29,-41],[118,-127],[39,-12]],[[1212,2323],[-36,-10],[-86,73],[-82,12],[-49,-36],[-17,39],[-43,13],[-13,40],[-78,-35],[19,58],[-20,38],[-106,35],[-52,-52]],[[649,2498],[-23,4],[-27,79],[7,73]],[[606,2654],[20,0],[18,60],[-34,103],[55,34],[37,-91],[41,-6],[-72,120],[-6,46],[82,57],[59,-127],[52,-67],[33,32],[-1,46],[99,81],[108,-16],[53,2],[28,-33],[39,-92],[51,-87],[108,-73]],[[1376,2643],[-56,-53],[-92,-65],[-6,-146],[23,-35]],[[1472,2727],[-96,-84]],[[606,2654],[-49,131],[-42,34],[45,103],[-36,38],[-26,-30],[-101,21],[-2,44],[110,75],[-56,27],[27,42],[80,68],[59,25],[75,199],[-63,110],[-16,158],[210,-27],[-6,24],[328,382],[-93,37],[-61,-11],[-14,26],[43,50],[28,-26],[46,36],[37,31],[85,-33],[93,-112],[69,-102],[66,-110],[30,-38],[35,-1],[62,-55],[26,-70]],[[626,1908],[2,52],[-23,102],[17,135],[28,129],[9,101],[-10,71]]],"transform":{"scale":[0.00016001780568145716,0.0001316029969133082],"translate":[36.491802627626456,-1.3151517968100768]},"objects":{"wards.022.final":{"type":"GeometryCollection","geometries":[{"arcs":[[0,1,2,3]],"type":"Polygon","properties":{"code":"0550","name":"Kiamwangi","constituency_code":"111","county_code":"022"}},{"arcs":[[-4,4,5,6,7,8,9]],"type":"Polygon","properties":{"code":"0551","name":"Kiganjo","constituency_code":"111","county_code":"022"}},{"arcs":[[-9,10,11]],"type":"Polygon","properties":{"code":"0552","name":"Ndarugu","constituency_code":"111","county_code":"022"}},{"arcs":[[-1,-10,-12,12,13,14,15,16]],"type":"Polygon","properties":{"code":"0553","name":"Ngenda","constituency_code":"111","county_code":"022"}},{"arcs":[[[17,18,19,20]],[[21,22,23]]],"type":"MultiPolygon","properties":{"code":"0554","name":"Chania","constituency_code":"112","county_code":"022"}},{"arcs":[[24,25,-23,26,-13,-11,-8,27]],"type":"Polygon","properties":{"code":"0555","name":"Githobokoni","constituency_code":"112","county_code":"022"}},{"arcs":[[-21,28,-24,-26,29]],"type":"Polygon","properties":{"code":"0556","name":"Gituamba","constituency_code":"112","county_code":"022"}},{"arcs":[[-14,-27,-22,-29,-20,30,31]],"type":"Polygon","properties":{"code":"0557","name":"Mang'u","constituency_code":"112","county_code":"022"}},{"arcs":[[-16,32,33,34]],"type":"Polygon","properties":{"code":"0558","name":"Juja","constituency_code":"113","county_code":"022"}},{"arcs":[[35,36,37,38,-34,39,40]],"type":"Polygon","properties":{"code":"0559","name":"Kalimoni","constituency_code":"113","county_code":"022"}},{"arcs":[[-2,-17,-35,-39,41,42,43,44,45]],"type":"Polygon","properties":{"code":"0560","name":"Murera","constituency_code":"113","county_code":"022"}},{"arcs":[[-38,46,-42]],"type":"Polygon","properties":{"code":"0561","name":"Theta","constituency_code":"113","county_code":"022"}},{"arcs":[[-15,-32,47,48,49,-40,-33]],"type":"Polygon","properties":{"code":"0562","name":"Witeithie","constituency_code":"113","county_code":"022"}},{"arcs":[[-41,-50,50,51,52,53,54]],"type":"Polygon","properties":{"code":"0563","name":"Gatuanyaga","constituency_code":"114","county_code":"022"}},{"arcs":[[55,-52,56,57]],"type":"Polygon","properties":{"code":"0564","name":"Hospital","constituency_code":"114","county_code":"022"}},{"arcs":[[-49,58,-57,-51]],"type":"Polygon","properties":{"code":"0565","name":"Kamenu","constituency_code":"114","county_code":"022"}},{"arcs":[[-54,59]],"type":"Polygon","properties":{"code":"0566","name":"Ngoliba","constituency_code":"114","county_code":"022"}},{"arcs":[[-58,-59,-48,-31,-19,60]],"type":"Polygon","properties":{"code":"0567","name":"Thika Township","constituency_code":"114","county_code":"022"}},{"arcs":[[-43,61,62,63]],"type":"Polygon","properties":{"code":"0568","name":"Biashara","constituency_code":"115","county_code":"022"}},{"arcs":[[64,65,66,67,-62,-47,-37]],"type":"Polygon","properties":{"code":"0569","name":"Gatongora","constituency_code":"115","county_code":"022"}},{"arcs":[[-44,-64,68,69,70]],"type":"Polygon","properties":{"code":"0570","name":"Gitothua","constituency_code":"115","county_code":"022"}},{"arcs":[[71,72,73]],"type":"Polygon","properties":{"code":"0571","name":"Kahawa Wendani","constituency_code":"115","county_code":"022"}},{"arcs":[[-67,74,75,-74,76]],"type":"Polygon","properties":{"code":"0572","name":"Kahawa/sukari","constituency_code":"115","county_code":"022"}},{"arcs":[[-72,-76,77,78,79,80]],"type":"Polygon","properties":{"code":"0573","name":"Kiuu","constituency_code":"115","county_code":"022"}},{"arcs":[[-66,81,-78,-75]],"type":"Polygon","properties":{"code":"0574","name":"Mwihoko","constituency_code":"115","county_code":"022"}},{"arcs":[[-80,82]],"type":"Polygon","properties":{"code":"0575","name":"Mwiki","constituency_code":"115","county_code":"022"}},{"arcs":[[83,84,85,86,87,88]],"type":"Polygon","properties":{"code":"0576","name":"Githiga","constituency_code":"116","county_code":"022"}},{"arcs":[[-84,89,90,91]],"type":"Polygon","properties":{"code":"0577","name":"Githunguri","constituency_code":"116","county_code":"022"}},{"arcs":[[-85,-92,92,93,94]],"type":"Polygon","properties":{"code":"0578","name":"Ikinu","constituency_code":"116","county_code":"022"}},{"arcs":[[-3,-46,95,96,97,-5]],"type":"Polygon","properties":{"code":"0579","name":"Komothai","constituency_code":"116","county_code":"022"}},{"arcs":[[-45,-71,98,-93,-91,99,-96]],"type":"Polygon","properties":{"code":"0580","name":"Ngewa","constituency_code":"116","county_code":"022"}},{"arcs":[[100,101,102,103,104]],"type":"Polygon","properties":{"code":"0581","name":"Kiambu Township","constituency_code":"117","county_code":"022"}},{"arcs":[[-104,105,106,107,108,109]],"type":"Polygon","properties":{"code":"0582","name":"Ndumberi","constituency_code":"117","county_code":"022"}},{"arcs":[[-105,-110,110]],"type":"Polygon","properties":{"code":"0583","name":"Riabai","constituency_code":"117","county_code":"022"}},{"arcs":[[-70,111,-101,-111,-109,112,-94,-99]],"type":"Polygon","properties":{"code":"0584","name":"Ting'ang'a","constituency_code":"117","county_code":"022"}},{"arcs":[[-86,-95,-113,-108,113,114,115]],"type":"Polygon","properties":{"code":"0585","name":"Cianda","constituency_code":"118","county_code":"022"}},{"arcs":[[-107,116,117,118,-114]],"type":"Polygon","properties":{"code":"0586","name":"Karuri","constituency_code":"118","county_code":"022"}},{"arcs":[[119,120,121]],"type":"Polygon","properties":{"code":"0587","name":"Kihara","constituency_code":"118","county_code":"022"}},{"arcs":[[-103,122,123,-117,-106]],"type":"Polygon","properties":{"code":"0588","name":"Muchatha","constituency_code":"118","county_code":"022"}},{"arcs":[[-118,-124,124,-122,125,126]],"type":"Polygon","properties":{"code":"0589","name":"Ndenderu","constituency_code":"118","county_code":"022"}},{"arcs":[[127,128,129,130,131,132]],"type":"Polygon","properties":{"code":"0590","name":"Gitaru","constituency_code":"119","county_code":"022"}},{"arcs":[[-128,133,134,135,136]],"type":"Polygon","properties":{"code":"0591","name":"Kabete","constituency_code":"119","county_code":"022"}},{"arcs":[[-133,137,138,139,140,-134]],"type":"Polygon","properties":{"code":"0592","name":"Muguga","constituency_code":"119","county_code":"022"}},{"arcs":[[-121,141,-135,-141,142,-126]],"type":"Polygon","properties":{"code":"0593","name":"Nyadhuna","constituency_code":"119","county_code":"022"}},{"arcs":[[-129,-137,143,144]],"type":"Polygon","properties":{"code":"0594","name":"Uthiru","constituency_code":"119","county_code":"022"}},{"arcs":[[145,146,147]],"type":"Polygon","properties":{"code":"0595","name":"Karai","constituency_code":"120","county_code":"022"}},{"arcs":[[-131,148,149,-146,150,151]],"type":"Polygon","properties":{"code":"0596","name":"Kikuyu","constituency_code":"120","county_code":"022"}},{"arcs":[[-130,-145,152,-149]],"type":"Polygon","properties":{"code":"0597","name":"Kinoo","constituency_code":"120","county_code":"022"}},{"arcs":[[-148,153,154,155,-151]],"type":"Polygon","properties":{"code":"0598","name":"Nachu","constituency_code":"120","county_code":"022"}},{"arcs":[[-132,-152,-156,156,157,-138]],"type":"Polygon","properties":{"code":"0599","name":"Sigona","constituency_code":"120","county_code":"022"}},{"arcs":[[158,159,160,161]],"type":"Polygon","properties":{"code":"0600","name":"Bibirioni","constituency_code":"121","county_code":"022"}},{"arcs":[[-139,-158,162,-160,163,164]],"type":"Polygon","properties":{"code":"0601","name":"Limuru Central","constituency_code":"121","county_code":"022"}},{"arcs":[[-87,-116,165,-164,-159,166]],"type":"Polygon","properties":{"code":"0602","name":"Limuru East","constituency_code":"121","county_code":"022"}},{"arcs":[[-155,167,168,-161,-163,-157]],"type":"Polygon","properties":{"code":"0603","name":"Ndeiya","constituency_code":"121","county_code":"022"}},{"arcs":[[-115,-119,-127,-143,-140,-165,-166]],"type":"Polygon","properties":{"code":"0604","name":"Ngecha Tigoni","constituency_code":"121","county_code":"022"}},{"arcs":[[-89,169,170,171,-97,-100,-90]],"type":"Polygon","properties":{"code":"0605","name":"Kamburu","constituency_code":"122","county_code":"022"}},{"arcs":[[-171,172,173,174,175]],"type":"Polygon","properties":{"code":"0606","name":"Kijabe","constituency_code":"122","county_code":"022"}},{"arcs":[[-28,-7,176,-175,177]],"type":"Polygon","properties":{"code":"0607","name":"Kinale","constituency_code":"122","county_code":"022"}},{"arcs":[[-88,-167,-162,-169,178,-173,-170]],"type":"Polygon","properties":{"code":"0608","name":"Lari/kirenga","constituency_code":"122","county_code":"022"}},{"arcs":[[-6,-98,-172,-176,-177]],"type":"Polygon","properties":{"code":"0609","name":"Nyanduma","constituency_code":"122","county_code":"022"}}]}}}