{"type":"Topology","arcs":[[[8082,17215],[8,-89],[-8,-65],[-7,-150],[21,-153],[-3,-56],[6,-110],[-4,-56],[22,-83],[37,-98],[23,-102],[14,-101],[108,27],[99,49],[10,15],[46,-6],[32,15],[35,43],[82,16],[65,-14],[37,15],[24,-13],[38,3],[59,-9],[35,6],[29,23],[43,-13],[21,16],[1,31],[17,19],[29,-5],[46,45],[69,20],[101,1],[-12,-35],[5,-47],[-9,-50],[-33,-54],[-21,-14],[-6,-37],[25,-13],[-15,-36],[-26,-22],[3,-31],[-19,-19],[-5,-31],[-43,-35],[-16,-53],[4,-36],[-39,-20],[19,-28],[0,-35],[-21,-6],[3,-56],[16,-16],[-5,-29],[7,-103],[-20,-101],[21,-17],[-8,-48],[11,-11],[-11,-64],[23,-80],[-21,-42]],[[9024,15267],[-36,-31],[-106,-146],[-28,-53],[-70,-84],[-26,-24],[-53,-21],[-206,-15],[-37,2],[-113,-7],[-118,5],[-90,-6],[-87,-26],[-50,-5],[-58,-17],[-88,-14],[-47,-30],[-39,-11],[-36,11],[-39,-1],[-82,35],[-33,22],[-32,5],[-24,47],[-35,-2],[-1,28],[97,48],[-16,101],[-54,-5],[-40,42],[4,29],[-35,24],[-44,-3],[-51,-27],[-58,-12],[-72,16],[-42,28],[-67,20],[-48,-2],[-54,20],[-22,23],[-106,32],[-68,59],[-65,28],[-67,11],[-55,33],[-54,-4],[-86,-46],[-10,-18],[-62,-34],[-21,0],[-37,-29],[-32,-4],[-52,-30],[-32,9],[-33,-10],[-44,11],[-60,-18],[-70,-7],[-85,-33],[-50,12],[-77,47],[-14,53],[-36,51],[-2,23],[-29,49]],[[5741,15416],[8,84],[-18,64],[1,56],[10,19],[-28,74],[-17,-4],[-42,54],[-61,37],[-68,78],[-20,63],[10,43],[-29,55],[-64,48],[-9,34],[-25,32],[-7,31],[-20,14],[-14,45],[-1,56],[-21,30],[-12,41],[11,39],[-18,63],[-44,23],[-96,105],[0,100],[26,19],[-7,45],[-48,28],[-17,38],[16,43],[2,83],[-27,51],[4,37],[-35,94],[-8,70],[3,79],[-20,120]],[[5056,17407],[-6,39],[-1,111],[15,46],[-10,76],[40,71],[-4,51],[20,53],[-17,134],[-4,173],[-8,212],[8,80],[-11,0],[-105,359]],[[4973,18812],[278,227]],[[5251,19039],[402,-588],[11,0],[154,-233],[107,-168],[14,-29],[151,-197],[59,-63],[123,-142],[121,-115],[26,-32],[63,-148],[46,-139],[47,-126],[32,-118],[26,-44],[55,106],[42,169],[37,121],[30,121],[33,95],[52,70],[38,36],[105,68],[143,107],[107,57],[183,61],[93,35],[40,-53],[16,-49],[36,-34],[86,-111],[124,-139],[52,-95],[38,-48],[75,-122],[64,-77]],[[9024,15267],[4,-57],[14,-30],[-7,-32],[7,-66],[15,-15],[43,-209],[47,-128]],[[9147,14730],[19,-90],[29,-80],[2,-22],[71,-36],[-5,-20],[31,-36],[-12,-32],[-26,-7],[-22,-55],[-74,-26],[-92,7],[-114,-22],[7,-95],[31,-99],[6,-75],[-19,-62],[-32,-28],[-63,-25],[-60,-69],[-2,-65],[10,-84],[25,-70],[-4,-26],[21,-19],[-7,-46],[22,-37],[20,-78],[14,-11],[-1,-40],[24,-111],[22,-20],[10,-87],[14,-34],[-9,-62],[-15,-28],[11,-26],[-20,-55],[34,-49],[-47,-109],[17,-143],[18,-16],[-10,-65],[-21,-61],[33,-26],[-13,-56],[18,-35],[-13,-31],[1,-55],[11,-39],[42,-9],[161,-8],[66,0],[45,-10]],[[9301,12247],[13,-59],[-12,-27],[22,-36],[-18,-28],[7,-140],[41,-90],[23,-13],[23,-44],[-40,-19],[14,-29],[-22,-64],[-51,4],[-34,-6],[-48,14],[-78,4],[-48,19],[-49,-7],[-71,34],[-50,-3],[-53,-29],[-33,-5],[-67,12],[-39,-26],[-29,13],[-46,-22],[-24,15],[-41,-23],[-54,1],[-91,-30],[-31,-25],[-43,-2],[-24,-28],[-34,3],[-32,-37],[-49,0],[-29,-13],[-29,23],[-84,3],[-42,21],[-27,55],[-43,9]],[[7979,11672],[-46,22],[-60,16],[-10,51],[-31,29],[-39,8]],[[7793,11798],[-19,17],[-7,34],[-44,34],[-9,38],[-61,28],[-24,46],[-32,23],[8,46],[-32,40],[11,39],[-22,19],[9,52],[-27,18],[17,25],[-7,23],[-34,30],[14,39],[-3,48],[-27,17],[-4,38],[28,52],[54,52],[7,22],[72,23],[38,-3],[26,17],[90,6],[55,-5],[46,21],[54,40],[58,30],[-144,82],[-89,67],[-90,54],[-36,-64],[-23,1],[-53,82],[-3,65],[-23,70],[-35,22],[-14,24],[-72,16],[-39,23],[-10,49],[-57,31],[-2,25],[-29,24],[-5,31],[-46,26],[11,36],[-36,40],[16,31],[-22,28],[24,93],[1,37],[22,22],[3,26],[-59,74],[-50,37],[-33,8],[-59,-5],[-35,-17],[-91,-2],[-39,-18],[-30,12],[-38,-15],[-42,4],[-66,-23],[-69,-36],[-65,-17],[-22,2]],[[6579,13652],[-27,34],[-49,27],[-64,47],[-57,103],[-53,23],[-13,34],[-20,12],[-26,51],[-47,21],[-10,17],[-94,60],[-11,23],[-107,43],[-5,24]],[[5996,14171],[-26,19],[-36,60],[-6,46],[-35,39],[-37,4],[-27,28],[-1,21],[-40,8],[-45,81],[-33,115],[27,27],[-11,28],[11,43],[1,103],[17,40],[-16,31],[22,38],[-32,46],[13,32],[-5,30],[29,58],[-10,48],[-24,22],[7,20],[-24,82],[20,24],[-15,83],[21,69]],[[5251,19039],[418,311],[392,291],[509,648],[184,233],[742,26],[587,26],[260,0],[161,-109],[179,-52],[383,-15],[161,-62],[167,-89],[223,-20],[241,-130],[86,-78],[50,-31],[12,-41],[-74,-145],[-25,-78],[-6,-109],[56,-62],[55,-83],[6,-99],[-55,-781],[-23,-298],[0,-120],[16,-20],[139,-33],[99,-69],[77,-103]],[[10271,17947],[-117,-8],[-126,1],[-98,-9],[-169,-3],[-105,8],[-82,-4],[-203,5],[-148,-4],[-46,4],[-116,-10],[-149,-1],[-100,7],[-148,2],[-17,-8],[-147,-3],[-49,-22],[-137,-178],[-92,-135],[-37,-94],[3,-26],[-59,-112],[-44,-116],[-3,-26]],[[9147,14730],[66,30],[66,19],[44,5],[29,-11],[20,-29],[22,-60],[28,-41],[162,68],[46,9],[113,-40],[108,84],[37,69],[24,21],[75,-5],[15,35],[-24,28],[-68,50],[-34,45],[30,21],[54,-5],[15,16],[-54,29],[-52,15],[9,37],[-40,22],[-10,34],[-62,3],[0,13],[42,30],[-32,58],[30,52],[2,58],[18,34],[58,80],[-151,29],[-83,3],[9,80],[38,153],[10,90],[-3,42],[6,102],[-5,137],[21,168],[23,81],[20,92],[27,78],[43,150],[-4,50],[58,30],[46,36],[60,29],[78,18],[141,6],[145,17],[31,0]],[[10394,16895],[10,-39],[29,-39],[44,-27],[27,-40],[11,-47],[7,-117],[35,-26],[41,-15],[22,-27],[-4,-21],[-70,-58],[-25,-40],[70,-66],[-52,-4],[-31,-51],[-12,-58],[15,-11],[43,-80],[-9,-107],[-33,-86],[-37,-54],[-21,-70],[12,-33],[-50,-89],[-20,-109],[-12,-105],[6,-31],[2,-119],[6,-82],[10,-45],[5,-79],[-13,-82],[27,-95],[-11,-36],[-7,-67],[0,-85],[10,-14],[5,-92],[14,-73],[29,-43],[-39,-66],[-115,-162],[-79,-132],[-69,-128],[-93,-133],[14,-70],[-39,-91],[-33,-58],[11,-73],[-2,-145],[32,-57],[20,-18],[-27,-77],[-4,-59],[16,-18],[1,-56],[-19,-67],[3,-40],[-24,-77],[6,-48],[-17,-44],[-3,-52],[-55,-71],[-37,-78],[-7,-61]],[[9908,12652],[-22,-26],[-45,-28],[-133,-33],[-40,-23],[-76,-89],[-36,-56],[-48,-63],[-39,-36],[-9,-28],[-45,-20],[-51,15],[-63,-18]],[[10271,17947],[23,-117],[31,-186],[8,-73],[5,-128],[18,-113],[2,-70],[22,-153],[14,-212]],[[7793,11798],[-42,-16],[-40,11],[-41,-6],[-39,17],[-76,2],[-74,12],[-60,-23],[-39,-2],[-34,35],[-69,86],[-22,35],[-18,105],[-22,43],[-32,41],[-4,58],[-15,29],[-89,8],[-80,-3],[-84,17],[-79,41],[-62,21],[-163,17],[-35,15],[-165,33],[-25,-26],[-26,-59],[-42,-26],[-9,-25],[-26,-14],[-10,-33],[-36,-25],[-53,-72],[-34,0],[-42,-38],[-2,-46],[15,-18],[0,-45],[-20,-43],[7,-50],[-47,-98],[19,-27],[-22,-31],[11,-25],[-16,-27],[27,-28],[-22,-31],[14,-56],[26,-151],[33,-132],[29,-52],[39,-40],[51,-25],[15,-33]],[[6263,11098],[-56,-35],[-97,-17],[-121,-10],[-193,-2],[-43,-9],[-31,11],[-56,-1],[-50,19],[-53,-2],[-77,31],[-40,-6],[-95,70],[-15,46],[-12,87],[0,59],[24,164],[3,150]],[[5351,11653],[-8,97],[4,96],[-11,244],[13,70],[4,171],[-4,75],[41,138],[-96,57],[-148,-8],[-78,-15],[-126,-2],[-119,3],[-36,14],[11,40],[-23,40],[18,30],[101,89],[57,81],[35,34],[52,14]],[[5038,12921],[37,-8],[36,17],[112,24],[144,-3],[48,9],[117,59],[23,5],[156,-23],[84,4],[42,11],[45,33],[119,43],[149,21],[58,5],[65,38],[47,50],[38,26],[58,54],[49,93],[44,51],[46,35],[48,111],[-24,76]],[[5351,11653],[-174,-5],[-42,3],[-135,-11],[-87,3],[-159,-8],[-77,2],[-110,15],[-65,4],[49,62],[-60,51],[33,62],[-11,53],[-42,55],[54,73],[46,35],[27,60],[-50,23],[9,30],[-44,43],[-30,51]],[[4483,12254],[-57,97],[-57,138]],[[4369,12489],[51,20],[43,-4],[48,6],[40,17],[35,30],[42,85],[48,3],[-6,45],[-34,15],[-37,35],[-11,59],[23,35],[-41,42],[215,63],[178,27],[75,-46]],[[4483,12254],[-30,-54],[-135,16],[-121,27],[-41,17],[-74,20],[-192,-28],[-146,-7],[-124,22],[-54,28],[-29,34],[-30,13],[-112,22],[-158,27],[-101,21],[-28,-46],[-104,-62],[-50,-66],[-6,-37],[-72,-19],[-55,-50],[-37,-6],[-60,-35],[-40,-61],[0,-49],[-38,-55],[-61,3],[-77,19]],[[2508,11948],[9,80],[-11,135],[2,54],[28,138],[12,76],[-20,33],[-109,45],[-65,19],[-67,11],[-49,15],[-34,51],[-55,68],[-67,62],[-111,7],[-82,-8],[-94,-29],[-41,-53],[-44,-125],[-17,13],[17,73],[-20,41],[-98,63],[-65,52],[-32,33],[-60,99],[-48,51],[-52,5],[-28,-11],[-18,-28],[-35,39],[-59,-9],[-73,-29],[-136,-35],[-19,5],[-18,34],[123,38],[7,15],[-27,46],[-73,12],[-50,-14],[-43,13],[0,37],[62,29],[54,68],[90,16],[108,2],[51,-7],[26,35],[-8,74],[-46,112],[-19,7],[-126,-4],[-76,-12],[-58,-43],[-78,-4],[-47,9],[-134,-4],[-109,-32],[-34,-1],[-11,24],[3,53],[39,44],[92,34],[24,23],[31,62],[15,70],[35,116],[-12,24],[-111,49],[-53,36],[-36,38],[-67,58],[-114,38],[-11,69],[23,21],[106,22],[41,17]],[[536,14113],[308,0],[85,4],[207,-13],[300,-28],[86,-1],[63,17],[110,11],[130,5]],[[1825,14108],[152,-7],[119,-13],[72,-14],[239,-15],[191,-21],[146,-29],[168,-2],[147,9],[88,1],[122,-12],[80,3],[321,-10],[47,7],[36,-13],[12,-19],[-13,-33],[57,-80],[10,-42],[-3,-98],[11,-48],[42,-41],[118,-64],[78,-65],[112,-51],[98,-55],[105,-51]],[[4380,13345],[-44,-87],[-20,-56],[-55,-118],[-64,-104],[-114,-128],[-42,-40],[-33,-20],[71,-81],[120,-115],[32,-45],[34,-29],[86,-33],[18,0]],[[6263,11098],[39,-45],[5,-28],[-25,-53],[-37,-58],[-29,-32],[-17,-110],[-9,-17],[-4,-54],[-20,-30],[-76,-18],[-28,-19],[-46,-10],[-67,-2],[-80,-29],[-42,-47],[4,-33],[-57,-65]],[[5774,10448],[-159,8],[-198,42],[-53,24],[-97,16],[-115,12],[-103,27],[-115,14],[-148,24],[-106,12],[-165,8],[-139,12],[-149,16],[-144,34],[-50,-14],[-59,-37],[-18,-29],[-71,-27],[-46,-33],[-17,-31],[3,-65],[-26,-62],[-3,-25],[-26,-24],[-10,-51],[-65,-53],[-7,-67],[29,-69],[0,-37],[19,-26],[-17,-21],[0,-48],[-13,-29],[19,-24],[0,-64],[7,-41],[-27,-27]],[[3705,9793],[-71,-10],[-19,-33],[-58,-18],[-14,-14],[-63,-31],[-18,-29],[25,-57],[-20,-26],[-43,-18],[-65,-65],[-41,-49],[-95,-15]],[[3223,9428],[-56,89],[-11,88],[5,186],[-10,82],[-90,68],[-63,114],[-161,51],[-48,-4],[-71,-31],[-37,81],[-34,32],[-44,20],[-58,10],[-30,40],[5,85],[-28,101],[-2,60],[-11,81],[-3,97],[-15,52],[-96,233],[-50,67],[-94,73],[-9,26],[7,163],[70,54],[23,38],[-2,46],[-18,45],[-37,58],[-88,67],[-15,28],[13,29],[35,-21],[96,3],[52,9],[95,69],[50,70],[15,161]],[[536,14113],[10,47],[1,65],[-16,42],[-42,50],[-89,37],[-20,24],[-55,88],[4,31],[67,75],[4,15],[-95,156],[-97,75],[-47,25],[-161,104],[86,64],[239,194],[395,314],[546,440],[206,169],[140,103],[78,70],[134,97],[135,106]],[[1959,16504],[6,-279],[10,-125],[2,-94],[-4,-73],[24,-426],[25,-316],[10,-89],[-2,-124],[101,-1],[-1,-26],[-22,-22],[14,-30],[-9,-22],[18,-41],[-28,-42],[-127,-86],[-42,-40]],[[1934,14668],[-27,-58],[0,-68],[-38,-86],[-6,-54],[-38,-224],[0,-70]],[[4380,13345],[48,84],[57,58],[1,42],[15,15],[6,39],[41,47],[-2,17],[34,26],[29,40],[47,20],[32,66],[-7,14],[16,45],[-6,38],[19,50],[164,28],[120,17],[97,2],[140,21],[56,12],[162,26],[156,36],[177,38],[152,26],[62,19]],[[5056,17407],[-120,-25],[-71,-31],[-12,-36],[-22,-22],[-16,-46],[3,-35],[-16,-35],[-4,-75],[18,-34],[17,-93],[-5,-48],[9,-41],[44,-89],[3,-33],[41,-159],[33,-88],[96,-200],[52,-79],[55,-103],[15,-50],[45,-118],[41,-191],[21,-122],[8,-111],[-10,-103],[-31,-30],[-140,-32],[-158,-26],[-337,-73],[-87,-12],[4,-60],[16,-23],[-7,-61],[-24,-40],[-38,5],[-215,-21],[-61,-17],[-54,-27],[-86,-55],[-113,-59],[-144,-54],[-251,-89],[-159,-41],[-104,-23],[-124,-39],[-119,-22],[-195,-48],[-56,0],[-192,23],[-131,-13],[-50,-20],[-227,58],[-109,16],[-155,11]],[[1959,16504],[170,144],[154,112],[172,142],[76,58],[298,252],[131,100],[113,76],[108,85],[115,80],[471,339],[347,252],[57,44],[308,220],[55,46],[439,358]],[[9908,12652],[22,-45],[-10,-36],[7,-45],[17,-27],[-26,-117],[-10,-78],[6,-73],[13,-51],[21,-34],[45,-51],[119,-42],[66,-49],[37,-42],[59,-39],[48,-22],[11,-26],[-21,-53],[-30,-50],[-40,-44],[0,-47],[51,-17],[35,-42],[22,1]],[[10350,11623],[-12,-21],[-87,-39],[-52,-73],[-57,-6],[-27,8],[-104,-44],[55,-102],[17,-42],[-5,-99],[-80,-104],[-7,-29],[8,-37],[-12,-89],[-76,-2],[-23,-17],[-56,13],[-248,3],[-117,-30],[-42,-22],[-92,-72],[-124,-85],[-53,-60]],[[9156,10674],[-23,13],[-99,39],[-37,2],[-95,40],[-84,22],[-179,19],[-116,40],[-104,54],[-23,28],[-44,20],[-15,21]],[[8337,10972],[-84,99],[-37,25],[-98,95],[-63,67],[-70,125],[-30,84],[10,105],[1,55],[13,45]],[[9667,10092],[-19,-40],[-11,-59],[11,-46],[-29,-136],[-46,-110],[-33,-97],[-68,-179],[-30,-88]],[[9442,9337],[-20,75],[-16,18],[5,50],[-15,69],[-31,26],[-23,66],[-33,-16],[-32,0],[-44,-25],[-60,19],[-74,-5],[-83,-28],[-25,-46],[-4,-27],[-63,-151],[-6,-50],[-32,-36],[-27,-13]],[[8859,9263],[-108,126],[-53,30],[-75,29],[-67,64],[-79,92],[-67,88],[-57,86],[1,34]],[[8354,9812],[32,54],[40,-1],[19,21],[37,4],[51,34],[40,-12],[18,29],[42,-5],[53,17],[62,11],[55,18],[7,-41],[38,-11],[82,-40],[18,-16],[61,10],[2,27],[31,8],[36,27],[29,-14],[97,9],[-7,40],[39,9],[21,27],[57,2],[-2,39],[42,-10],[52,21],[0,27],[84,21],[59,-16],[50,10],[68,-19]],[[10350,11623],[33,-11],[58,30],[34,53],[-5,81],[-17,43],[-53,54],[12,30],[-37,34],[35,21],[45,-13],[33,-41],[30,-125],[9,-89],[0,-67],[17,-46],[-41,-107],[-7,-41],[-28,-95],[-1,-64],[16,-94],[-5,-35],[19,-152],[36,-59],[74,1],[74,-21],[96,-64],[67,-53],[30,-32],[42,-91],[27,-93],[22,-24],[65,-27],[73,-21],[75,-43],[49,-17],[48,1],[84,-24],[80,-5],[35,-29],[78,-18],[33,4],[-5,29],[20,30],[34,-24],[-1,-92],[-7,-43],[-57,-135],[-3,-36],[34,-23],[23,-36],[9,-92],[-13,-93],[14,-17],[-4,-44],[-21,-29],[-37,-6],[-8,-43],[16,-53],[-11,-70],[-21,-38],[-2,-63],[-33,-31]],[[11512,9465],[-28,38],[4,36],[-16,16],[-47,19],[-40,36],[-25,77],[-14,13],[5,170],[-8,18],[-40,28],[-37,-8],[-66,4],[-48,28],[-43,5],[-37,-11],[-67,4],[-106,-42],[-74,4],[-64,36],[-81,2],[-80,21],[-97,-45],[-128,26],[13,52],[-9,29],[-35,18],[-65,15],[-63,-10],[-61,49],[-89,-19],[-28,10],[1,47],[-19,25],[-49,-7],[-23,-33],[-40,-5],[-10,26],[-39,5]],[[9859,10142],[-13,54],[-43,70],[-41,42],[-85,58],[-63,71],[-43,33],[64,38],[-92,20],[-89,50],[-52,37],[-13,40],[-31,24],[-53,-14],[-46,7],[-36,-10],[-67,12]],[[9667,10092],[49,15],[59,-2],[84,37]],[[11512,9465],[-24,-29],[9,-14],[-17,-72],[76,-17],[-23,-43],[102,-3],[71,-9],[42,7],[33,-9],[65,10],[68,-33],[62,-7],[29,-13],[76,1],[56,-32],[71,15],[10,-73],[31,-62],[16,-66],[65,-69],[53,-24],[47,-1],[117,-61],[145,-51],[50,-4],[25,-11],[21,-31],[81,-68],[26,-42],[0,-30],[51,-97]],[[12946,8527],[-45,23],[-94,23],[-37,-18],[-35,-74],[0,-29],[-29,-91],[-18,-88],[10,-94],[-19,-24],[-58,-6],[-41,-42],[13,-31],[48,-10],[28,-27],[-13,-37],[10,-63],[-27,-115],[-20,-29],[-2,-92],[-15,-154],[-22,-57],[-105,-54],[-187,-20],[-67,-16],[-43,-26],[-26,-37],[-60,-50]],[[12092,7289],[-55,14],[-98,12],[-36,10],[-28,-8],[-72,5],[-39,-5],[-69,-21],[-144,-1],[-88,14],[-61,18],[-137,96],[-124,61],[-9,18],[40,38],[32,81],[-3,74],[-28,67],[16,42],[-8,41],[4,38],[-15,32],[-65,15],[-37,23],[-2,21],[39,39],[15,36],[-12,64],[-27,42],[-21,12],[-51,5],[-20,23],[-46,6],[-26,23],[13,81],[-12,24],[11,62],[-51,24],[-17,39],[-41,28],[-28,62],[-90,61],[-83,48],[-89,-133],[-55,-65],[-81,-53],[-60,-59],[-40,-50],[-175,-157],[-34,-27]],[[10085,8109],[17,83],[-5,32],[37,33],[17,48],[0,89],[-11,115],[15,47],[-55,-33],[-110,-10],[-35,-12],[-68,90],[-71,112],[-29,58],[-12,40],[-57,97],[-12,59],[11,66],[-5,20],[-48,-14],[-29,11],[-68,44],[-51,150],[-21,27],[-28,61],[-25,15]],[[8354,9812],[-15,10],[-27,59],[-7,114],[4,35],[16,15],[0,37],[-15,100],[1,113],[-12,33],[-74,69],[-12,47],[14,44],[36,54],[43,131],[22,123],[16,67],[-7,109]],[[7997,8618],[-46,-89],[-31,-110],[-4,-62],[3,-108],[37,-229],[25,-75],[36,-60],[9,-87],[-34,-52],[-20,-57],[5,-36],[-24,-65],[9,-57]],[[7962,7531],[0,-18],[-81,-79],[-39,-14],[-12,-39],[2,-40],[-53,-9],[-222,-15],[-34,-17],[-19,-50],[34,-23],[-26,-37],[35,-53],[39,-12],[5,-41],[-39,-9],[-5,-30],[12,-49],[-41,-18],[6,-53],[32,-42],[-32,-26]],[[7524,6857],[-38,-3],[-43,-16],[-74,-51],[-55,-66],[-42,-3],[-71,-41],[-38,-43],[-148,-123],[-114,-127]],[[6901,6384],[-18,75],[-16,34],[-83,232],[-13,79],[-28,70],[6,61],[-46,56],[-11,39],[-39,65],[-5,82],[34,161],[4,107],[-2,69],[-25,29],[-118,73],[-96,85],[-75,91],[-108,51],[-80,15],[-41,0],[-26,-69],[-1,-39]],[[6114,7750],[-25,13],[-85,77],[-79,15],[-76,37],[-20,32],[-1,27],[33,116],[71,154]],[[5932,8221],[31,52],[10,34],[-3,65],[-43,53],[-4,29],[101,141],[130,-111]],[[6154,8484],[71,-51],[86,-74],[108,-85],[41,-42],[30,13],[68,56],[67,32],[43,60],[63,46],[29,31],[109,65],[85,32],[106,15],[50,15],[99,41],[27,6],[107,47],[47,28],[56,5],[34,25],[85,39],[13,-30],[62,7],[56,-10],[84,-70],[78,-13],[45,-42],[30,-11],[64,-1]],[[5774,10448],[-39,-61],[-4,-32],[-34,-17],[-129,-227],[-32,-44],[-25,-49],[-81,-83],[98,-36],[65,-14],[142,-11],[22,-19],[19,-76],[59,-144],[11,-83],[17,-53],[124,-126],[50,-87],[33,-77],[90,-139],[29,-17],[41,-64],[98,-122],[94,-146],[-28,-45],[-123,-88],[-73,-69],[-44,-35]],[[5932,8221],[-52,-45],[-104,-71],[-44,-53],[-43,-18],[-169,25],[-210,47],[-32,101],[-23,88],[-19,49],[-51,76],[51,67],[-115,14],[-16,52],[-34,30],[-24,50],[-59,27],[-17,28],[-27,-6],[-32,-35],[-43,30],[-137,81],[-254,140],[-20,37],[-71,35],[-43,5],[-32,15],[-94,82],[-45,64],[4,44],[-66,25],[-25,19],[-31,60],[-9,36],[-31,22],[-30,-7],[-38,13],[-33,44],[-40,5],[1,33],[-18,49],[-75,40],[-58,61],[-18,39],[8,78],[-14,28],[18,32],[-13,36]],[[6114,7750],[-8,-46],[-37,-30],[-21,-40],[-42,-126],[-21,-112],[37,-84],[-14,-68],[-39,-54],[-25,-18],[-51,-6],[-41,8],[-6,-45],[-43,23],[-76,63],[-136,56],[-98,47],[-13,-228],[4,-29],[-27,-163],[-9,-25],[-34,-11],[-50,25],[-41,31],[-125,52],[-87,182],[-36,96],[-104,0],[-37,110],[-39,188],[-24,42],[-76,-10],[-5,-76],[-58,-9],[-95,64],[-43,45],[-68,112],[-42,45],[-106,94],[-35,53],[-41,95],[-64,53],[-11,35],[14,42],[31,130],[-10,124],[-30,119],[-47,112],[-40,36],[-60,-9],[-40,96],[-27,32],[-41,26],[-75,17],[-32,43],[-45,6],[-36,-52],[-118,-1],[-83,14],[-19,14],[-58,134],[-6,27],[-30,21],[-134,42],[-57,26],[-23,65],[-32,160],[-6,115]],[[8859,9263],[-50,-42],[-40,-75],[-36,-24],[-85,-36],[-47,-62],[4,-53],[-49,-72],[-65,-60],[-51,-116],[-48,-54],[-7,-37],[-33,-50],[2,-24],[-126,2],[-72,16],[-106,35],[-53,7]],[[12092,7289],[-50,-30],[-56,-46],[-65,-28],[-104,-65],[-48,-23],[-144,-100],[-89,-34],[-134,-65],[-72,-45],[-116,-102],[-37,-63],[-28,-97],[-6,-73],[15,-58],[43,-103],[3,-136],[5,-32],[35,-32],[96,-59],[50,-46],[23,-66],[-6,-45],[2,-147],[4,-62],[23,-55],[-12,-124],[-43,-80],[-20,-57],[4,-41],[-11,-35],[-34,-57],[4,-49],[12,-20]],[[11336,5214],[-230,-73],[-10,20],[-82,44],[-30,0],[-130,-56],[-45,56],[-56,83],[1,41],[21,62],[4,45],[-12,40],[-57,81],[-5,25],[10,70],[-50,107],[-65,18],[-80,-15],[-109,3],[-120,28],[-40,2],[-107,35],[-177,46],[-70,26],[-54,36],[18,28],[1,47],[-30,39],[-7,27],[8,72],[-16,53],[5,22]],[[9822,6226],[5,30],[36,49],[2,28],[-17,35],[16,36],[61,16],[77,-21],[83,-43],[36,6],[-38,48],[-34,17],[-61,9],[-28,18],[-34,61],[-28,76],[22,70],[24,26],[17,42],[-29,63],[-26,113],[11,28],[-21,94],[4,52],[13,36],[-18,40],[30,22],[-6,33],[20,58],[-7,76],[16,46],[2,68],[-32,33],[9,72],[-22,36],[11,25],[-8,87],[15,30],[44,29],[45,103],[14,9],[29,76],[20,35],[-3,36],[15,30],[-2,50]],[[7524,6857],[23,-17],[39,-59],[-17,-31],[6,-29],[28,-22],[-15,-36],[20,-47],[-17,-36],[68,-72],[23,-34],[13,-51],[-28,-72],[26,-77],[-6,-92],[-65,-38],[1,-29],[-33,-49],[42,-31],[-6,-69],[23,-28],[62,-21],[-51,-37],[-22,-4],[-11,-86],[50,-31],[22,-45],[15,-68],[41,-62],[-1,-48],[27,-65],[33,1],[44,-31],[70,0],[63,-19],[51,-35],[66,-15],[2,-43],[-11,-27],[-41,-38],[22,-72],[-1,-42],[22,-35],[42,-18]],[[8143,5097],[-100,-73],[-35,-20],[-159,-73],[-63,-20],[12,-40],[-6,-30],[3,-70],[31,-31],[-22,-21],[17,-53],[-10,-39],[-37,-60],[11,-32],[-16,-29],[25,-21],[10,-58],[26,-49],[-10,-68],[15,-38]],[[7835,4272],[-354,286],[-37,29],[-41,11],[23,66],[42,27],[-68,132],[-31,116],[-19,48],[-43,66],[-25,68],[-17,173],[-14,50],[-24,41],[-3,83],[14,103],[-18,80],[-12,45],[-86,178],[-30,70],[-43,77],[-43,129],[-22,46],[-34,97],[-49,91]],[[7962,7531],[101,-20],[104,-55],[43,-9],[48,-43],[31,-42],[20,-48],[18,-169],[9,-65],[49,-251],[4,-77],[-4,-59],[-15,-103],[1,-45],[59,-2],[84,10],[33,-11],[20,-63],[1,-38],[24,-85],[81,-90],[43,-40],[34,-66],[4,-46]],[[8754,6114],[-7,-108],[4,-114],[47,-174],[22,-64],[23,-133],[25,-69],[26,-97],[24,-59],[50,-97],[1,-40],[78,-103],[38,-30]],[[9085,5026],[-8,-45],[-20,-18],[-116,-53],[-123,-1],[-39,8],[-59,33],[-124,20],[-120,40],[-206,44],[-42,24],[-85,19]],[[9085,5026],[31,-16],[107,-27],[108,-16],[51,-14],[133,-17],[78,-14],[51,-36],[58,-63],[34,-103],[-4,-67],[-76,-181],[-151,-231],[-122,-195],[-199,-430],[-9,-9]],[[9175,3607],[-78,49],[-28,6],[-24,36],[-93,38],[-20,19],[-67,19],[-45,-1],[-42,18],[-62,3],[-56,51],[-24,8],[-64,-20],[-107,15],[-70,15],[-24,-10],[-63,-2],[-51,6],[-41,22],[-68,-15],[-46,12],[13,27],[-62,52],[-16,46],[-30,13],[-24,81],[13,25],[-9,57],[-36,30],[-72,24],[-44,41]],[[9822,6226],[-47,45],[-106,76],[-47,18],[-44,43],[-69,4],[-59,-11],[-63,-27],[-58,-5],[-92,-32],[-74,-42],[-77,-21],[-93,7],[-119,-88],[-44,-38],[-76,-41]],[[9661,3380],[43,27],[27,-1],[45,-22],[103,-31],[97,-8],[160,12],[98,13],[115,38],[147,84],[117,43],[49,26],[70,70],[245,143],[-32,74],[9,86],[4,137],[-3,53],[12,70],[143,-3],[41,-9],[65,5],[101,-9],[185,14],[99,33],[66,30],[39,30],[90,-71],[22,-31],[43,-16],[60,-2],[62,-26],[44,-33],[51,-16],[59,-45],[8,-46],[-3,-110],[15,-25],[4,-125],[7,-86],[14,-15],[57,-7],[43,-31],[49,-143],[59,-61],[48,6],[95,32],[67,15],[41,16],[68,16],[24,73],[5,49],[-3,63],[25,40],[2,33],[43,60],[4,79],[14,49],[24,36],[-4,27],[26,14],[48,78],[9,35],[47,40],[20,6],[66,-15],[80,41],[45,4],[45,22],[65,12],[17,26],[56,35],[8,23],[-14,49],[58,45],[73,9],[38,39],[40,135],[20,56],[8,43],[-5,57],[17,38],[39,58],[15,36],[2,47],[24,55],[-3,100],[42,33],[37,73],[101,114]],[[13867,5298],[0,-31],[18,-93],[-71,-36],[-7,-40],[-23,-35],[-23,-4],[-12,-41],[19,-31],[-1,-32],[-36,-14],[13,-74],[-21,-43],[-2,-31],[-24,-33],[-15,-43],[28,-10],[7,-172],[-5,-61],[-28,-10],[-43,-62],[-50,-38],[0,-61],[7,-52],[43,-46],[-16,-53],[-35,-1],[24,-91],[59,-12],[5,-15],[-46,-90],[-34,-14],[-21,-54],[35,-27],[-1,-25],[45,4],[-53,-75],[-21,-14],[-67,-107],[-74,-51],[1,-39],[-20,-59],[-26,-37],[-2,-29],[-44,-56],[-7,-86],[-39,-91],[-85,17],[-33,-34],[-47,-104],[-45,-61],[-61,-63],[-71,-151],[-41,-14],[-31,39],[-29,18],[-23,34],[0,45],[-10,68],[21,32],[3,42],[-41,43],[-61,-46],[-4,-60],[-55,-8],[-52,13],[-32,-7],[-32,-22],[-79,-79],[-55,-25],[-16,-60],[-17,-30],[2,-99],[24,-58],[-59,-95],[20,-17],[132,30],[53,-27],[84,-88],[64,-39],[74,4],[92,28],[40,0],[48,-50],[42,-25],[63,-53],[31,-3],[4,-32],[53,14],[69,-9],[22,-48],[34,16],[27,-11],[3,-69],[-17,-40],[-117,-60],[-36,-39],[-65,-37],[-6,-49],[-45,-25],[-53,-57],[-33,6],[-20,-17],[27,-31],[34,-7],[9,-29],[47,-3],[30,-14],[35,21],[48,15],[11,-12],[-4,-47],[38,-56],[36,-35],[9,-71],[-19,-12],[-15,2],[-88,66],[-35,1],[-40,35],[-33,16],[-23,-20],[-48,15],[-11,-35],[-32,-25],[43,-41],[44,-12],[27,5],[53,-61],[8,-22],[-19,-39],[-28,25],[-37,-9],[-60,-46],[12,-43],[-3,-75],[-40,-31],[13,-55],[32,-7],[86,34],[31,24],[69,-32],[48,-8],[15,-16],[-11,-53],[-28,-44],[-8,-62],[29,-26],[24,-70],[-1,-28],[-19,-33],[-6,-89],[24,-42],[-11,-44],[13,-44],[-12,-50],[67,-133],[0,-61],[-27,-61],[-40,-78],[-98,-135],[-74,-62],[-89,-65],[5,-6],[-11,8],[3,34],[-36,35],[9,14],[-1,82],[-20,8],[-2,16],[-102,21],[-7,22],[-64,11],[-24,37],[-12,60],[-21,27],[-125,-12],[-55,54],[-251,265],[-138,140],[-98,113],[-135,133],[-100,106],[-114,-1],[-298,-6],[-262,344],[-169,217],[-95,128],[-111,141],[-104,141],[-55,64],[-68,97],[-141,187],[-399,520],[-272,358],[-7,16]],[[12946,8527],[78,-106],[13,-30],[36,-44],[9,-58],[-3,-44],[32,-64],[29,-37],[76,-35],[1,-27],[-49,-50],[-17,-40],[12,-56],[-10,-78],[16,-35],[3,-38],[27,-46],[56,-60],[52,-12],[53,-1],[1,-33],[55,-56],[63,-73],[88,-46],[16,-14],[50,-147],[31,-25],[-4,-38],[8,-56],[-18,-75],[8,-49],[-22,-65],[-4,-41],[19,-48],[22,-29],[37,-109],[16,-17],[79,-34],[25,-4],[46,36],[39,-4],[53,14],[37,26],[54,-36],[-6,-193],[342,-136],[321,-130],[-9,-71],[7,-50],[-79,-47],[-6,-17],[35,-35],[-5,-40],[-19,-33],[18,-31],[-15,-38],[-36,-9],[-16,-30],[14,-46],[-9,-19],[-82,-14],[-89,-46],[-71,-57],[-89,-35],[-123,-23],[-147,-70],[-31,-35],[-11,-44],[-20,-45],[-71,-56],[5,-94]],[[13867,5299],[-174,-61],[-134,-38],[-70,-10],[-130,7],[-119,26],[-167,31],[-50,3],[-26,-9],[-43,-35],[-44,-3],[-58,10],[-110,1],[-81,-19],[-111,-36],[-81,-13],[-183,-7],[-94,-12],[-131,2],[-173,-15],[-110,-17],[-101,-23],[-60,-4],[-82,24],[-89,37],[-58,32],[-52,44]],[[13867,5299],[0,-1]],[[9661,3380],[-13,20],[-57,11],[-70,35],[-109,22],[-189,115],[-48,24]]],"transform":{"scale":[0.00018582135266084795,0.00022158878774192157],"translate":[33.99007987900055,0.9080108724823098]},"objects":{"wards.023.final":{"type":"GeometryCollection","geometries":[{"arcs":[[0,1,2,3,4,5]],"type":"Polygon","properties":{"code":"0610","name":"Kaaleng/kaikor","constituency_code":"123","county_code":"023"}},{"arcs":[[-2,6,7,8,9,10,11,12]],"type":"Polygon","properties":{"code":"0611","name":"Kaeris","constituency_code":"123","county_code":"023"}},{"arcs":[[-6,13,14]],"type":"Polygon","properties":{"code":"0612","name":"Kibish","constituency_code":"123","county_code":"023"}},{"arcs":[[-8,15,16,17]],"type":"Polygon","properties":{"code":"0613","name":"Lakezone","constituency_code":"123","county_code":"023"}},{"arcs":[[-1,-15,18,-16,-7]],"type":"Polygon","properties":{"code":"0614","name":"Lapur","constituency_code":"123","county_code":"023"}},{"arcs":[[-11,19,20,21,22]],"type":"Polygon","properties":{"code":"0615","name":"Nakalale","constituency_code":"123","county_code":"023"}},{"arcs":[[-22,23,24,25]],"type":"Polygon","properties":{"code":"0616","name":"Kakuma","constituency_code":"124","county_code":"023"}},{"arcs":[[-25,26,27,28,29,30]],"type":"Polygon","properties":{"code":"0617","name":"Kalobeyei","constituency_code":"124","county_code":"023"}},{"arcs":[[-21,31,32,33,34,-27,-24]],"type":"Polygon","properties":{"code":"0618","name":"Letea","constituency_code":"124","county_code":"023"}},{"arcs":[[-29,35,36,37]],"type":"Polygon","properties":{"code":"0619","name":"Lokichoggio","constituency_code":"124","county_code":"023"}},{"arcs":[[-12,-23,-26,-31,38]],"type":"Polygon","properties":{"code":"0620","name":"Lopur","constituency_code":"124","county_code":"023"}},{"arcs":[[-4,39,-37,40]],"type":"Polygon","properties":{"code":"0621","name":"Nanaam","constituency_code":"124","county_code":"023"}},{"arcs":[[-3,-13,-39,-30,-38,-40]],"type":"Polygon","properties":{"code":"0622","name":"Songot","constituency_code":"124","county_code":"023"}},{"arcs":[[-9,-18,41,42,43,44]],"type":"Polygon","properties":{"code":"0623","name":"Kalokol","constituency_code":"125","county_code":"023"}},{"arcs":[[45,46,47,48]],"type":"Polygon","properties":{"code":"0624","name":"Kanamkemer","constituency_code":"125","county_code":"023"}},{"arcs":[[-43,49,50,51]],"type":"Polygon","properties":{"code":"0625","name":"Kang'atotha","constituency_code":"125","county_code":"023"}},{"arcs":[[-46,52,-51,53,54,55,56]],"type":"Polygon","properties":{"code":"0626","name":"Kerio Delta","constituency_code":"125","county_code":"023"}},{"arcs":[[-44,-52,-53,-49,57]],"type":"Polygon","properties":{"code":"0627","name":"Lodwar Township","constituency_code":"125","county_code":"023"}},{"arcs":[[58,59,60,61,62,63,64]],"type":"Polygon","properties":{"code":"0628","name":"Kotaruk/lobei","constituency_code":"126","county_code":"023"}},{"arcs":[[-33,65,-64,66]],"type":"Polygon","properties":{"code":"0629","name":"Loima","constituency_code":"126","county_code":"023"}},{"arcs":[[-34,-67,-63,67]],"type":"Polygon","properties":{"code":"0630","name":"Lokiriama/lorengippi","constituency_code":"126","county_code":"023"}},{"arcs":[[-10,-45,-58,-48,68,-65,-66,-32,-20]],"type":"Polygon","properties":{"code":"0631","name":"Turkwel","constituency_code":"126","county_code":"023"}},{"arcs":[[-56,69,70,71]],"type":"Polygon","properties":{"code":"0632","name":"Kalapata","constituency_code":"127","county_code":"023"}},{"arcs":[[-61,72,73,74]],"type":"Polygon","properties":{"code":"0633","name":"Kaputir","constituency_code":"127","county_code":"023"}},{"arcs":[[-60,75,76,77,-73]],"type":"Polygon","properties":{"code":"0634","name":"Katilu","constituency_code":"127","county_code":"023"}},{"arcs":[[-74,-78,78,79]],"type":"Polygon","properties":{"code":"0635","name":"Lobokat","constituency_code":"127","county_code":"023"}},{"arcs":[[-47,-57,-72,80,-76,-59,-69]],"type":"Polygon","properties":{"code":"0636","name":"Lokichar","constituency_code":"127","county_code":"023"}},{"arcs":[[81,82]],"type":"Polygon","properties":{"code":"0637","name":"Kapedo/napeitom","constituency_code":"128","county_code":"023"}},{"arcs":[[-55,83,84,-70]],"type":"Polygon","properties":{"code":"0638","name":"Katilia","constituency_code":"128","county_code":"023"}},{"arcs":[[-71,-85,85,-82,86,-79,-77,-81]],"type":"Polygon","properties":{"code":"0639","name":"Lokori/kochodin","constituency_code":"128","county_code":"023"}}]}}}