{"type":"Topology","arcs":[[[3630,5858],[48,-14],[43,-35]],[[3721,5809],[14,-46],[-7,-53],[9,-52],[-30,-26],[-36,-56],[-127,-78],[-14,-87],[-28,-82],[-38,-40],[33,-141],[-12,-29],[10,-32],[-22,-32],[16,-68],[24,-50],[47,-27],[26,-38],[4,-39],[69,-122],[99,4],[33,-34],[-49,-41],[-37,-87],[-5,-61],[32,-76]],[[3732,4416],[-155,-47],[-71,-3],[-61,20],[-43,-43],[-66,-34],[-67,-17],[-47,-35],[-96,-4],[-89,-55],[-30,-39],[-37,-11],[-48,43],[-55,0],[-37,42],[-32,60],[-94,-41]],[[2704,4252],[-36,65],[3,15],[-76,28],[-58,-25],[-58,-8],[-76,15],[-72,-2],[-57,-25],[-51,20],[-40,-1]],[[2183,4334],[-6,29],[-28,23],[31,28],[-30,25],[-20,53],[-31,35],[13,55],[-15,47],[-21,15],[7,50]],[[2083,4694],[60,14],[25,35],[28,-2],[32,49],[-20,30],[51,74],[-3,29],[73,126],[3,50],[17,18],[71,14],[29,20],[205,29],[21,23],[3,42],[48,44]],[[2726,5289],[5,32],[69,26],[15,38],[44,29],[68,15],[44,-8],[32,-68],[91,-48],[58,-1],[14,-16],[56,-3],[25,16],[24,89],[2,48],[-25,10],[12,89],[28,53],[60,29],[63,54],[-25,16],[27,39],[2,37],[33,39],[65,8],[16,25],[101,21]],[[2427,2205],[-10,-60],[-50,31],[-68,4],[-90,-7],[-10,-29],[-52,-29],[-46,-2],[9,-56],[-53,3],[-28,-44],[-37,-1]],[[1992,2015],[0,40],[-31,89],[-27,33],[11,39],[-29,38],[40,88],[39,8],[-38,65],[-34,93],[-23,3],[-17,39],[-65,38],[-100,47]],[[1718,2635],[103,35],[41,33],[-10,132],[99,-16],[52,89],[7,37],[43,54],[30,19],[-1,34],[47,32],[6,21]],[[2135,3105],[62,-17],[52,-37],[-4,-24],[37,-68],[-24,-105],[-94,-26],[25,-66],[43,-36],[-27,-54],[-19,-5],[65,-71],[41,-69],[83,-105],[-55,-41],[-39,-93],[85,-58],[61,-25]],[[1992,2015],[-12,-22],[12,-84],[38,-39],[64,-20]],[[2094,1850],[-108,-15],[-84,-12],[-25,-81],[-23,29],[-67,33],[-37,1],[-119,80],[-58,53],[46,62],[-105,90],[-85,118],[-119,19],[-73,-28]],[[1237,2199],[-30,27],[-58,83],[22,74],[38,58],[55,0],[89,-33],[31,-30],[149,-56],[37,7],[23,61],[-20,51],[2,45],[21,23],[-53,83],[18,26],[78,-29],[79,46]],[[2704,4252],[-78,-19],[6,-24],[58,-49],[91,-47],[9,-25],[-45,-69],[-2,-107],[-59,12],[-12,-21],[36,-48],[43,-85]],[[2751,3770],[-20,-19],[-3,-41],[-115,-82],[-54,-28],[-93,5],[-46,-72],[-10,-66],[-104,6],[-99,-55],[-28,26],[-26,-22],[20,-60],[-26,-10],[2,-38],[-29,-109],[13,-40],[2,-60]],[[1237,2199],[-79,-29],[-196,27],[-205,-6],[9,170],[-547,-118],[75,50],[-15,20],[-4,122],[7,49]],[[282,2484],[53,13],[94,1],[27,34],[35,-1],[30,22],[-35,38],[36,34],[44,14],[-10,43],[35,46],[41,13],[66,83],[30,2],[64,58],[14,30],[20,89],[0,42],[52,15],[39,63],[55,9],[1,22],[47,18],[59,146],[-4,24],[120,21],[8,54],[33,18],[89,-15],[51,20],[88,-18],[126,29],[72,49],[80,69],[-8,43],[35,32],[6,34]],[[1775,3678],[81,92],[35,77],[-4,91],[88,60],[22,25],[-11,28],[28,17],[8,32],[43,29],[-1,20],[66,27],[40,41],[2,56],[-30,11],[41,50]],[[2427,2205],[47,31],[75,0],[28,-10],[132,16],[9,19],[74,26]],[[2792,2287],[-19,-26],[-80,-60],[-13,-62],[20,-46],[-5,-32],[13,-46],[-17,-42],[-96,-12],[-26,-19],[4,-70],[-21,-35],[6,-34]],[[2558,1803],[-261,107]],[[2297,1910],[-157,-81],[-46,21]],[[3732,4416],[-58,-100],[28,-103],[25,-49],[22,-96],[-20,-50],[-37,-21],[6,-60],[-57,-37],[4,-24],[-54,-30],[25,-29],[-1,-29]],[[3615,3788],[-79,6],[-65,-50],[-146,-28],[-300,-17],[-39,8],[-115,7],[-79,56],[-41,0]],[[4582,2266],[28,52],[-12,42],[12,33],[3,117],[-33,90],[0,46],[-46,85],[-3,73],[-34,50],[-18,48],[0,122],[-14,68],[74,42],[29,-4],[64,37],[15,92],[-1,84],[45,77],[98,106],[23,47],[66,101]],[[4878,3674],[9,-38],[37,-51],[65,-16],[47,-75],[55,-47],[38,-4],[56,-86],[67,-64],[17,-27],[78,40],[39,-18],[43,-68],[101,-83],[39,-50],[22,-102],[22,-31],[30,12],[101,6]],[[5744,2972],[-25,-32],[25,-22],[-47,-50],[-4,-36],[-44,-64],[18,-35],[-19,-26],[23,-42],[56,-68],[-22,-40],[-152,-22],[-173,-59],[-84,-22],[-7,-15],[-86,-45],[-28,-46],[-32,-11],[-104,19],[-69,51],[-61,2],[-65,-30],[-101,-4],[-161,-109]],[[4496,4977],[79,18],[48,-26],[58,-7],[73,2],[29,11],[81,-18],[124,-17],[74,23],[29,-9],[64,-61],[72,-3],[49,-22],[53,2],[77,-24],[24,-22],[108,-46],[28,-43],[32,-8],[90,-58],[56,-29],[220,-137],[127,-28],[81,-42],[67,-12],[14,-25],[9,-19],[-52,-63],[25,-57],[47,-19],[8,-26],[-62,-11],[4,-37],[35,-45],[-35,-21],[9,-59],[-19,-24],[24,-41],[-47,-54],[-11,-103],[-34,-46],[6,-53],[-33,-10],[-14,-74],[-40,-15],[-25,-58],[-57,-5],[-18,-35],[-51,-57],[-75,-104],[24,-52],[-19,-41],[-47,-19],[-3,-29],[-31,-15],[11,-44],[-20,-15],[15,-41],[-7,-63],[27,-42],[-45,2],[-8,-29]],[[4878,3674],[38,66],[-73,-47],[-18,10],[-44,67],[4,115],[-14,15],[21,37],[-14,37],[-62,60],[22,12],[42,62],[-35,70]],[[4745,4178],[-17,67],[-37,-10],[-21,25],[2,48],[-27,60],[30,70],[-14,77],[-47,17],[-39,87],[-28,1],[-18,46],[-3,90],[14,49],[-35,30],[7,46],[-22,40],[27,37],[-21,19]],[[3721,5809],[412,-343],[50,-49],[84,-28],[42,-36],[10,-70],[-14,-29],[27,-97],[35,-16],[18,-55],[72,-62],[-14,-33],[53,-14]],[[4745,4178],[-13,-33],[-69,-44],[-36,-58],[-4,-43],[-43,-45],[-65,-9],[-72,-67],[-17,-28],[-40,-9],[-30,-65],[-76,-24],[-35,-31],[-36,20],[-37,-27],[-50,-3],[-28,-21],[-107,11],[-36,17],[-27,-23],[-41,33],[-81,8],[-45,29],[-42,-2],[-25,23],[-57,-9],[-18,10]],[[4582,2266],[-40,-28],[-177,-126]],[[4365,2112],[17,74],[-68,88],[-39,83],[-27,13],[4,75],[-69,15],[27,100],[14,72],[42,31],[-28,47],[24,73],[-13,42],[13,63],[-96,11],[-18,37],[47,10],[-21,35],[5,44],[-50,78],[-102,3],[-113,-9]],[[3914,3097],[-4,65],[-20,51],[-64,42],[-27,34],[-41,74],[8,64],[-43,19],[-47,-16],[-10,39],[-49,31]],[[3617,3500],[27,56],[10,53],[-14,124],[-25,55]],[[3027,8089],[-78,-39],[4,-47],[-66,-91],[-16,-51],[-52,-27],[-58,-42],[-114,-48],[-48,27],[-33,-19],[-32,-68],[16,-80],[-3,-42],[26,-70],[-26,-64],[-45,-45],[-59,-41],[18,-43],[-8,-62],[-18,-19],[-1,-44],[-95,-53],[-25,0],[-68,-25],[-12,23],[-20,106],[-28,21],[-95,3],[-54,67],[2,33],[40,49],[16,49],[54,46],[13,64],[-57,53],[-107,80],[-69,61],[-60,11],[-194,-125],[-143,-118],[-34,-34],[-197,-92],[-189,-71]],[[1112,7322],[-131,219],[-46,68],[-89,198],[-49,85],[-40,95],[-56,155],[-73,168],[-22,74],[-3,46],[29,82],[82,91],[118,67],[88,32],[115,9],[34,-9],[146,-63],[48,-37],[57,-31],[39,14],[12,30],[31,196],[-5,35],[16,273],[113,-56],[159,-67],[88,-77],[49,-26],[7,53],[48,-9],[59,7],[30,21],[44,65],[16,81],[-42,102],[24,134],[49,151],[24,48],[44,36],[9,55],[0,47],[31,82],[47,0],[93,-18],[126,-61],[87,-109],[111,-102],[138,-88],[29,-35],[2,-81],[-5,-129],[-39,-193],[6,-99],[45,-77],[12,-48],[55,-67],[-8,-72],[33,-84],[15,-96],[96,-277],[19,-41]],[[2083,4694],[-20,9],[-60,-18],[-63,0],[-33,-14],[-76,-2],[-36,-13],[-219,-3],[-174,-16],[-87,6]],[[1315,4643],[13,131],[22,110],[-1,512],[48,133],[90,269]],[[1487,5798],[60,24],[28,60],[24,18],[63,-17],[29,20],[14,33],[-14,41],[22,30],[60,-20],[46,-66],[30,-17],[107,-8],[73,4]],[[2029,5900],[21,-27],[69,-59],[25,-2],[90,-115],[99,-47],[44,-44],[1,-23],[63,-71],[27,-56],[191,-174],[67,7]],[[3418,7120],[21,-96],[-17,-124],[5,-99],[28,-50],[16,-60],[19,-207],[29,-81],[50,-79],[22,-58],[36,-139],[79,-158],[-49,-32],[-27,-79]],[[2029,5900],[28,75],[28,38],[39,23],[10,74],[18,28],[84,-1],[35,-22],[33,15],[75,-3],[52,-31],[35,20],[39,107],[75,44],[59,56],[31,72],[8,49],[64,71],[17,34],[12,71],[56,128],[36,56],[20,91],[56,34],[1,45],[39,33],[65,1],[68,24],[20,-4],[105,23],[40,35],[96,16],[45,18]],[[3027,8089],[21,-90],[57,-110],[39,-115],[25,-55],[51,-155],[50,-93],[34,-83],[100,-214],[14,-54]],[[1487,5798],[13,43],[-107,115],[-104,120],[-54,80],[12,64],[19,22],[-107,283],[-24,56],[164,152],[12,35],[-101,346],[-80,187],[-18,21]],[[1775,3678],[-65,-35],[-56,2],[-58,31],[-28,25],[-99,22],[-103,50],[-29,27],[-20,46],[-56,38],[-234,118]],[[1027,4002],[68,98],[198,336],[22,207]],[[282,2484],[-3,21],[-122,133],[-85,113],[-69,73],[11,26],[86,28],[1,40],[-73,78],[-28,80],[49,44],[132,68],[92,55],[27,33],[91,1],[84,32],[-1,107],[-7,15],[3,98],[-18,18],[44,141],[162,145],[100,-12],[104,51],[127,80],[38,50]],[[3914,3097],[3,-35],[-28,-59],[6,-184],[-39,20],[-32,-9],[-11,-38],[77,-98],[48,-74],[-17,-64],[21,-51],[-109,-18],[-106,-9],[-96,1],[-229,-15],[-78,0]],[[3324,2464],[-66,47]],[[3258,2511],[-16,61],[-47,42],[-116,81],[-192,117],[-5,42],[132,212],[6,44],[25,-1],[125,76],[-7,61],[32,64],[77,25],[48,39],[204,64],[93,62]],[[3258,2511],[-43,-38],[-27,-58],[-39,3],[-39,22],[-24,-20],[1,-36],[-33,-7],[-56,-34],[-80,-25],[-32,-28],[-94,-3]],[[3324,2464],[28,-15],[33,-42],[21,-49],[40,-131],[65,-43],[40,-3],[21,-37],[120,-35],[51,-41],[51,33],[59,19],[36,-5],[23,-29],[36,-14],[27,-45],[29,-23],[76,-98]],[[4080,1906],[-84,-61]],[[3996,1845],[-203,-139],[-214,-152],[-65,-27]],[[3514,1527],[-135,-51],[-141,58],[-321,128],[-15,1],[-344,140]],[[4365,2112],[-285,-206]],[[4977,89],[13,48],[-14,60],[88,-5],[-13,81],[17,27],[-4,47],[-19,55],[27,55],[-29,43],[14,25],[-26,72],[65,111],[-2,70],[19,55],[1,102],[22,27]],[[5136,962],[111,16],[122,-36],[-12,-71],[-36,-63],[24,-91],[-29,-38],[19,-31],[-7,-37],[-43,-34],[14,-35],[17,-133],[14,-15],[-15,-35],[-55,-23],[10,-93],[-34,-24],[28,-40],[-13,-28],[1,-60],[-101,-19],[-4,-1],[-170,18]],[[4054,705],[18,-43],[90,-25],[-9,-33],[37,-81],[-8,-24],[31,-42],[-25,-32],[-2,-56],[-20,-58]],[[4166,311],[-222,26],[-3,27],[36,137],[-222,34],[-46,-47],[-116,46],[-94,15],[-23,85],[-19,26],[13,28],[79,39],[-53,115],[2,17],[113,20],[5,53],[-67,25],[-229,69]],[[3320,1026],[47,18],[54,1]],[[3421,1045],[23,25],[120,44],[46,6],[40,26],[-7,-61],[31,-16],[3,-87],[-6,-65],[83,-91],[56,-42],[47,-22],[197,-57]],[[4977,89],[-74,-20],[-15,-27],[-165,0],[-39,-10],[-35,-28],[-64,59]],[[4585,63],[67,17],[7,23],[74,18],[28,32],[90,59],[-24,89],[-4,50],[-33,26],[-6,33],[-71,107],[-78,79],[-23,68],[-76,69],[-18,47],[17,95],[14,28]],[[4549,903],[92,18],[66,3],[184,52],[46,-17],[64,5],[98,-9],[37,7]],[[3996,1845],[10,-36],[31,-47],[29,-65],[56,-77],[32,-56],[-8,-51],[6,-50],[-1,-106],[23,-29],[11,-54],[-58,-17],[17,-84],[-7,-66],[14,-35],[35,-33],[52,4],[32,-19],[-7,-28],[56,-19],[-4,-87],[10,-34]],[[4325,856],[-6,-76],[-50,23],[-68,-7],[-68,18],[-23,21],[-44,-19],[-25,-92],[13,-19]],[[3421,1045],[6,61],[48,20],[76,150],[18,2],[47,44],[-18,89],[-24,50],[-60,66]],[[4325,856],[18,33],[92,-4],[46,28],[68,-10]],[[4585,63],[-171,-63],[17,45],[-30,66],[0,56],[-201,-2],[22,48],[22,16],[9,44],[26,25],[-113,13]],[[3320,1026],[-14,6],[-254,136],[-186,65],[-151,220],[-48,8],[-55,4],[-122,174],[-139,168],[-54,103]]],"transform":{"scale":[0.00015999415496769026,0.00018478568237714982],"translate":[34.78484093308976,0.8445578266689961]},"objects":{"wards.024.final":{"type":"GeometryCollection","geometries":[{"arcs":[[0,1,2,3,4,5,6]],"type":"Polygon","properties":{"code":"0640","name":"Endugh","constituency_code":"129","county_code":"024"}},{"arcs":[[7,8,9,10]],"type":"Polygon","properties":{"code":"0641","name":"Kapenguria","constituency_code":"129","county_code":"024"}},{"arcs":[[-9,11,12,13]],"type":"Polygon","properties":{"code":"0642","name":"Mnagei","constituency_code":"129","county_code":"024"}},{"arcs":[[-4,14,15,-10,-14,16,17,18]],"type":"Polygon","properties":{"code":"0643","name":"Riwo","constituency_code":"129","county_code":"024"}},{"arcs":[[-8,19,20,21,22,-12]],"type":"Polygon","properties":{"code":"0644","name":"Siyoi","constituency_code":"129","county_code":"024"}},{"arcs":[[-3,23,24,-15]],"type":"Polygon","properties":{"code":"0645","name":"Sook","constituency_code":"129","county_code":"024"}},{"arcs":[[25,26,27]],"type":"Polygon","properties":{"code":"0646","name":"Lomut","constituency_code":"130","county_code":"024"}},{"arcs":[[28,-27,29,30]],"type":"Polygon","properties":{"code":"0647","name":"Masool","constituency_code":"130","county_code":"024"}},{"arcs":[[31,-31,32,-24,-2]],"type":"Polygon","properties":{"code":"0648","name":"Sekerr","constituency_code":"130","county_code":"024"}},{"arcs":[[-26,33,34,35,36,-33,-30]],"type":"Polygon","properties":{"code":"0649","name":"Wei Wei","constituency_code":"130","county_code":"024"}},{"arcs":[[37,38]],"type":"Polygon","properties":{"code":"0650","name":"Alale","constituency_code":"131","county_code":"024"}},{"arcs":[[-6,39,40,41,42]],"type":"Polygon","properties":{"code":"0651","name":"Kapchok","constituency_code":"131","county_code":"024"}},{"arcs":[[43,-7,-43,44]],"type":"Polygon","properties":{"code":"0652","name":"Kasei","constituency_code":"131","county_code":"024"}},{"arcs":[[45,-45,-42,46,-38]],"type":"Polygon","properties":{"code":"0653","name":"Kiwawa","constituency_code":"131","county_code":"024"}},{"arcs":[[-5,-19,47,48,-40]],"type":"Polygon","properties":{"code":"0654","name":"Kodich","constituency_code":"131","county_code":"024"}},{"arcs":[[-18,49,-48]],"type":"Polygon","properties":{"code":"0655","name":"Suam","constituency_code":"131","county_code":"024"}},{"arcs":[[-36,50,51,52]],"type":"Polygon","properties":{"code":"0656","name":"Batei","constituency_code":"132","county_code":"024"}},{"arcs":[[-11,-16,-25,-37,-53,53,-20]],"type":"Polygon","properties":{"code":"0657","name":"Chepareria","constituency_code":"132","county_code":"024"}},{"arcs":[[-21,-54,-52,54,55,56,57]],"type":"Polygon","properties":{"code":"0658","name":"Lelan","constituency_code":"132","county_code":"024"}},{"arcs":[[-35,58,-55,-51]],"type":"Polygon","properties":{"code":"0659","name":"Tapach","constituency_code":"132","county_code":"024"}},{"arcs":[[59,60]],"type":"Polygon","properties":{"code":"0660","name":"Arror","constituency_code":"148","county_code":"024"}},{"arcs":[[61,62,63,64]],"type":"Polygon","properties":{"code":"0661","name":"Cherangany","constituency_code":"148","county_code":"024"}},{"arcs":[[-60,65,66,67]],"type":"Polygon","properties":{"code":"0662","name":"Kapsowar","constituency_code":"148","county_code":"024"}},{"arcs":[[-57,68,69,-65,70]],"type":"Polygon","properties":{"code":"0663","name":"Lelan","constituency_code":"148","county_code":"024"}},{"arcs":[[-62,-70,71,-67,72]],"type":"Polygon","properties":{"code":"0664","name":"Moiben Kuserwo","constituency_code":"148","county_code":"024"}},{"arcs":[[-22,-58,-71,-64,73]],"type":"Polygon","properties":{"code":"0665","name":"Sengwer","constituency_code":"148","county_code":"024"}}]}}}