{"type":"Topology","arcs":[[[2776,3522],[9,-49],[-10,-15],[8,-54],[21,-13],[27,-49],[44,-54],[6,-49],[-9,-49],[-55,-60],[-8,-73],[-93,-86],[-43,-24],[19,-170],[38,-233],[151,-135],[-96,-43],[-114,-39]],[[2671,2327],[-53,-12],[-49,52],[-24,0],[-39,56],[-74,67],[-36,7],[-67,62],[-59,132],[-108,63],[-82,118],[-78,72],[82,126],[26,15],[-33,60],[-5,31]],[[2072,3176],[102,10],[132,18],[170,53],[-11,42],[3,46],[26,57],[18,83],[9,72],[46,-45],[24,6],[140,-29],[45,33]],[[951,3669],[2,-41],[37,-81],[7,-68],[22,-44],[90,-41],[45,22],[64,-15],[72,11],[41,-2],[53,17],[103,-7],[49,-20],[52,-84],[31,-7],[12,-95],[17,-39],[65,-102],[15,-45],[12,-84],[36,-42],[13,-33],[40,-48],[66,-46],[39,-79],[83,-59],[64,-80],[43,-40],[-1,-68],[21,-29],[45,-28],[19,-43],[-3,-29],[21,-37],[-41,-114]],[[2185,2169],[-55,1],[-93,34],[-40,27],[-83,-3],[-59,-30],[-85,11],[-201,52],[-69,11],[-205,-2],[-112,-10],[-71,21],[-87,-22],[-71,-7]],[[954,2252],[30,72],[-1,73],[-73,158],[13,59],[-15,53],[13,51],[-26,50],[6,106],[21,39],[1,34],[-26,82],[-32,31],[8,74],[31,52],[13,63],[-17,19],[-53,9],[-76,38],[-34,-29],[-94,-40],[-36,9],[-14,65],[44,37],[4,89],[-14,50],[66,55],[41,11],[30,-31],[21,47],[-8,27],[-59,71],[-30,-5],[-47,15],[-48,48],[35,30],[13,41],[52,-18],[25,23],[36,-18],[45,-42],[39,-1],[96,-78],[17,-2]],[[2671,2327],[54,-73]],[[2725,2254],[87,-187],[-32,-118],[-15,-26]],[[2765,1923],[-152,16],[-112,5],[-63,-28],[-44,-8],[-44,38],[-39,13],[-36,30],[-25,81],[15,38],[-23,27],[-57,34]],[[951,3669],[21,14],[-11,84],[-39,42],[-42,66],[5,56],[-12,14],[-54,-18],[-37,-25],[-33,16],[-52,5],[-10,33],[-38,9],[-30,36],[22,21],[37,-8],[58,68],[49,30],[8,58],[71,44],[39,46],[129,72]],[[1032,4332],[38,30],[72,23],[91,36],[29,-24],[107,-52],[13,-39],[30,-37],[48,-33],[17,-46]],[[1477,4190],[88,-98],[37,-33],[42,41],[25,-15],[92,-3],[62,29],[4,-35],[25,-10],[7,-67],[32,-27],[-4,-28],[41,-5],[40,18],[-29,-156],[-66,-43],[-26,-46],[6,-65],[36,-29],[5,-24],[43,-5],[75,-53],[30,-63],[-16,-60],[21,-42],[17,-63],[-4,-44],[12,-88]],[[4188,4926],[-89,-11],[-14,-21],[15,-39],[-43,-70],[-64,-23],[-32,-63],[-39,-24],[-10,-33],[-28,-21],[6,-45],[-66,-61],[2,-26],[-59,-27],[-71,-72],[-62,-31],[-61,-16]],[[3573,4343],[-46,48],[-4,22],[-108,-8],[-37,8],[-45,33],[-48,19],[-36,0],[-68,57],[-29,35],[-46,-20],[-44,14],[-63,57],[-31,-1],[-54,30],[-57,-11],[-141,17],[-78,-16],[-27,15],[-43,-33],[-76,-31],[-36,-42],[-9,-38],[-73,-31],[-64,-19],[-49,47],[-34,16]],[[2227,4511],[84,64],[81,125],[77,45],[51,41],[55,108],[-4,24],[14,84],[55,147],[-3,91],[-8,38],[-30,42],[-3,41],[-29,86],[26,95],[112,123],[26,75],[21,27],[40,8],[37,-10],[18,-32],[71,53],[98,56],[26,37],[-12,155],[-49,46],[-2,103],[-19,153],[0,53],[-29,7],[-54,44],[-82,92],[-23,49],[41,-9],[76,-34],[80,17],[41,25]],[[3010,6580],[26,-4],[91,24],[46,27],[12,23],[68,-29],[27,18],[52,-6],[69,22],[32,-25],[63,-15],[36,26],[69,5],[27,-20],[35,-71],[44,-49],[0,-47],[59,-59],[-25,-43],[0,-58],[125,-30],[109,-41],[2,-55],[-7,-95],[14,-113],[-12,-93],[11,-91],[-17,-47],[-62,-86],[6,-71],[22,-17],[137,-4],[58,-7],[-39,-70],[-24,-89],[7,-41],[-10,-95],[34,-78],[53,-1],[56,-34],[6,-107],[-22,-108]],[[1032,4332],[19,47],[-3,82],[-31,13],[-37,-20],[-24,58],[-76,11],[-58,-18],[-5,39],[-34,4],[-69,63],[-46,28],[-53,61],[-44,0],[-102,-34],[-81,-5],[-70,47],[-93,103],[-58,33],[-145,-36],[-22,20],[65,114],[-27,68],[-2,117],[19,36],[17,71],[61,30],[87,94],[35,25],[36,9],[56,-16],[61,10],[5,72],[67,54],[45,-51],[-4,-50],[-23,-38],[11,-81],[0,-53],[25,-41],[33,-21],[34,-46],[45,17],[78,179],[67,75],[50,72],[51,123],[37,40],[93,-19],[43,108],[8,102],[48,66],[2,34],[29,44],[22,70],[-1,46],[81,61],[74,127],[24,16],[58,90],[-50,-5],[2,29],[-40,32],[24,64],[37,17],[51,107],[-6,17],[-65,15],[-26,107],[38,2],[18,63],[-47,54],[-9,62],[1,72],[55,46],[47,73],[31,12],[6,72],[-8,204],[-31,12],[16,51],[27,39],[3,37],[22,50],[-14,89],[40,16],[0,39],[-20,36],[13,49],[26,4],[25,42],[7,47],[78,43],[-19,110],[0,37],[0,1],[-6,112],[79,66],[22,53]],[[1737,8358],[68,-18],[54,-36],[20,-25],[18,-76],[73,-65],[13,-39],[-2,-61],[52,-87],[-10,-75],[14,-27],[3,-65],[-38,-107],[-2,-35],[47,-82],[-46,-51],[-17,-55],[-20,-19],[57,-100],[-12,-52],[11,-56],[-25,-34],[11,-24],[-25,-23],[0,-40],[16,-15],[51,0],[26,-25],[75,-116],[63,-77],[135,68],[18,27],[-11,24],[6,59],[-10,63],[24,-2],[9,-61],[47,-21],[47,-37],[33,22],[36,-7],[55,22],[126,11],[-1,-60],[20,-46],[4,-52],[73,40],[118,28],[9,22],[52,41],[47,4],[58,71],[59,35],[36,48],[25,1],[34,30],[65,-49],[-21,-34],[-32,-94]],[[3273,7026],[-57,-67],[-67,-43],[12,-64],[-27,-16],[-2,-112],[-24,-66],[-46,-15],[-52,-63]],[[2227,4511],[-22,-23],[-46,-9],[-113,-60],[-5,-29],[-69,-98],[-56,-25],[-61,8],[-86,-11],[-35,-20],[-57,14],[-141,-53],[-59,-15]],[[3273,7026],[69,17],[98,-15],[117,-65],[33,-11],[41,7],[71,62],[17,30],[91,-5],[32,28],[32,9],[9,64],[22,22],[-3,30],[45,44],[25,42],[37,30],[24,94],[-10,13],[8,60],[55,18],[32,61],[38,38],[68,37]],[[4224,7636],[56,-49],[392,-12],[103,-44],[143,-27],[23,-10],[120,-10],[109,-1],[7,-107],[14,-44],[65,-79],[260,-167],[53,-71],[34,-32],[230,-7],[185,-633],[320,-120],[290,-414],[-5,-1]],[[6623,5808],[-95,-91],[-49,-11],[-13,-54],[14,-24],[-16,-34],[-57,-53],[-49,-3],[-56,-47],[-26,-34],[-35,-8],[-82,-39],[-99,-27],[-22,-30],[-66,-14],[-30,-20],[-69,-15],[-28,-29],[-89,-24],[-50,-32],[-111,-38],[-33,18],[-44,-6],[-16,-25],[-45,15],[-97,16],[-51,-1],[-76,-31],[-11,-28],[-44,-25],[-12,-28],[-84,-8],[-84,-69],[-48,-10],[-28,13],[-36,-11],[-47,12],[-36,-23],[-118,5],[-74,-60],[-58,-4],[-29,28],[-81,10],[-72,-19],[-19,8],[-82,-17],[-30,-15],[-52,0]],[[1737,8358],[11,53],[34,41],[163,83],[134,28],[98,41],[79,68],[98,54],[90,17],[9,22],[-14,55],[17,36],[39,10],[17,45],[-20,37],[22,39],[5,48],[-38,41],[6,20],[87,56],[-8,59],[10,84],[-354,155],[-375,161],[6,229],[21,-39],[29,-10],[65,21],[11,28],[-5,52],[51,-12],[46,-79],[29,2],[9,74],[35,32],[47,19],[16,40],[57,83],[76,69],[38,0],[19,-17],[42,5],[-11,41],[6,34],[23,29],[1,117],[-11,85],[181,1],[143,28],[171,-428],[72,-169],[36,-104],[240,-602],[126,-105],[143,-280],[38,-53],[17,-57],[14,-100],[14,-49],[65,-139],[-6,-130],[40,-24],[-12,-63],[20,-146],[-12,-33],[-5,-102],[-12,-85],[45,-8],[99,46],[46,-1],[68,-36],[163,-106],[43,-5],[40,-28]],[[3573,4343],[-45,-51],[-30,-56],[3,-37],[-32,-56],[-40,-18]],[[3429,4125],[-23,-31],[-116,-42],[-29,-43],[-61,-18],[-55,-42],[-175,-9],[-20,-17],[-42,2],[-32,-32],[25,-52],[-108,-118],[-6,-57],[-28,-46],[17,-98]],[[3429,4125],[49,-32],[88,-143],[33,-43],[38,-8],[50,-115],[66,-53],[16,-70],[62,-47],[68,-19],[45,-30],[16,-57],[-5,-44],[-26,-50],[9,-43],[60,-83],[107,-66],[83,-44],[25,-25],[61,-7],[33,-23],[21,-50],[53,0],[41,16],[29,-28],[13,-33],[43,-45],[77,-10]],[[4584,2973],[-20,-5],[-2,-55],[-25,-3],[-55,-58],[-3,-52],[-24,-102],[14,-36],[-28,-29],[8,-47],[-18,-23],[-16,-87],[-32,-4],[-14,-39],[-1,-50],[-25,-50],[-24,-16],[20,-72],[-40,-38],[9,-39],[-34,-24],[-26,-67],[-6,-125],[-33,-38],[-9,-98],[-19,-27],[1,-134],[26,-63]],[[4208,1592],[-21,-14],[-70,-17],[-111,-16],[-5,-44],[-47,-20],[-27,5],[-68,-21],[-62,-38],[-21,7],[-75,-21],[-89,-9],[-71,-25],[-42,18],[20,56],[5,66],[39,97],[-4,55],[3,99],[61,179],[54,171],[-64,47],[-71,64],[-79,98],[-24,69],[-94,159],[-24,53],[-109,-75],[-40,-41],[-42,-15],[-100,-66],[8,-29],[-90,-50],[-109,-44],[-59,-31],[-55,-5]],[[7111,5087],[111,-172],[81,-140],[189,-314],[55,-50],[43,-7],[18,-42],[81,-77],[12,58],[41,34],[18,40],[39,-80],[28,-9],[43,14],[28,34],[34,0],[138,93],[50,-24],[107,32],[42,-20],[39,18],[102,26],[51,5],[30,-14],[90,8],[55,29],[85,15],[106,-8],[15,37],[75,-30],[33,22],[54,-1],[45,16],[66,-4],[53,20],[43,38],[41,156],[512,-339],[82,-49],[-7,-135],[-3,-151],[-21,-341],[0,-24],[1,-74],[15,-321],[79,-90],[409,-487],[12,-130],[9,-179],[23,-396],[49,-797],[191,-117],[-50,2],[-93,-26],[-41,22],[-29,34],[-56,10],[-69,44],[-39,-5],[-9,43],[-35,-22],[7,-41],[-22,-28],[-34,-5],[-35,-51],[-46,-4],[-76,-94],[-3,-23],[-77,-22],[-18,-33],[-60,-6],[-40,-52],[-90,-84],[-25,4],[-29,-34],[-24,29],[-47,20],[-1,28],[-37,0],[-42,61],[-53,20],[-19,-6],[-25,-71],[-37,-8],[-48,-40],[-64,-25],[-29,-48],[-7,-45],[16,-27],[-50,-62],[-83,-7],[-37,-19],[-84,-1],[-55,-23],[-50,30],[-52,1],[-41,-20],[-54,-8],[-31,20],[-60,-7],[-21,-41],[-30,-27],[-29,1],[-25,-38],[-67,27],[-25,39],[-39,1],[-38,-20],[-41,0],[-38,-34],[-21,-81],[-27,21],[-45,-57],[-69,-19],[-41,1],[-41,-55],[-27,1],[-17,-118],[-33,-17],[-21,21],[-48,-3],[-82,-48],[-53,4],[-27,-20],[-47,-6],[-2,-49],[-13,-22],[-49,-9],[-55,3],[-43,-9],[-55,35],[-39,-16],[-30,-42],[-21,-4],[-53,26],[-58,-20],[-50,37],[-71,10],[5,54],[-23,21]],[[7111,128],[-28,77],[9,52],[-21,78],[17,25],[-14,27],[9,118],[13,20],[-8,82],[5,50],[-29,113],[-26,50],[-48,48],[-42,30],[-124,53],[-54,-61],[-58,-27],[-54,-11],[-53,28],[-79,61],[-82,41],[-60,57],[-30,74],[3,66],[-57,40],[-22,56],[-62,70],[-35,67],[47,62],[33,0],[-11,135],[4,48]],[[6254,1657],[32,0],[145,-43],[161,-63],[111,-15],[49,30],[45,11],[39,-48],[7,-53],[38,-31],[18,-35],[156,-118],[128,-89],[165,-68],[130,-26],[28,4],[-45,148],[75,185],[46,79],[-17,49],[-42,210],[27,86],[33,51],[24,94],[11,84],[23,101],[-25,59],[-52,67],[-28,75],[-6,122],[-10,32],[7,76],[59,102],[19,93],[28,15],[80,86],[43,75],[-6,63],[-12,34],[9,37],[-38,34],[-106,47],[-75,48],[-35,41],[-28,49],[-16,50],[-100,180],[-104,111],[-72,25],[-41,68],[-90,1]],[[7042,3790],[-334,1],[-470,-32],[-104,-5],[-38,6],[-28,47],[-108,117],[42,39],[-6,33],[-37,57],[15,39],[-109,147],[-12,67],[35,125],[26,42],[80,70],[341,168],[776,376]],[[4584,2973],[20,-71],[48,-87],[22,-28],[50,-12],[0,-45],[35,-53],[8,-41],[55,5],[31,41]],[[4853,2682],[36,8],[59,-32],[63,-63],[45,-33],[12,-28],[54,-56],[29,-17],[74,25],[61,53],[74,9],[34,24],[48,14],[121,5],[61,-37],[16,-21],[26,-109],[74,-41],[61,-11],[34,-46],[35,-72],[-86,-59],[-30,-7],[-63,5],[57,-95],[44,-47],[133,38],[45,-91],[17,-48],[7,-64],[38,-59],[48,-174],[14,-8],[85,13],[75,-1]],[[7111,128],[-76,-7],[-30,25],[-31,-2],[-30,-37],[-85,-27],[-28,10],[-37,-14],[-51,14],[-20,-17],[-149,-6],[-33,-9],[-78,35],[-42,28],[-51,-4],[5,52],[-17,16],[-47,-2],[-10,73],[6,36],[-36,65],[-30,24],[7,39],[-48,19],[-52,59],[-3,52],[-43,60],[-31,22],[-15,56],[-36,47],[-30,94],[-47,48],[-16,35],[-43,15],[-54,33],[-14,37],[-32,32],[-53,33],[-58,-3],[-58,-58],[-33,-13],[-73,-58],[-38,1],[-77,38],[-93,-21],[-64,14],[-44,-10],[-29,49],[-56,0],[2,39],[-66,5],[-25,-10],[-53,39],[-20,63],[-37,28],[-41,-15],[-44,41],[-70,-31],[-37,0],[-84,-20],[-5,-63],[-19,-10],[-61,38],[-55,-29],[-274,-91],[-29,7],[-32,-19],[-58,-15],[-42,13],[-35,-19]],[[4023,952],[-14,13],[12,118],[12,43],[69,56],[4,33],[-33,46],[12,89],[43,-7],[77,58],[-10,143],[13,48]],[[4853,2682],[-24,25],[11,48],[-6,43],[12,90],[13,26],[-21,55],[0,81],[-12,54],[23,6],[39,-29],[6,-51],[24,-9],[6,-55],[58,-56],[61,13],[24,19],[40,-42],[1,-27],[78,19],[69,-6],[8,10],[114,10],[3,36],[86,-1],[51,-59],[2,-32],[40,4],[13,-25],[83,7],[48,-34],[119,0],[58,-11],[37,34],[84,19],[219,153],[153,102],[143,108],[236,222],[290,361]],[[6623,5808],[29,-30],[217,-303],[53,-73],[-10,-6],[199,-309]],[[2765,1923],[-75,-72],[14,-108],[5,-153],[-9,-38],[-66,-34],[-22,-25],[-130,-60],[-78,-21],[-13,-28],[-34,-19]],[[2357,1365],[-45,-18],[-371,-18],[-756,0],[-33,-2],[17,113],[19,62],[-6,19],[-143,80],[-45,35],[-66,-3],[-95,70],[-36,44],[6,27],[-49,17],[-66,-1],[-57,24],[-3,28],[-5,7],[98,78],[81,73],[108,160],[44,92]],[[4023,952],[-115,1],[-28,12],[-53,46],[-26,-66],[-62,-23],[-19,-41],[-35,-14],[-15,43],[-35,25],[-38,-1],[-56,-29],[-53,15],[-66,1],[-111,224],[-40,58],[18,28],[-59,32],[-6,67],[-82,148],[-2,70],[-150,82],[-77,-11],[-138,-47],[-118,-163],[-135,-53],[-67,15],[-98,-6]]],"transform":{"scale":[0.0001688526036529935,0.0001868141965447832],"translate":[36.28965731400456,0.5639392878994895]},"objects":{"wards.025.final":{"type":"GeometryCollection","geometries":[{"arcs":[[0,1,2]],"type":"Polygon","properties":{"code":"0663","name":"Maralal","constituency_code":"133","county_code":"025"}},{"arcs":[[3,4,5]],"type":"Polygon","properties":{"code":"0664","name":"Loosuk","constituency_code":"133","county_code":"025"}},{"arcs":[[-2,6,7,8,-4,9,10,11]],"type":"Polygon","properties":{"code":"0665","name":"Poro","constituency_code":"133","county_code":"025"}},{"arcs":[[12,13,14,15]],"type":"Polygon","properties":{"code":"0666","name":"El-Barta","constituency_code":"134","county_code":"025"}},{"arcs":[[-11,16,17,18,-15,19]],"type":"Polygon","properties":{"code":"0667","name":"Nachola","constituency_code":"134","county_code":"025"}},{"arcs":[[-16,-19,20,21,22]],"type":"Polygon","properties":{"code":"0668","name":"Ndoto","constituency_code":"134","county_code":"025"}},{"arcs":[[-21,-18,23]],"type":"Polygon","properties":{"code":"0669","name":"Nyiro","constituency_code":"134","county_code":"025"}},{"arcs":[[-3,-12,-20,-14,24,25]],"type":"Polygon","properties":{"code":"0670","name":"Angata Nanyokie","constituency_code":"134","county_code":"025"}},{"arcs":[[-1,-26,26,27,28,-7]],"type":"Polygon","properties":{"code":"0671","name":"Baawa","constituency_code":"134","county_code":"025"}},{"arcs":[[29,30,31,32]],"type":"Polygon","properties":{"code":"0672","name":"Waso","constituency_code":"135","county_code":"025"}},{"arcs":[[-28,33,34,-31,35,36]],"type":"Polygon","properties":{"code":"0673","name":"Wamba West","constituency_code":"135","county_code":"025"}},{"arcs":[[-32,-35,37]],"type":"Polygon","properties":{"code":"0674","name":"Wamba East","constituency_code":"135","county_code":"025"}},{"arcs":[[-33,-38,-34,-27,-25,-13,-23,38]],"type":"Polygon","properties":{"code":"0675","name":"Wamba North","constituency_code":"135","county_code":"025"}},{"arcs":[[-5,-9,39,40]],"type":"Polygon","properties":{"code":"0662","name":"Suguta Marmar","constituency_code":"133","county_code":"025"}},{"arcs":[[-8,-29,-37,41,-40]],"type":"Polygon","properties":{"code":"0661","name":"Lodokejek","constituency_code":"133","county_code":"025"}}]}}}