{"type":"Topology","arcs":[[[2567,1552],[1,0]],[[2568,1552],[-104,-120],[-87,-114],[-56,-16],[-29,4]],[[2292,1306],[-1,2]],[[2291,1308],[-6,52],[-28,33],[-71,41]],[[2186,1434],[151,244]],[[2337,1678],[36,-32],[34,7],[32,-36],[5,-35],[36,-16],[31,9],[56,-23]],[[2186,1434],[-79,-12],[-58,24]],[[2049,1446],[-22,9]],[[2027,1455],[-225,79],[-35,330]],[[1767,1864],[-135,5],[-16,22]],[[1616,1891],[15,20],[-32,124],[-39,4],[-32,28],[50,283],[97,-3],[17,71]],[[1692,2418],[43,-34],[60,-82],[33,-27],[85,-104],[44,27],[112,94]],[[2069,2292],[-30,-38],[76,-26],[-42,-327],[96,-29],[38,-100],[22,7],[97,-50],[11,-51]],[[2526,2369],[-16,-42],[-29,-24],[-66,-114],[3,-28],[-55,-4],[-2,68],[54,76],[3,17],[-61,66],[-67,11],[-29,-23],[-29,42],[-41,37],[-122,-159]],[[1692,2418],[24,89],[-90,10],[7,49],[-21,49],[-14,80],[169,18]],[[1767,2713],[179,7],[170,-30],[68,32],[64,32],[103,-21],[74,-134],[91,-100],[-40,-70],[50,-60]],[[2526,2369],[104,-91],[32,0],[58,-38],[20,-32],[22,90],[73,14]],[[2835,2312],[22,-13],[7,-39],[25,-22],[-4,-95],[-15,-59],[-53,-82]],[[2817,2002],[-113,-124],[-14,-71],[15,-33],[-46,-88],[-29,-23],[-12,-40],[-51,-71]],[[1616,1891],[-43,-16],[-29,19],[-80,24],[-65,-24],[-103,19],[-28,58],[-71,24],[-38,-21],[-39,-1],[-40,24],[-27,-6],[-47,-32],[-104,5],[-96,11],[-53,-6],[-60,-47],[-107,-6],[-46,13],[-46,36],[-50,17],[-42,-3],[-88,28],[-74,6],[-43,-14],[-92,-62]],[[105,1937],[-105,152],[182,63],[39,44],[93,29],[97,71],[43,49],[29,94],[190,50],[57,1],[152,33],[42,-7],[39,11],[49,-14],[89,31],[66,-13],[59,55],[32,54],[11,50],[25,14],[6,69],[475,132],[-8,-192]],[[2027,1455],[-6,-28],[-142,-165],[-36,110],[-63,-66],[-67,-51],[-34,25],[-48,81],[-216,-91],[-10,30],[-64,-31],[-91,68],[-114,30],[-40,-99],[-32,0],[-47,23],[-38,-14],[-52,16],[-78,77],[-51,11],[2,-99],[-34,-12],[-33,8],[-41,29],[-13,-14],[-69,34],[-56,-10],[-27,9]],[[527,1326],[-110,172],[-31,21],[60,166]],[[446,1685],[43,-26],[39,34],[46,1],[78,-46],[51,-14],[7,16],[57,1],[93,50],[42,9],[27,-19],[96,-39],[21,18],[51,-25],[73,-4],[83,8],[46,-22],[38,13],[59,-3],[35,14],[52,46],[71,0],[56,49],[32,3],[38,48],[33,5],[54,62]],[[446,1685],[-47,3],[-64,40],[-51,16],[-84,70],[-40,43],[-55,80]],[[2049,1446],[-3,-131],[-24,-24],[-27,-58],[47,-24],[-41,-25],[-30,27],[-31,-37],[-22,-48],[-53,-30],[33,-51],[34,-28],[47,-19]],[[1979,998],[-161,-88],[-33,-30],[-47,-9],[-38,-21],[-54,19]],[[1646,869],[-61,35],[-13,51],[3,79],[-42,13],[-35,31],[-58,-5],[-12,56],[-71,-75],[-112,19],[-42,22],[-80,-12],[-29,-34],[-29,8],[-82,-18],[-36,25],[-82,-7],[-35,-33],[-53,21],[-60,0]],[[717,1045],[-125,174],[-65,107]],[[1577,668],[54,-25],[-62,-64],[-20,-63],[-78,23],[0,-54]],[[1471,485],[-86,-30],[28,-49],[-49,-17],[4,-53],[-47,-32],[-40,-12],[-42,27],[-51,6],[-17,16]],[[1171,341],[4,23],[-37,107],[-11,55],[72,79],[-17,58]],[[1182,663],[89,66],[32,16],[15,-22],[103,-29],[45,-63],[111,37]],[[2292,1306],[34,-58],[-4,-49],[-19,-37],[15,-32],[54,-43],[44,-2]],[[2416,1085],[8,-64],[-5,-42],[-76,11],[-104,74],[-39,37],[-12,-47]],[[2188,1054],[-70,-12],[-98,-67]],[[2020,975],[-41,23]],[[2186,1434],[-12,-99],[23,-45],[94,18]],[[1646,869],[3,-72],[-72,-129]],[[1182,663],[-66,61],[-44,2],[-49,-21],[-132,83],[-24,22],[-108,164],[-42,71]],[[2568,1552],[26,-38],[-8,-39],[14,-49],[42,-29],[17,-63]],[[2659,1334],[2,-56]],[[2661,1278],[-96,-50],[-15,-65],[-58,-39],[-15,-40]],[[2477,1084],[-61,1]],[[2188,1054],[-30,-103],[1,-73],[-17,-81],[86,-65],[22,-185],[23,-79]],[[2273,468],[-72,-17],[9,30],[-116,-39],[6,-29],[-87,-25],[-48,3],[-42,-101],[-28,8],[-83,-53],[-234,-129]],[[1578,116],[-20,127],[4,110]],[[1562,353],[232,128],[33,40],[93,48],[20,18],[3,79],[43,98],[10,61],[29,52],[-5,98]],[[1562,353],[-70,65],[-21,67]],[[1578,116],[0,0],[-260,-92],[-75,-24],[16,92],[-35,106],[-1,35],[-31,23],[-16,52],[-5,33]],[[2661,1278],[-3,-82],[15,-25],[51,-37],[37,-149],[36,-107],[52,-80],[10,-109],[-6,-29],[16,-65],[31,-62]],[[2900,533],[13,-50]],[[2913,483],[-109,116],[-34,90],[-65,51],[-39,119],[-69,67],[-78,148],[-42,10]],[[2913,483],[-14,-18],[0,-1],[1,-3],[-64,-48],[-26,29],[-61,17],[-27,39],[9,33],[-41,34],[-67,-12],[-63,34],[-117,-53],[-29,10],[-26,-51],[-115,-25]],[[3578,771],[-8,44],[8,68],[-25,75]],[[3553,958],[37,95],[28,2],[39,47],[15,49],[80,42],[57,14],[17,27],[53,22],[20,33],[32,-23],[51,29],[0,113]],[[3982,1408],[11,-7],[200,-78],[58,-28],[-4,-60],[-99,-22],[-1,-19],[46,-130],[-69,-44],[-11,-32],[16,-29],[20,-96],[82,-17],[-56,-143],[-81,48],[-22,26],[-130,-258],[-17,45],[-26,9],[-25,58],[1,32],[-48,37],[-26,1],[-26,30],[-25,62],[-33,-1],[-72,32],[-38,-48],[-29,-5]],[[3427,1891],[41,-9],[132,-248],[161,-73],[221,-153]],[[3553,958],[-14,106],[12,44],[-116,-32],[-49,0],[-46,14],[-49,-7],[-13,61],[-29,76],[-24,11],[-17,65]],[[3208,1296],[27,42],[53,34],[56,22],[19,29],[18,109],[-9,26],[-55,70],[10,41],[42,15],[43,48],[16,39],[-1,120]],[[2659,1334],[70,22],[186,21],[19,-6]],[[2934,1371],[20,-117],[-10,-73],[15,-110],[23,-66],[8,-92],[22,-63],[12,-72],[-36,-44],[-5,-35]],[[2983,699],[-9,-45],[-29,-6],[-32,-37],[6,-32],[-19,-46]],[[3105,2397],[47,-116],[121,-190],[106,-195],[48,-5]],[[3208,1296],[-46,44]],[[3162,1340],[-10,51],[-67,80],[-67,23]],[[3018,1494],[66,137],[33,114],[-7,306],[21,63],[3,52],[-28,78],[-1,153]],[[3578,771],[-59,-68],[-19,-4],[-27,-6],[-64,21],[-49,-2],[-23,20],[-50,-6],[-54,-28],[-48,15],[-51,-26],[-63,-5],[-26,19],[-33,-12],[-29,10]],[[2934,1371],[33,-9],[110,-2],[85,-20]],[[2835,2312],[93,17],[41,-23],[136,91]],[[3018,1494],[-49,32],[-17,45],[-30,21],[-18,56],[-86,147],[35,63],[-36,144]]],"transform":{"scale":[0.00018418468508303915,0.00016399469042362646],"translate":[34.58044591476652,0.8044097658209451]},"objects":{"wards.026.final":{"type":"GeometryCollection","geometries":[{"arcs":[[0,1,2,3,4,5]],"type":"Polygon","properties":{"code":"0681","name":"Bidii","constituency_code":"136","county_code":"026"}},{"arcs":[[-5,6,7,8,9,10,11,12]],"type":"Polygon","properties":{"code":"0682","name":"Kapomboi","constituency_code":"136","county_code":"026"}},{"arcs":[[13,-12,14,15]],"type":"Polygon","properties":{"code":"0683","name":"Keiyo","constituency_code":"136","county_code":"026"}},{"arcs":[[16,17,18,-6,-13,-14]],"type":"Polygon","properties":{"code":"0684","name":"Kwanza","constituency_code":"136","county_code":"026"}},{"arcs":[[-15,-11,19,20]],"type":"Polygon","properties":{"code":"0685","name":"Chepchoina","constituency_code":"137","county_code":"026"}},{"arcs":[[-9,21,22,23]],"type":"Polygon","properties":{"code":"0686","name":"Endebess","constituency_code":"137","county_code":"026"}},{"arcs":[[-10,-24,24,-20]],"type":"Polygon","properties":{"code":"0687","name":"Matumbei","constituency_code":"137","county_code":"026"}},{"arcs":[[-8,25,26,27,28,-22]],"type":"Polygon","properties":{"code":"0688","name":"Kinyoro","constituency_code":"138","county_code":"026"}},{"arcs":[[29,30,31,32]],"type":"Polygon","properties":{"code":"0689","name":"Machewa","constituency_code":"138","county_code":"026"}},{"arcs":[[-3,33,34,35,36,-26,-7,37]],"type":"Polygon","properties":{"code":"0690","name":"Matisi","constituency_code":"138","county_code":"026"}},{"arcs":[[-28,38,-33,39]],"type":"Polygon","properties":{"code":"0691","name":"Saboti","constituency_code":"138","county_code":"026"}},{"arcs":[[-4,-38]],"type":"Polygon","properties":{"code":"0692","name":"Tuwani","constituency_code":"138","county_code":"026"}},{"arcs":[[-2,40,41,42,43,-34]],"type":"Polygon","properties":{"code":"0693","name":"Hospital","constituency_code":"139","county_code":"026"}},{"arcs":[[-36,44,45,46,47]],"type":"Polygon","properties":{"code":"0694","name":"Kiminini","constituency_code":"139","county_code":"026"}},{"arcs":[[-27,-37,-48,48,-30,-39]],"type":"Polygon","properties":{"code":"0695","name":"Nabiswa","constituency_code":"139","county_code":"026"}},{"arcs":[[-31,-49,-47,49]],"type":"Polygon","properties":{"code":"0696","name":"Sikhendu","constituency_code":"139","county_code":"026"}},{"arcs":[[-43,50,51,52]],"type":"Polygon","properties":{"code":"0697","name":"Sirende","constituency_code":"139","county_code":"026"}},{"arcs":[[-35,-44,-53,53,-45]],"type":"Polygon","properties":{"code":"0698","name":"Waitaluk","constituency_code":"139","county_code":"026"}},{"arcs":[[54,55,56]],"type":"Polygon","properties":{"code":"0699","name":"Chepsiro/kiptoror","constituency_code":"140","county_code":"026"}},{"arcs":[[57,-56,58,59]],"type":"Polygon","properties":{"code":"0700","name":"Cherangany/suwerwa","constituency_code":"140","county_code":"026"}},{"arcs":[[-42,60,61,62,-51]],"type":"Polygon","properties":{"code":"0701","name":"Kaplamai","constituency_code":"140","county_code":"026"}},{"arcs":[[63,-60,64,65,66]],"type":"Polygon","properties":{"code":"0702","name":"Makutano","constituency_code":"140","county_code":"026"}},{"arcs":[[-55,67,-62,68,-65,-59]],"type":"Polygon","properties":{"code":"0703","name":"Motosiet","constituency_code":"140","county_code":"026"}},{"arcs":[[69,-67,70,-18]],"type":"Polygon","properties":{"code":"0704","name":"Sinyerere","constituency_code":"140","county_code":"026"}},{"arcs":[[-1,-19,-71,-66,-69,-61,-41]],"type":"Polygon","properties":{"code":"0705","name":"Sitatunga","constituency_code":"140","county_code":"026"}}]}}}