{"type":"Topology","arcs":[[[1632,4730],[-15,169],[0,3],[0,1],[15,16],[-14,46],[21,42],[-6,30],[36,34],[33,6],[11,40],[32,-8],[38,11],[29,-18],[72,4],[59,24],[55,-13],[61,26],[56,5],[27,-19],[56,3],[73,-20],[30,5]],[[2301,5117],[-8,-210]],[[2293,4907],[-183,-23],[-4,-83]],[[2106,4801],[-54,27],[-2,-48],[-129,0],[-3,47],[-41,-29],[-95,-19],[-94,-2],[-9,-32],[-47,-15]],[[1811,4594],[-84,19],[-36,-14],[-5,-51],[-33,107],[-21,75]],[[2106,4801],[-21,-228]],[[2085,4573],[-112,56],[-50,-1],[-77,-33],[-35,-1]],[[2293,4907],[161,2],[38,-95],[159,187],[11,-24],[80,-74],[70,-37],[-88,-43],[-10,-45],[25,-38],[-38,-23],[41,-70],[30,2],[36,86],[60,-24],[51,78],[61,27],[16,-12]],[[2996,4804],[-18,-61],[139,-35]],[[3117,4708],[6,-13],[-18,-92],[-42,0],[63,-80],[-186,-48],[-62,35],[-59,-41],[-17,-36],[-68,-97]],[[2734,4336],[-77,30],[-45,-16],[-70,0],[-13,-47],[32,-43],[-207,2]],[[2354,4262],[0,112],[-17,66],[8,27],[-18,44],[-39,43],[-35,80],[-78,-3],[-32,-44],[-58,-14]],[[1869,3680],[-17,18],[22,32],[-1,167]],[[1873,3897],[192,7],[6,201],[22,18],[107,-38],[32,-24],[28,8],[69,-17],[28,28],[-3,182]],[[2734,4336],[4,-70],[20,-72],[12,-137],[14,-99],[26,-65]],[[2810,3893],[19,-75],[-39,-108]],[[2790,3710],[-47,17],[-30,29],[-42,-18],[-30,-55]],[[2641,3683],[-29,-14],[-25,45],[-74,55],[-44,-3],[-34,33],[-60,-60],[-48,-21],[-68,2],[-33,12],[-60,2],[-52,-15],[-57,22],[-38,-15],[-51,10],[-50,-22]],[[1918,3714],[-49,-34]],[[2790,3710],[56,-23],[41,27],[53,-5],[33,-49],[-17,-91],[18,-12],[-14,-40],[-60,-63],[-25,-97],[-2,-110]],[[2873,3247],[-166,-19],[-23,-29]],[[2684,3199],[-63,38],[-46,-3],[-34,40],[17,36],[8,158],[-44,10],[-3,46],[111,3],[14,22],[-3,134]],[[1080,3396],[-41,-5],[-48,11],[1,-42],[-17,-45],[-32,-27],[-9,-30],[54,-35],[24,-40],[-64,-91]],[[948,3092],[-139,-13],[-418,-32],[-391,-24],[278,298],[-27,23],[-5,16],[46,-13],[50,-49],[83,-23],[89,66],[56,24],[47,-1],[30,14],[39,-6],[64,51],[40,47],[86,17],[45,40],[159,-131]],[[1080,3396],[27,16],[23,65],[37,23],[2,41],[68,-20],[8,-21],[61,6],[68,-14],[92,3],[95,89],[69,-32]],[[1630,3552],[122,-216],[-16,-27],[-92,-38],[-83,-195]],[[1561,3076],[-30,-95],[-178,67],[-160,62],[-245,-18]],[[1630,3552],[3,30],[49,40],[55,5],[53,34],[49,-8],[30,27]],[[1918,3714],[0,-28],[53,-161],[45,-52],[101,-76],[7,-30],[31,-17],[63,-78],[43,-41]],[[2261,3231],[-69,-113]],[[2192,3118],[-66,-9],[-43,-30],[-31,3],[-40,-27],[-9,-27],[-43,-20],[-16,13]],[[1944,3021],[-62,-45],[-97,-14],[-48,38],[-45,14],[-62,4],[-49,26],[-20,32]],[[2684,3199],[-34,-63],[-107,78],[-27,-52],[-45,-115],[40,-28],[22,-128]],[[2533,2891],[-34,-7],[-34,29],[-34,97]],[[2431,3010],[-12,53],[-34,60],[31,46],[38,37],[6,30],[-156,-36],[-43,31]],[[2431,3010],[-122,-26]],[[2309,2984],[-56,39],[-21,30]],[[2232,3053],[0,19],[-40,46]],[[2533,2891],[86,-22],[-4,-27]],[[2615,2842],[-29,20],[-45,-26],[-65,19],[-10,29],[-49,-7],[-28,54],[-31,30],[-49,23]],[[3761,3456],[129,-195],[-24,-133],[-29,-130],[-56,-203]],[[3781,2795],[-34,-11],[-33,23],[-45,-38],[-41,17],[-84,1],[-25,-10],[-58,20],[-30,-14],[-34,13],[-25,-19],[-74,42],[-29,-3],[-55,19],[-28,23],[-78,25]],[[3108,2883],[-23,15],[-27,79],[-103,69],[-31,40]],[[2924,3086],[17,-3],[321,13],[45,-16],[8,43],[-21,18],[14,113],[16,249],[19,0],[196,-47],[222,0]],[[2810,3893],[143,-6],[9,73],[45,12],[-3,46],[111,-7],[2,-61],[52,-40],[71,-17],[207,7]],[[3447,3900],[138,-219],[38,-46],[138,-179]],[[2924,3086],[-62,-13],[6,94],[-10,31],[15,49]],[[2996,4804],[52,35],[39,134],[48,53],[21,59],[55,-21],[34,33],[5,109]],[[3250,5206],[45,48],[220,-35],[-36,-142],[3,-28],[220,-27],[112,-13],[-26,-26],[-9,-45],[-22,-18],[-22,-48],[200,1],[0,-58],[29,-68],[-16,-47],[-4,-24],[-53,-110],[73,7],[39,-20],[4,-81],[0,-274],[-41,-163],[36,-73],[37,-16],[-17,-52],[-328,8],[-247,-2]],[[3447,3900],[-14,16],[42,136],[63,53],[2,26],[38,17],[-47,48],[-6,84],[24,152],[-9,56],[12,53],[-22,38],[-15,84],[-52,29],[-44,50],[-93,58],[-52,8],[-28,56],[-129,-156]],[[2924,3086],[-67,-182],[-39,44],[-97,-32],[-59,-27],[10,-22],[-16,-49]],[[2656,2818],[-41,24]],[[3108,2883],[-17,-9],[32,-97],[-1,-43],[-22,-34],[10,-27],[-33,-77]],[[3077,2596],[-60,19],[-44,36],[-35,-10],[-28,36],[-35,0],[-15,32],[-33,3],[-47,49]],[[2780,2761],[-49,1],[-27,31],[-48,25]],[[3781,2795],[-14,-369],[11,-67],[95,-98],[4,-88],[9,-11],[8,-22],[-18,-47],[-40,-23],[-19,-39],[25,-34],[52,-31],[3,-35],[34,-7],[49,-39],[10,-43],[-13,-56]],[[3977,1786],[-67,47],[-65,18],[-24,19],[-58,12],[-87,-106],[-91,-68],[47,-53],[-6,-30],[-34,-31]],[[3592,1594],[-16,10],[-42,83],[-47,17],[-38,38],[-17,57],[-44,36],[82,92],[-83,60],[3,51],[-10,85],[-24,90],[-9,94],[-23,27],[-54,3],[-24,35],[-38,27],[-21,35],[-41,25],[-32,42],[-13,78],[-24,17]],[[3977,1786],[3,-4],[5,-4],[0,-40],[19,-97],[-1,-119],[-26,-28],[-25,-61],[22,-32],[-57,-40],[64,-104],[57,-40],[51,21],[91,8],[40,-6],[35,-27],[-57,-26],[-33,-48],[-39,-45],[-1,-29],[-37,-54],[259,10],[84,47],[0,-63],[41,-11],[16,-28],[69,-54],[16,-124],[-97,-190],[-4,-72],[-196,14]],[[4276,540],[-72,-11],[-68,39],[-8,29],[18,52],[-6,20],[-91,-72],[-139,-10],[-40,19],[-24,71],[-30,18],[-18,48],[21,51],[52,59],[-38,103],[-16,23],[-6,59],[-20,44],[-54,11],[-13,20],[-79,59],[-62,-36],[-64,70],[74,42],[-31,66],[-40,58],[-24,16]],[[3498,1388],[13,35],[55,41],[41,-12],[18,103],[-33,39]],[[2232,3053],[-33,-117],[80,-46],[26,-31],[66,-48],[95,-10],[-32,-36],[50,-29]],[[2484,2736],[-61,-149],[61,-43]],[[2484,2544],[-1,-39],[67,-66]],[[2550,2439],[-50,-46],[-89,-66],[-24,2],[-84,-55],[-120,-91],[-50,-8],[27,-62],[-33,-25],[10,-34]],[[2137,2054],[-27,44],[-67,144],[-30,66],[-34,19],[-128,173],[-60,106],[62,71],[52,112],[12,108],[27,124]],[[2615,2842],[-35,-71],[4,-44],[-22,-40]],[[2562,2687],[-78,49]],[[2301,5117],[22,5],[68,62],[32,4],[44,44],[82,-29],[38,1],[28,-57],[29,-28],[30,0],[55,-34],[-1,-30],[28,-53],[29,-9],[20,-41],[149,238],[25,-25],[92,-43],[64,131],[115,-47]],[[1873,3897],[2,211],[-71,-4],[4,52],[3,438]],[[2314,1782],[157,117],[22,47],[33,-24],[68,131],[26,11],[63,-7],[25,-27],[31,-2],[40,73],[69,64]],[[2848,2165],[130,-28],[78,-117],[-19,-100]],[[3037,1920],[-106,-56],[-39,19],[-126,-209],[-32,20],[-103,-70],[-66,-61],[-43,-56]],[[2522,1507],[-88,113],[-120,162]],[[2550,2439],[35,23],[156,76]],[[2741,2538],[2,-9],[144,-242],[50,-4],[-34,-107],[-55,-11]],[[2314,1782],[-177,272]],[[2562,2687],[-78,-143]],[[2780,2761],[-9,-57],[3,-71],[-29,-57],[-4,-38]],[[3498,1388],[-56,45],[-15,42],[1,49],[-47,55],[-45,65],[-46,35],[-64,17],[-59,59]],[[3167,1755],[-22,36],[-71,11],[-57,26],[5,36],[54,56],[-39,0]],[[3167,1755],[-137,-175],[57,4],[74,-22],[78,-46],[20,-44],[55,-71],[10,-29],[78,-55],[4,-16],[60,-49],[94,-115],[9,-50],[52,-49],[-81,-67],[12,-35],[-47,-12],[-24,46],[-92,101],[-2,35],[-59,87],[-13,49],[-51,-7],[-94,-47],[-38,6],[-37,-40],[3,-36]],[[3098,1118],[-66,-3],[-32,35],[-155,-19],[-2,53],[-33,28],[-66,26],[-42,28],[-180,241]],[[4276,540],[-24,-140],[35,-38],[-39,-48],[5,-93],[-80,-5],[-12,-78],[-13,-93],[-43,-4],[-15,-41],[-93,11],[-25,28],[-88,4],[-136,-30],[8,24],[72,29],[-29,44],[-176,-46],[-18,37],[-31,75],[-98,214],[-82,167],[-37,-1],[-44,-30],[-45,67],[-38,27],[-18,47],[-70,13],[-150,78],[0,90],[38,66],[-8,132],[58,-6],[75,-22],[24,17],[-41,31],[-40,52]]],"transform":{"scale":[0.00016158198379209574,0.00017851067479845604],"translate":[34.85319927451685,0.005493064095974629]},"objects":{"wards.027.final":{"type":"GeometryCollection","geometries":[{"arcs":[[0,1,2,3]],"type":"Polygon","properties":{"code":"0701","name":"Moi's Bridge","constituency_code":"141","county_code":"027"}},{"arcs":[[4,-4,5,6]],"type":"Polygon","properties":{"code":"0702","name":"Kapkures","constituency_code":"141","county_code":"027"}},{"arcs":[[-3,7,8,9,10,11,-6]],"type":"Polygon","properties":{"code":"0703","name":"Ziwa","constituency_code":"141","county_code":"027"}},{"arcs":[[12,13,-11,14,15,16,17,18]],"type":"Polygon","properties":{"code":"0706","name":"Soy","constituency_code":"141","county_code":"027"}},{"arcs":[[-17,19,20,21]],"type":"Polygon","properties":{"code":"0707","name":"Kuinet/kapsuswa","constituency_code":"141","county_code":"027"}},{"arcs":[[22,23]],"type":"Polygon","properties":{"code":"0708","name":"Ngenyilel","constituency_code":"142","county_code":"027"}},{"arcs":[[24,25,26,-23]],"type":"Polygon","properties":{"code":"0709","name":"Tapsagoi","constituency_code":"142","county_code":"027"}},{"arcs":[[27,-19,28,29,30,31,-26]],"type":"Polygon","properties":{"code":"0710","name":"Kamagut","constituency_code":"142","county_code":"027"}},{"arcs":[[-18,-22,32,33,34,-29]],"type":"Polygon","properties":{"code":"0711","name":"Kiplombe","constituency_code":"142","county_code":"027"}},{"arcs":[[-30,-35,35,36,37]],"type":"Polygon","properties":{"code":"0712","name":"Kapsaos","constituency_code":"142","county_code":"027"}},{"arcs":[[-34,38,39,-36]],"type":"Polygon","properties":{"code":"0713","name":"Huruma","constituency_code":"142","county_code":"027"}},{"arcs":[[40,41,42,43]],"type":"Polygon","properties":{"code":"0714","name":"Tembelio","constituency_code":"143","county_code":"027"}},{"arcs":[[-16,44,45,-44,46,-20]],"type":"Polygon","properties":{"code":"0715","name":"Sergoit","constituency_code":"143","county_code":"027"}},{"arcs":[[-9,47,48,49]],"type":"Polygon","properties":{"code":"0716","name":"Karuna/meibeki","constituency_code":"143","county_code":"027"}},{"arcs":[[-10,-50,-45,-15]],"type":"Polygon","properties":{"code":"0717","name":"Moiben","constituency_code":"143","county_code":"027"}},{"arcs":[[-21,-47,50,51,-39,-33]],"type":"Polygon","properties":{"code":"0718","name":"Kimumu","constituency_code":"143","county_code":"027"}},{"arcs":[[-43,52,53,54,-51]],"type":"Polygon","properties":{"code":"0719","name":"Kapsoya","constituency_code":"144","county_code":"027"}},{"arcs":[[-42,55,56,57,-53]],"type":"Polygon","properties":{"code":"0720","name":"Kaptagat","constituency_code":"144","county_code":"027"}},{"arcs":[[-57,58,59,60]],"type":"Polygon","properties":{"code":"0721","name":"Ainabkoi/olare","constituency_code":"144","county_code":"027"}},{"arcs":[[-31,-38,61,62,63,64,65]],"type":"Polygon","properties":{"code":"0722","name":"Simat/kapseret","constituency_code":"145","county_code":"027"}},{"arcs":[[-37,-40,66,67,-62]],"type":"Polygon","properties":{"code":"0723","name":"Kipkenyo","constituency_code":"145","county_code":"027"}},{"arcs":[[-2,68,-48,-8]],"type":"Polygon","properties":{"code":"0704","name":"Segero/barsombe","constituency_code":"141","county_code":"027"}},{"arcs":[[69,-7,-12,-14]],"type":"Polygon","properties":{"code":"0705","name":"Kipsomba","constituency_code":"141","county_code":"027"}},{"arcs":[[70,71,72,73]],"type":"Polygon","properties":{"code":"0725","name":"Megun","constituency_code":"145","county_code":"027"}},{"arcs":[[-65,74,75,-71,76]],"type":"Polygon","properties":{"code":"0724","name":"Ngeria","constituency_code":"145","county_code":"027"}},{"arcs":[[-63,-68,77]],"type":"Polygon","properties":{"code":"0726","name":"Langas","constituency_code":"145","county_code":"027"}},{"arcs":[[-52,-55,78,-75,-64,-78,-67]],"type":"Polygon","properties":{"code":"0727","name":"Racecourse","constituency_code":"146","county_code":"027"}},{"arcs":[[-54,-58,-61,79,80,-72,-76,-79]],"type":"Polygon","properties":{"code":"0728","name":"Cheptiret/kipchamo","constituency_code":"146","county_code":"027"}},{"arcs":[[-73,-81,81,82]],"type":"Polygon","properties":{"code":"0729","name":"Tulwet/chuiyat","constituency_code":"146","county_code":"027"}},{"arcs":[[-60,83,-82,-80]],"type":"Polygon","properties":{"code":"0730","name":"Tarakwa","constituency_code":"146","county_code":"027"}}]}}}