{"type":"Topology","arcs":[[[2241,6067],[23,-22],[12,-81],[16,-17],[4,-65],[29,-24],[32,-84],[28,-42],[65,-27],[35,-115],[23,-209],[43,-9],[35,16],[43,0],[124,35],[30,-4],[37,-34]],[[2820,5385],[-34,-54],[1,-80],[-107,-83],[-60,-26],[-66,-54],[-29,-35],[53,-20],[-33,-44],[30,-53],[3,-60],[21,-41],[-10,-66]],[[2589,4769],[-183,-54],[-66,-3],[-92,-18]],[[2248,4694],[-68,10],[-46,-29],[-91,4],[-18,-34]],[[2025,4645],[-10,36],[3,88],[-55,20],[6,29],[-31,20],[-53,-5],[-34,35],[-14,35],[7,68],[-17,87],[57,17],[-10,56],[-23,30],[1,108],[-6,52],[7,53],[-31,57],[-56,79],[-29,67],[-32,48],[-9,37]],[[1696,5662],[84,63],[284,212],[177,130]],[[2820,5385],[46,-21],[34,-33],[37,-9]],[[2937,5322],[-39,-55],[-6,-50],[99,-14],[61,-31],[65,-7],[87,-24],[9,-16],[80,-16]],[[3293,5109],[-35,-104],[9,-56],[-46,-64],[22,-9],[-41,-62],[-26,2],[-83,-37],[-27,-46]],[[3066,4733],[-121,37],[-111,-15]],[[2834,4755],[-37,-8],[-98,10],[-64,-6],[-46,18]],[[2872,2319],[13,-39],[-22,-60],[-39,-44],[-12,-57],[22,-47],[-23,-47],[61,-53],[14,-30],[-6,-50],[109,-61],[9,-88],[43,-40],[26,-39],[27,-82],[26,-31],[21,-74],[-8,-40],[44,-94],[-36,-71],[37,-55],[21,-12]],[[3199,1205],[-147,-120],[-13,-42],[-33,-41],[-118,1],[-56,32],[-61,12],[-40,-5]],[[2731,1042],[-23,74],[3,71],[12,8]],[[2723,1195],[-33,100],[7,61],[-14,36],[-73,67],[10,73],[-12,54],[-36,23],[-5,43],[-62,76],[-94,82],[-24,65],[-32,39],[-11,39],[-34,51],[-57,9]],[[2253,2013],[-34,16],[-23,55]],[[2196,2084],[71,36],[76,57],[48,0],[47,17],[50,-6],[44,24],[91,31],[53,-3],[120,60],[76,19]],[[3199,1205],[107,-77],[40,-4],[54,-39],[23,1],[61,-34],[69,-21],[10,-26],[-24,-36],[22,-17],[-19,-56],[-44,-83],[13,-176],[-11,-83],[-21,-38],[0,-34],[45,-55],[30,-64],[10,-74],[-4,-56],[-35,-31],[-56,-12],[-38,-52],[-44,-29]],[[3387,109],[-1,13],[-246,59],[-156,30],[5,-47],[-228,22],[28,37],[33,8],[53,69],[57,49]],[[2932,349],[27,10],[62,47],[-26,94],[46,49],[-5,41],[48,46],[-43,8],[-52,25],[-208,-107],[-78,22],[-114,50],[-3,73],[70,104],[20,17]],[[2676,828],[52,155],[3,59]],[[2333,228],[32,48],[58,25],[-35,27],[-40,6],[-93,-8],[-51,-21],[-57,40],[-65,103],[58,40],[-22,32],[24,60],[27,27],[1,119],[-19,96]],[[2151,822],[218,3],[30,37],[111,-20],[97,4],[69,-18]],[[2932,349],[-95,64],[-58,12],[14,-63],[-28,-26],[1,-49],[-49,-19],[-15,-27],[-163,20],[-36,-25],[-18,26],[-73,-55],[-79,21]],[[2737,6188],[104,-20],[32,12],[28,47],[86,46],[7,16],[84,22],[172,61],[152,22],[9,-31],[-13,-54],[1,-76],[-10,-14],[51,-74],[27,-15],[-24,-53],[-23,-23],[17,-97],[-18,-32],[29,-45],[-46,-67],[4,-71],[35,-19],[-1,-82],[14,-91],[-9,-23],[12,-47],[-1,-118],[-28,-28],[7,-31],[-31,-65],[13,-36],[-44,-9],[-41,-35],[-39,-49]],[[2937,5322],[25,126],[-2,47],[30,98],[-38,140],[14,37],[-9,67],[-20,51],[-47,42],[-10,36],[-38,15],[-39,50],[-54,30],[-34,36],[22,91]],[[2241,6067],[40,28],[160,112],[101,4],[65,31],[61,-2],[69,-52]],[[2025,4645],[-6,-77],[-50,23],[-69,-7],[-67,18],[-23,21],[-44,-19],[-25,-94],[13,-20]],[[1754,4490],[-197,59],[-47,22],[-56,44],[-83,93],[7,67],[-3,89],[-31,17],[7,63],[-41,-27],[-45,-6],[-121,-46],[-22,-25]],[[1122,4840],[6,63],[48,20],[76,154],[18,2],[47,46],[-18,91],[-24,52],[-60,67]],[[1215,5335],[64,28],[215,156],[202,143]],[[1122,4840],[-54,-1],[-47,-19]],[[1021,4820],[-13,7],[-254,139],[-186,67],[-150,226],[-49,8],[-54,5],[-122,178],[-140,173],[-53,106],[260,-110],[344,-144],[15,-1],[320,-131],[141,-60],[135,52]],[[1866,4084],[-222,27],[-3,29],[36,140],[-222,35],[-45,-48],[-116,47],[-95,16],[-22,87],[-19,27],[12,29],[80,39],[-53,119],[2,18],[113,20],[5,54],[-67,26],[-229,71]],[[1754,4490],[18,-44],[90,-26],[-9,-34],[37,-84],[-8,-24],[30,-43],[-25,-33],[-1,-57],[-20,-61]],[[2113,3765],[17,47],[-30,67],[0,58],[-201,-2],[22,49],[23,17],[8,45],[26,25],[-112,13]],[[2248,4694],[-14,-29],[-17,-98],[18,-48],[76,-71],[23,-70],[78,-82],[71,-110],[6,-33],[32,-27],[5,-51],[24,-92],[-90,-60],[-28,-33],[-74,-19],[-8,-23],[-66,-18]],[[2284,3830],[-171,-65]],[[2834,4755],[-22,-28],[-1,-106],[-19,-56],[2,-72],[-65,-114],[26,-74],[-14,-25],[29,-45],[-26,-56],[18,-57],[4,-48],[-17,-29],[13,-82],[-88,4],[14,-61],[-13,-49]],[[2675,3857],[-74,-21],[-14,-27]],[[2587,3809],[-165,0],[-39,-11],[-35,-29],[-64,61]],[[3066,4733],[-12,-72],[-36,-66],[25,-93],[-30,-39],[19,-31],[-6,-38],[-44,-36],[14,-35],[18,-137],[14,-16],[-16,-36],[-54,-24],[9,-95],[-33,-25],[28,-41],[-13,-29],[0,-62]],[[2949,3858],[-100,-19],[-5,-1],[-169,19]],[[2002,2074],[29,129],[24,132],[-130,194],[-139,178],[-38,45],[-139,218],[248,2]],[[1857,2972],[-26,-57],[35,-13],[7,-29],[69,0],[183,-35],[-3,-29],[20,-34],[42,-18],[5,-29],[53,-5]],[[2242,2723],[39,-145],[-17,-76],[-12,-129],[-29,-156],[2,-84],[-29,-49]],[[2253,2013],[-1,-25],[-86,-20],[-72,-7],[-92,113]],[[2949,3858],[10,-47],[104,-92],[-20,-16],[-7,-57],[30,-16],[-5,-35],[-26,-13],[-32,-56],[15,-39],[-1,-76],[-20,-70],[-15,-8],[-26,-78],[9,-42],[-36,-39],[9,-59],[51,-55]],[[2989,3060],[-87,-17],[-189,-1],[-99,-6],[-52,25],[-94,4],[-66,18]],[[2402,3083],[37,174],[27,40],[12,45],[-65,78],[-1,84],[27,60],[26,34],[27,92],[55,35],[40,84]],[[2242,2723],[19,34],[21,117],[30,43],[82,64],[8,102]],[[2989,3060],[21,-66],[-13,-87],[-53,-39],[6,-26],[-126,-57],[1,-38],[31,-103],[-59,-74],[-19,-39],[-7,-71],[10,-48],[97,-66],[-6,-27]],[[1857,2972],[331,-8],[17,52],[-37,16],[-36,73],[41,161],[0,273],[-4,80],[-39,19],[-74,-6],[53,108],[4,25]],[[2723,1195],[-47,6],[-106,31],[-58,-9],[-78,11],[-41,19],[-178,25],[-122,25],[-42,-60]],[[2051,1243],[-9,12],[-4,87],[-96,98],[-11,66],[15,366],[56,202]],[[2151,822],[0,41],[-5,3],[-3,4],[13,56],[-10,42],[-49,39],[-35,7],[-3,35],[-52,31],[-26,34],[19,38],[41,23],[18,47],[-8,21]],[[3387,109],[-17,-17],[21,-42],[-1,-11],[-138,-39],[-524,2],[-70,54],[-16,27],[-42,11],[0,63],[-84,-47],[-261,-10],[37,54],[1,28],[40,46]]],"transform":{"scale":[0.00016026923585619543,0.00017970445994055552],"translate":[35.152373621581305,0.16795103593008173]},"objects":{"wards.028.final":{"type":"GeometryCollection","geometries":[{"arcs":[[0,1,2,3,4,5]],"type":"Polygon","properties":{"code":"0731","name":"Kapyego","constituency_code":"147","county_code":"028"}},{"arcs":[[-2,6,7,8,9,10]],"type":"Polygon","properties":{"code":"0732","name":"Sambirir","constituency_code":"147","county_code":"028"}},{"arcs":[[11,12,13,14,15,16]],"type":"Polygon","properties":{"code":"0747","name":"Soy North","constituency_code":"150","county_code":"028"}},{"arcs":[[-13,17,18,19,20]],"type":"Polygon","properties":{"code":"0748","name":"Soy South","constituency_code":"150","county_code":"028"}},{"arcs":[[21,22,-20,23]],"type":"Polygon","properties":{"code":"0749","name":"Kabiemit","constituency_code":"150","county_code":"028"}},{"arcs":[[24,-8,25]],"type":"Polygon","properties":{"code":"0733","name":"Endo","constituency_code":"147","county_code":"028"}},{"arcs":[[-26,-7,-1,26]],"type":"Polygon","properties":{"code":"0734","name":"Embobut / Embulot","constituency_code":"147","county_code":"028"}},{"arcs":[[-5,27,28,29,30]],"type":"Polygon","properties":{"code":"0735","name":"Lelan","constituency_code":"148","county_code":"028"}},{"arcs":[[-30,31,32]],"type":"Polygon","properties":{"code":"0736","name":"Sengwer","constituency_code":"148","county_code":"028"}},{"arcs":[[33,-32,-29,34]],"type":"Polygon","properties":{"code":"0737","name":"Cherang'any/chebororwa","constituency_code":"148","county_code":"028"}},{"arcs":[[35,-35,-28,-4,36,37]],"type":"Polygon","properties":{"code":"0738","name":"Moiben/kuserwo","constituency_code":"148","county_code":"028"}},{"arcs":[[-3,-11,38,39,40,-37]],"type":"Polygon","properties":{"code":"0739","name":"Kapsowar","constituency_code":"148","county_code":"028"}},{"arcs":[[-10,41,42,-39]],"type":"Polygon","properties":{"code":"0740","name":"Arror","constituency_code":"148","county_code":"028"}},{"arcs":[[43,44,45,-16,46]],"type":"Polygon","properties":{"code":"0742","name":"Kamariny","constituency_code":"149","county_code":"028"}},{"arcs":[[47,48,49,-40,-43]],"type":"Polygon","properties":{"code":"0741","name":"Emsoo","constituency_code":"149","county_code":"028"}},{"arcs":[[-17,-46,50,-49,51]],"type":"Polygon","properties":{"code":"0744","name":"Tambach","constituency_code":"149","county_code":"028"}},{"arcs":[[52,-38,-41,-50,-51,-45]],"type":"Polygon","properties":{"code":"0743","name":"Kapchemutwa","constituency_code":"149","county_code":"028"}},{"arcs":[[-47,-15,53,54]],"type":"Polygon","properties":{"code":"0745","name":"Kaptarakwa","constituency_code":"150","county_code":"028"}},{"arcs":[[-54,-14,-21,-23,55]],"type":"Polygon","properties":{"code":"0746","name":"Chepkorio","constituency_code":"150","county_code":"028"}},{"arcs":[[-24,-19,56]],"type":"Polygon","properties":{"code":"0750","name":"Metkei","constituency_code":"150","county_code":"028"}}]}}}