{"type":"Topology","arcs":[[[290,1146],[61,6],[30,-28],[83,38],[28,38],[-1,28],[36,64],[60,-30],[67,-48],[115,-65]],[[769,1149],[-27,-83],[9,-50],[-23,-91],[3,-56],[48,19],[43,-20],[15,-25],[-10,-44],[18,-26],[8,-71],[-24,-14],[44,-86],[-53,-40]],[[820,562],[-8,-34],[16,-49]],[[828,479],[-49,-14],[-61,-2],[-23,20],[16,46],[-80,-16],[-109,21],[-83,-11],[-310,-8],[-107,36],[-22,26],[7,46],[39,62],[65,20],[67,-7],[59,48],[90,22],[22,27],[84,2],[64,37],[1,88],[-13,48],[-75,15],[-44,-25],[-44,39],[-7,55],[-52,1],[-14,34],[41,57]],[[769,1149],[-10,85]],[[759,1234],[64,-43],[38,17],[153,-18],[125,34],[83,13]],[[1222,1237],[45,-196],[39,-49]],[[1306,992],[-3,-18],[-73,-118],[-52,-27],[-34,11],[-54,-37],[-2,-41],[35,-54],[34,-30]],[[1157,678],[-50,-50],[-71,-37],[-37,5],[-88,-20],[-33,-23],[-58,9]],[[1222,1237],[-1,65],[-19,36],[47,77],[57,37],[-4,28]],[[1302,1480],[56,-24],[36,14],[56,-18],[41,9],[36,-23],[59,9],[48,90],[48,1],[18,37],[60,27],[71,-6],[14,-15]],[[1845,1581],[51,-52],[56,22],[25,-17]],[[1977,1534],[9,-38],[-108,-67],[36,-70],[-9,-49],[-47,-74],[-8,-33]],[[1850,1203],[6,-50],[-40,-52],[2,-50],[-34,-40],[-31,-13]],[[1753,998],[-37,50],[-37,12],[-50,46],[-44,14],[-63,-42],[33,-46],[-102,-47],[-41,-52],[-76,60],[-30,-1]],[[1753,998],[-22,-35],[10,-50],[58,-80]],[[1799,833],[-2,-24],[-55,-47],[-5,-87],[-25,-28],[-142,-3],[-27,38],[-22,-66],[-35,45],[-101,-19],[-31,-21],[-152,-5],[-13,52],[-32,10]],[[1977,1534],[85,-13],[34,35],[32,-3],[31,27],[102,45],[42,38]],[[2303,1663],[55,31],[41,-11],[31,-50],[21,-7],[24,-166],[-15,-76],[-74,-129],[15,-85],[27,-73]],[[2428,1097],[-95,2],[-32,-13],[-16,28],[-71,6],[-72,81],[-48,8],[-16,-49],[-33,-16],[-17,43],[-139,28],[-39,-12]],[[2303,1663],[40,116],[62,10],[48,41],[-3,51],[50,21],[17,-39],[60,40],[-11,57],[21,13],[153,48],[54,-22]],[[2794,1999],[12,-115],[-12,-65],[32,-90],[73,-49],[188,-104]],[[3087,1576],[-74,-49],[-13,-50],[-95,-42],[-59,1],[-59,-90],[28,-24],[-7,-37],[98,-17],[60,-80],[51,-36],[-8,-21]],[[3009,1131],[-76,23],[-49,-2],[-76,-112],[-75,-17],[-62,-30]],[[2671,993],[38,37],[6,61],[-79,51],[-44,-6],[-82,11],[-52,-93],[-30,43]],[[2314,3253],[68,-162],[26,-49],[176,-306],[120,-182]],[[2704,2554],[-67,-10],[-39,-22],[-21,-80],[6,-63],[-54,26],[-60,6],[-42,19],[-37,-26],[-49,-4]],[[2341,2400],[-1,78],[17,80],[-40,60],[-145,23],[-9,26],[38,40],[-51,66],[-154,49]],[[1996,2822],[-32,26],[-32,2]],[[1932,2850],[11,53],[35,39],[-22,139],[39,44],[19,44],[37,46],[149,30],[77,45],[37,-37]],[[634,1653],[24,7],[44,87]],[[702,1747],[61,21],[21,57],[54,-19],[-12,-50],[100,-32],[76,27],[19,-34]],[[1021,1717],[15,-40],[75,20],[28,-60],[81,-49]],[[1220,1588],[35,-86],[47,-22]],[[759,1234],[-14,76],[-5,124],[6,49],[-139,48],[27,122]],[[1220,1588],[82,5],[86,-27],[38,14],[22,49],[33,3],[6,71],[20,24],[-48,119],[43,48],[-9,25]],[[1493,1919],[43,-16],[110,20],[58,40],[-45,69],[-2,51],[83,-19],[18,-98],[105,14],[52,-10],[53,27]],[[1968,1997],[-3,-61],[35,-46],[-35,-51],[-31,-22],[64,-82],[-33,-38],[-12,-82],[-51,-3],[-57,-31]],[[1968,1997],[2,51]],[[1970,2048],[63,-32],[38,-38],[90,81],[-2,26],[52,73],[-43,131],[145,103],[28,8]],[[2704,2554],[87,-128],[179,-271],[41,-32]],[[3011,2123],[-14,-47],[-30,2],[-26,-30],[-63,-38],[-84,-11]],[[290,1146],[11,37],[29,29],[-17,68],[12,63],[-15,20],[11,59],[80,92],[64,34],[6,37],[113,62],[50,6]],[[1629,4161],[177,-75],[30,107],[19,-37],[50,-29],[61,-4],[44,-16],[48,-43],[97,16],[61,51],[-26,-140],[-12,-122],[-52,-126],[-62,-79]],[[2064,3664],[-43,4],[-29,51],[-104,209],[-45,47],[-15,-99],[-41,-35],[29,-49],[16,-90],[-11,-21]],[[1821,3681],[-32,-18],[-49,37],[-33,-4],[-73,42],[-23,-15],[-38,-106],[-40,31],[-40,12]],[[1493,3660],[29,120],[-4,17],[25,121],[86,243]],[[1493,1919],[-2,133],[-33,63],[3,25]],[[1461,2140],[24,8],[15,54],[29,22],[25,46],[-9,49],[36,63],[46,60],[55,16],[19,21]],[[1701,2479],[59,-104],[16,-72],[42,-66],[60,-41],[65,-28],[27,-120]],[[923,3228],[34,34],[46,17],[53,3],[-7,-94],[3,-91],[50,-10],[125,-5],[42,65],[16,51],[49,13]],[[1334,3211],[37,0],[76,-25],[36,26],[50,-15],[88,-81],[28,-14]],[[1649,3102],[-2,-65],[-15,-59],[-99,-135],[-49,27],[-72,-16],[-6,-72],[-41,-14],[-172,-105],[-67,-131],[-134,-157]],[[992,2375],[-78,167],[-80,186],[-16,119],[-12,104],[69,-40],[41,117],[7,200]],[[3009,1131],[-8,-23],[44,-91],[61,4],[-7,-111],[15,-53],[-21,-27],[0,-81],[33,2]],[[3126,751],[23,-48],[6,-57],[29,-64],[21,-83],[-33,-2],[-39,-66],[-48,-21],[-110,-96],[109,-163]],[[3084,151],[-178,-83],[-321,-44],[3,243],[-39,180],[-35,39],[-29,3],[-65,37],[-48,1],[-21,-17],[-62,-4]],[[2289,506],[10,19],[82,58],[30,43],[-28,141],[32,98]],[[2415,865],[4,59],[53,11],[15,31],[62,14],[47,-6],[75,19]],[[3126,751],[51,5],[91,31],[11,15],[59,1],[114,-14],[2,133],[9,28],[125,-41],[99,-54],[181,-12]],[[3868,843],[17,-41],[-137,-83],[-19,-22],[-48,-151],[6,-27],[114,-320],[-136,-55],[-19,-13],[-56,-54],[-102,-72],[-18,-5],[-184,11],[-74,37],[-128,103]],[[1799,833],[50,-22],[37,14],[111,-3],[68,58],[46,-8],[60,11],[101,42],[55,-20],[77,-14],[11,-26]],[[2289,506],[-31,5],[-71,-23],[-21,-32],[-77,21],[-249,179],[-15,-41],[-14,-99],[-28,-13],[-20,-70],[-33,-50],[-81,-38],[-56,-77],[-38,81],[-37,-7],[-282,6],[0,5],[4,155],[-119,64],[-1,-30],[-61,-3],[-88,-52],[-44,41],[-43,-29],[-56,-20]],[[3011,2123],[66,-30],[33,-30],[2,-61],[154,22],[31,-39],[66,3],[40,-59],[41,-34],[-24,-19],[-75,24],[-57,7],[8,-149],[-38,-73],[0,-102]],[[3258,1583],[-12,-19],[-46,13],[-29,-50],[-84,49]],[[3258,1583],[149,-87],[70,-15],[18,-53],[37,-31],[45,-75],[44,34],[37,0],[81,-187],[98,-242],[31,-84]],[[1701,2479],[91,48],[40,1],[59,-21],[24,26],[13,77],[-31,34],[5,39],[-40,32],[28,26],[48,-8],[58,89]],[[1057,2216],[-7,36],[-58,123]],[[1649,3102],[44,57],[41,-41],[57,12]],[[1791,3130],[15,-33],[5,-123],[19,-40],[57,-55],[45,-29]],[[1461,2140],[-92,-12],[-76,29],[-83,60],[-153,-1]],[[1059,2205],[-2,11]],[[1021,1717],[51,33],[33,40],[-22,23],[26,194],[-7,117],[-43,81]],[[702,1747],[-28,23],[23,42],[38,125],[25,57],[82,0],[82,207],[33,-5],[102,9]],[[672,3740],[-45,42],[-12,92],[-115,96],[-84,48],[-25,33],[-107,81],[388,28],[416,36]],[[1088,4196],[-9,-186],[24,-55],[69,-48],[-51,-47]],[[1121,3860],[-73,30],[-27,-51],[-23,2],[-29,-85],[-71,21],[-27,32],[-34,-5],[-44,15],[-26,-46],[-44,-29],[-51,-4]],[[1088,4196],[138,15],[243,20],[160,-70]],[[1493,3660],[-30,-40],[-54,-19],[-25,-43],[31,-43],[-9,-34],[-42,-32],[-66,-12]],[[1298,3437],[-99,55],[-14,51],[19,42],[-22,37],[-45,8],[-6,44],[28,40],[-51,48],[2,83],[11,15]],[[1298,3437],[-14,-14],[-8,-72],[30,-42],[-4,-45],[32,-53]],[[923,3228],[0,84],[-22,43],[-83,168],[-85,153],[-61,63],[0,1]],[[1821,3681],[17,-124],[-24,-31],[57,-136],[-4,-43],[-24,-39],[-33,-19],[-35,-138],[16,-21]],[[2064,3664],[60,-119],[127,-196],[34,-22],[29,-74]]],"transform":{"scale":[0.00016254368925963574,0.00015855036888759355],"translate":[34.80708443298639,-0.11014665907532896]},"objects":{"wards.029.final":{"type":"GeometryCollection","geometries":[{"arcs":[[0,1,2,3]],"type":"Polygon","properties":{"code":"0757","name":"Kemeloi-Maraba","constituency_code":"152","county_code":"029"}},{"arcs":[[-2,4,5,6,7,8]],"type":"Polygon","properties":{"code":"0758","name":"Kobujoi","constituency_code":"152","county_code":"029"}},{"arcs":[[-7,9,10,11,12,13,14]],"type":"Polygon","properties":{"code":"0759","name":"Kaptumo-Kaboi","constituency_code":"152","county_code":"029"}},{"arcs":[[-8,-15,15,16]],"type":"Polygon","properties":{"code":"0760","name":"Koyo-Ndurio","constituency_code":"152","county_code":"029"}},{"arcs":[[-13,17,18,19]],"type":"Polygon","properties":{"code":"0761","name":"Nandi Hills","constituency_code":"153","county_code":"029"}},{"arcs":[[-19,20,21,22,23,24]],"type":"Polygon","properties":{"code":"0762","name":"Chepkunyuk","constituency_code":"153","county_code":"029"}},{"arcs":[[25,26,27,28,29]],"type":"Polygon","properties":{"code":"0767","name":"Lelmokwo/ngechek","constituency_code":"154","county_code":"029"}},{"arcs":[[30,31,32,33,-10,-6,34]],"type":"Polygon","properties":{"code":"0770","name":"Chepkumia","constituency_code":"155","county_code":"029"}},{"arcs":[[-11,-34,35,36,37]],"type":"Polygon","properties":{"code":"0772","name":"Kapsabet","constituency_code":"155","county_code":"029"}},{"arcs":[[-12,-38,38,39,-27,40,41,-21,-18]],"type":"Polygon","properties":{"code":"0773","name":"Kilibwoni","constituency_code":"155","county_code":"029"}},{"arcs":[[-35,-5,-1,42]],"type":"Polygon","properties":{"code":"0755","name":"Kabwareng","constituency_code":"152","county_code":"029"}},{"arcs":[[43,44,45,46]],"type":"Polygon","properties":{"code":"0778","name":"Ndalat","constituency_code":"156","county_code":"029"}},{"arcs":[[-37,47,48,49,-39]],"type":"Polygon","properties":{"code":"0765","name":"Chemundu/kapng'etuny","constituency_code":"154","county_code":"029"}},{"arcs":[[50,51,52,53]],"type":"Polygon","properties":{"code":"0780","name":"Sangalo/kebulonik","constituency_code":"156","county_code":"029"}},{"arcs":[[-24,54,55,56,57,58]],"type":"Polygon","properties":{"code":"0751","name":"Songhor/soba","constituency_code":"151","county_code":"029"}},{"arcs":[[-56,59,60]],"type":"Polygon","properties":{"code":"0752","name":"Tindiret","constituency_code":"151","county_code":"029"}},{"arcs":[[-3,-9,-17,61,-58,62]],"type":"Polygon","properties":{"code":"0753","name":"Chemelil/chemase","constituency_code":"151","county_code":"029"}},{"arcs":[[-14,-20,-25,-59,-62,-16]],"type":"Polygon","properties":{"code":"0754","name":"Kapsimotwo","constituency_code":"151","county_code":"029"}},{"arcs":[[-22,-42,63,64]],"type":"Polygon","properties":{"code":"0763","name":"Ol'lessos","constituency_code":"153","county_code":"029"}},{"arcs":[[-23,-65,65,-60,-55]],"type":"Polygon","properties":{"code":"0764","name":"Kapchorua","constituency_code":"153","county_code":"029"}},{"arcs":[[-28,-40,-50,66]],"type":"Polygon","properties":{"code":"0766","name":"Kosirai","constituency_code":"154","county_code":"029"}},{"arcs":[[67,-53,68,69,-29,-67,-49,70]],"type":"Polygon","properties":{"code":"0768","name":"Kaptel/kamoiywo","constituency_code":"154","county_code":"029"}},{"arcs":[[71,-71,-48,-36,-33,72]],"type":"Polygon","properties":{"code":"0769","name":"Kiptuya","constituency_code":"154","county_code":"029"}},{"arcs":[[73,-73,-32]],"type":"Polygon","properties":{"code":"0771","name":"Kapkangani","constituency_code":"155","county_code":"029"}},{"arcs":[[74,75,76]],"type":"Polygon","properties":{"code":"0774","name":"Chepterwai","constituency_code":"156","county_code":"029"}},{"arcs":[[77,-47,78,79,-76]],"type":"Polygon","properties":{"code":"0775","name":"Kipkaren","constituency_code":"156","county_code":"029"}},{"arcs":[[-77,-80,80,-51,81]],"type":"Polygon","properties":{"code":"0776","name":"Kurgung/surungai","constituency_code":"156","county_code":"029"}},{"arcs":[[-46,82,-69,-52,-81,-79]],"type":"Polygon","properties":{"code":"0777","name":"Kabiyet","constituency_code":"156","county_code":"029"}},{"arcs":[[83,-30,-70,-83,-45]],"type":"Polygon","properties":{"code":"0779","name":"Kabisaga","constituency_code":"156","county_code":"029"}}]}}}