{"type":"Topology","arcs":[[[3454,7274],[-1,-2]],[[3453,7272],[-35,-27],[-65,2],[-30,-10],[-101,13],[-58,-3],[-31,36],[-10,47],[-27,39],[-64,18],[-46,25],[-7,45],[-41,13],[-31,62],[-36,20],[-23,-15],[-57,-2],[-152,16]],[[2639,7551],[-146,27],[-134,37],[-133,29],[-31,23],[-47,-7],[-113,23],[-296,4],[-160,7],[-30,11],[-126,11],[-58,13],[-136,2],[-78,25],[-64,6]],[[1087,7762],[23,50],[-26,14],[-49,70],[9,13],[-1,71],[13,51],[-9,29],[22,39],[-55,66],[-21,40],[18,25],[-17,33],[42,62],[3,35],[46,48],[-24,21],[24,32],[7,28],[44,-3],[-26,41],[7,61],[-15,40],[20,13],[-12,43],[31,15],[3,28],[45,18],[18,39],[-23,51],[72,100],[49,55],[17,34],[55,5],[24,56],[38,14],[14,72],[32,9],[-6,52],[33,43],[10,100],[46,52],[-24,40],[19,23],[-8,57],[33,20],[-34,43],[-4,36],[60,11],[-8,25],[-45,18],[-24,55],[50,61],[303,-414],[446,-601],[157,-217],[76,-112],[61,-74],[117,-163],[123,-163],[107,-149],[188,-251],[293,-398]],[[2639,7551],[-33,-39],[-8,-48],[-43,-2],[-27,-58],[-19,-128],[-27,-32],[-64,-29],[-54,-9],[-115,-45],[-57,-36],[-18,-25],[-56,-24],[-17,-19],[-185,-283],[-30,-76],[-10,-67],[29,-93],[-28,-50],[-10,-99],[4,-64],[-7,-77],[5,-61]],[[1869,6187],[-40,29],[-58,12],[-67,-17],[-49,9],[-50,-9],[-31,34],[-101,75],[-38,-5],[-78,-51],[-131,-77],[-232,-129],[-47,48],[-56,39],[-4,34],[-71,44],[-35,-12],[-90,8]],[[691,6219],[-18,30],[28,36],[-23,87],[34,61],[12,69],[26,42],[80,36],[25,-3],[39,59],[-21,8],[44,60],[-8,52],[33,98],[38,46],[39,33],[42,8],[-12,34],[30,61],[-6,29],[26,27],[1,110],[-11,44],[9,22],[-14,85],[1,77],[-33,18],[-4,67],[43,63],[-27,42],[17,30],[-16,90],[22,22]],[[3453,7272],[1,-50],[-22,-47],[-29,-109],[-25,-38],[-8,-41],[-46,-54],[-28,-88],[4,-36],[-48,-167],[-56,-50],[-35,1],[-6,-41],[-87,3],[-39,-22],[0,-64],[-29,-40],[-7,-32],[19,-22],[6,-48],[-21,-55],[-60,-32],[3,-54]],[[2940,6186],[22,-27],[-25,-39],[27,-46],[-26,-11],[-1,-37],[-27,-51],[15,-20],[-5,-64],[-49,-93],[-63,-57],[-33,-46],[0,-32],[-53,-31],[-15,-54]],[[2707,5578],[-56,28],[-20,40],[-75,61],[-35,-22],[-28,-38],[-95,-33],[-17,39],[-29,32],[-14,45],[-2,51],[-65,36],[6,28],[-21,49],[-387,293]],[[3454,7274],[333,8],[128,1],[111,-123],[150,-154],[110,-130],[154,-163],[280,-306]],[[4720,6407],[-18,-36]],[[4702,6371],[-108,-23],[-222,-37],[-286,-13],[-189,9],[-190,-12],[-29,-37],[-48,-40],[-76,0],[-96,-39],[-117,44],[-92,22],[-111,59],[-45,-158],[-48,10],[-79,33],[-26,-3]],[[4702,6371],[-28,-59],[-151,-111],[-167,-138],[-133,-125],[-64,-95],[-100,-110],[-39,-92],[3,-27],[-41,-21],[-18,-37],[-42,-17],[-35,-43],[-53,-32],[-14,55],[-35,-27],[-34,8],[-19,24],[-31,3],[-13,58],[-19,5],[-125,-51],[-6,-23],[-48,-56],[-4,-29],[-57,-34],[-41,18],[-85,16],[-324,-171],[67,-110],[67,-43],[42,-37],[-20,-30],[55,-12],[23,52],[15,6],[46,119],[23,29],[51,-5],[74,-51],[50,-58],[-52,-28],[-16,-25],[-49,-25],[-26,-36],[-73,-195]],[[3256,4811],[-80,93],[-71,45],[-45,-26],[-27,15],[48,51],[-31,11],[-77,-14],[-94,26],[-48,21],[-103,32],[-31,1],[-45,23],[15,28],[-23,57],[3,38],[-39,26],[-11,41],[83,88],[19,52],[-21,37],[22,58],[18,18]],[[2718,5532],[-11,46]],[[2485,1607],[-31,-67],[198,-191],[42,-44],[36,-21],[10,-38],[-23,-54],[-9,-56],[-18,-35],[-60,-57],[5,-22],[-37,-41],[-34,-73],[-64,-37],[-17,-41],[-45,-19],[4,-34],[-69,-26],[-94,174],[-44,-12],[-101,79]],[[2134,992],[-32,37],[-39,68],[-47,62],[-54,32],[-24,53],[-68,38],[-65,-5]],[[1805,1277],[52,41],[6,62],[28,25],[-17,70],[29,56],[66,43],[45,70],[-139,136],[-107,133],[-27,25],[-61,-19],[-94,-73],[-21,-4]],[[1565,1842],[-135,124],[-134,117],[-56,63],[-63,-1],[-21,16],[-60,-39],[-60,-14]],[[1036,2108],[-19,39],[16,16],[42,27],[37,50],[54,11],[33,29]],[[1199,2280],[38,-25],[48,7],[43,23],[26,-13],[56,49],[61,-13],[59,44],[-4,36],[34,76],[-31,12],[16,53]],[[1545,2529],[35,2],[59,29]],[[1639,2560],[8,-26],[-9,-66],[56,-142],[-15,-64],[15,-44],[79,-30],[72,-63],[64,18],[53,59],[37,-48],[32,-97],[-4,-63],[19,-76],[18,-40],[148,-126],[69,-49],[204,-96]],[[2612,1643],[-97,31],[-30,-67]],[[1639,2560],[16,14],[84,-29],[31,-26],[35,-4],[58,10],[70,-28],[7,22],[109,-39],[62,-31],[7,38],[47,46],[2,65],[28,7],[28,-19],[60,44],[41,14],[3,20],[50,40],[16,40],[-31,35],[6,30],[37,49],[-19,39],[31,54],[-21,54],[14,130],[28,60],[38,20],[134,12],[127,68],[15,15],[68,2]],[[2820,3312],[34,-49]],[[2854,3263],[-6,-93],[-19,-38],[-22,-4],[19,-49],[-8,-41],[14,-58],[-25,-116],[-21,-49],[2,-36],[-30,-100],[431,72],[131,-16],[24,6],[89,-15]],[[3433,2726],[-24,1],[60,-108],[46,-70],[11,-62],[-121,-36],[-29,13],[-51,-3],[-33,-37],[11,-40],[-50,6],[-15,-45],[-182,-16],[17,-50],[-10,-18],[5,-52],[-20,-71],[6,-38],[-78,34],[-72,18],[-50,-1],[-118,48],[-46,-19],[-31,-80],[25,-74],[-10,-61],[2,-47],[-53,33],[-204,141],[32,-96],[12,-77],[20,-45],[91,-145],[38,-86]],[[4089,2402],[-132,-27],[-2,-17],[44,-27],[39,-5],[19,-35],[7,-69],[-4,-4],[-299,-74],[-49,-302],[-25,-64],[-26,-131],[-22,-162],[-131,12],[35,-225],[8,-67],[-62,-46],[-62,-38],[-76,21],[-85,34],[-73,19],[-73,88],[-48,6],[-161,47],[-40,154],[-206,-20],[-15,129],[-12,35],[-26,9]],[[3433,2726],[50,-13],[93,-11],[108,5],[-1,58],[370,-24],[21,-69],[62,-101],[35,-84],[-82,-85]],[[1036,2098],[-108,-125],[-68,-72],[-122,-142],[-71,-88],[-67,-74],[-9,-23],[-40,-4],[-38,-28],[-71,-148],[-10,-50],[115,-19],[48,5]],[[595,1330],[2,-62],[-38,-10],[-34,23],[-60,-20],[-78,20],[-55,-14],[-30,39],[-43,18],[-94,-7],[-80,-41],[-41,-12],[-4,72],[-27,6]],[[13,1342],[12,72],[77,5],[-4,87],[38,45],[-34,35],[23,131],[190,-13],[4,66],[94,177],[-15,116],[505,-2],[133,37]],[[1565,1842],[-74,-57],[-79,-1],[-61,-62],[-57,-90],[8,-38],[-38,-3],[-59,-36],[-26,-47]],[[1179,1508],[14,-79]],[[1193,1429],[-113,-11],[-86,-40],[-80,13],[-56,33],[-59,-24],[-64,-7],[-28,-28],[-72,-15],[-40,-20]],[[1036,2098],[0,10]],[[1179,1508],[82,0],[55,-10],[25,-153],[-18,-55],[23,-18],[-6,-42],[25,-42]],[[1365,1188],[-13,-32],[5,-52],[-81,7],[-66,-49]],[[1210,1062],[-64,-8],[42,59],[0,37],[-43,0],[-8,39],[-76,-1],[-1,72],[50,44],[1,54],[29,26],[33,7],[20,38]],[[1514,107],[-61,-94],[-44,-13],[-63,37],[-64,-4],[-51,36],[-21,66],[-2,136],[41,86],[-99,136],[-43,38],[-18,34],[-62,55],[-24,73],[9,43],[-9,57],[-143,0],[-97,-31],[-14,55],[-37,42],[1,1],[0,0],[-34,35],[22,20],[-43,77],[-127,16],[-166,130],[-73,-18],[-13,15],[-149,-1],[-25,28],[-105,93],[13,87]],[[1210,1062],[-24,-76],[-22,-32],[-2,-79],[-10,-38],[33,-41],[-12,-61],[18,-19],[12,-59],[65,-99],[42,-44],[-1,-24],[35,-88],[-1,-28],[-28,-69],[29,-37],[24,-71],[54,-21],[25,-36],[67,-33]],[[1805,1277],[-12,35],[-25,10],[-60,-39],[-23,14],[-191,11],[-45,22],[-18,-57],[-66,-85]],[[2134,992],[-64,-84],[-116,-161],[-155,-190],[-83,99],[-26,2],[-49,-58],[-27,-7],[3,-95],[-3,-168],[-31,-46],[-81,-116],[42,-17],[-30,-44]],[[831,3321],[14,-18],[77,-19],[63,-46],[41,1],[56,36],[77,25],[180,16],[25,93],[17,20],[5,64],[110,-25],[94,-3],[4,28]],[[1594,3493],[103,-60],[-2,-91],[-29,-81]],[[1666,3261],[-12,-52],[-30,-39],[-23,-52],[27,-40],[4,-53],[36,-31]],[[1668,2994],[-20,-40],[1,-73],[-26,18],[-20,48],[-36,7],[-28,-15],[-152,24],[-23,33],[-44,4],[-39,30],[-42,-10],[-46,8]],[[1193,3028],[-67,20],[-59,32],[-22,-1],[-52,36],[-38,4],[-103,73],[-20,11],[-36,52],[35,66]],[[4552,4427],[54,-198],[32,-103],[-78,-163],[-146,-275],[-119,-230]],[[4295,3458],[-17,-26],[-86,1],[-492,1],[-70,-29],[-41,-35],[-177,4],[-129,-7]],[[3283,3367],[32,63],[16,70],[-11,64],[54,66],[16,54],[19,8],[-29,52],[11,60],[26,54],[-1,57],[-45,46],[-55,13],[15,90],[36,99],[25,156],[1,189],[-20,68]],[[3373,4576],[118,-5],[21,41],[44,58],[108,52],[122,44],[82,54],[109,2],[-50,-86],[-16,-66],[3,-106],[454,-3],[33,-31],[26,-54],[-1,-32],[30,-23],[58,-20],[38,26]],[[4720,6407],[62,-62],[140,14],[23,-32],[14,-69],[26,-43],[71,-12],[8,-26],[115,-25],[2,-18]],[[5181,6134],[-32,-100],[-71,-76],[-52,-65],[-56,-144],[-48,-19],[-6,-40],[-105,-49],[-3,-79],[12,-52],[33,-50],[3,-34],[-28,-43],[5,-27],[-19,-31],[20,-41],[35,-44],[81,-39],[-30,-23],[-51,-81],[-53,-121],[-50,-101],[-59,-34],[-48,-60],[-34,-12],[-54,-36],[-4,-114],[6,-35],[33,-41]],[[4606,4543],[-67,-68],[13,-48]],[[3373,4576],[-207,-1]],[[3166,4575],[90,236]],[[5181,6134],[22,-9],[1,-95],[-10,-16],[40,-41],[-3,-39],[12,-9],[3,-27],[58,-24],[68,1],[49,-17],[-6,-25],[36,-44],[97,-68],[66,3],[47,-34],[145,-78],[6,-19],[-89,-48],[-27,-70],[-392,-551],[-343,-296],[-351,-82],[-4,-3]],[[490,4103],[38,41],[21,56],[-12,37],[6,25],[-94,62],[-9,45],[6,66],[18,38],[58,69],[-30,96],[-1,36],[121,54],[-5,24],[50,36],[13,82],[-20,62],[-49,51],[-10,56],[35,37],[-8,39],[25,73],[14,7],[20,66],[0,71],[-14,37],[31,53],[25,12],[4,32],[-28,16],[6,53],[20,15],[-101,87],[-9,44],[0,58],[12,27],[-26,38],[32,24],[-10,89],[53,23],[15,33]],[[687,5973],[26,-6],[21,-35],[64,-10],[2,-32],[25,-36],[334,-89],[103,-16],[54,-23],[9,-204],[1,-290],[-15,-27],[56,-40],[42,-7],[12,-18],[10,-70]],[[1431,5070],[43,-34]],[[1474,5036],[-58,-44],[-12,-51],[-37,-112],[-99,-179],[-34,-76],[-42,-64],[-16,-135],[-1,-109],[6,-113],[-32,-15],[-12,-31]],[[1137,4107],[-54,12],[-63,30],[-66,-15],[-26,-23],[-45,-8],[-393,0]],[[1474,5036],[34,-43],[-34,-88],[29,-45],[85,-75],[27,-7],[26,23],[44,-1],[14,-52],[-23,-53],[4,-56],[-11,-84],[-21,-32],[-6,-43],[24,-28],[-7,-34],[10,-42],[28,-53],[36,-15]],[[1733,4308],[-144,-120],[-70,-24]],[[1519,4164],[-54,10],[-44,-32],[-53,1],[-11,-35],[-65,-27],[-93,-5],[-62,31]],[[1431,5070],[85,37],[61,-30],[77,-5],[32,22],[40,-32],[59,14]],[[1785,5076],[29,-21],[61,-91],[20,-54],[23,-124],[21,-62],[6,-48],[-34,-214],[-33,-15],[-48,17],[-33,-79],[17,-56],[-16,-51]],[[1798,4278],[-12,-9]],[[1786,4269],[-52,0],[-1,39]],[[3166,4575],[-25,-229],[-12,-32],[-46,2],[-50,-28],[-33,-52],[-66,-62],[-73,5]],[[2861,4179],[-45,-19],[-48,-44],[-66,-14],[-96,36],[-17,-7],[-135,-7],[-76,8],[-132,42],[-61,46],[-67,30],[-93,16],[-96,0],[-36,13],[-95,-1]],[[1785,5076],[38,32],[-32,35],[-13,57],[69,27],[130,82],[163,83],[98,26],[317,49],[18,28],[85,27],[17,17],[43,-7]],[[687,5973],[-14,15],[-16,128],[-14,34],[42,33],[6,36]],[[796,3447],[-20,70],[-26,29],[-25,76],[-25,37],[-42,38],[-9,82],[-105,57],[6,47],[-13,28],[-59,50],[22,44],[-21,45],[11,53]],[[1519,4164],[-7,-42],[-32,-29],[-28,-61],[-9,-61]],[[1443,3971],[-23,-81],[-2,-40],[-26,-7],[3,-69],[-25,-17],[-5,-34],[-71,2],[-88,-31],[-54,-28],[-23,-39],[-10,-51],[-46,-46],[-38,-53],[-114,-4],[-69,-31],[-56,5]],[[1199,2280],[4,53],[-9,69],[-29,59],[-43,53],[0,31],[20,36],[10,78],[-12,165],[43,77],[17,53],[-21,16],[24,34],[-10,24]],[[1668,2994],[55,25],[34,-28],[24,1],[1,-49],[-57,-98],[19,-43],[42,-23],[-28,-47],[-10,-39],[-46,-25],[-48,52],[-60,1],[-30,15],[-29,-22],[10,-25],[-20,-25],[0,-102],[20,-33]],[[1594,3493],[-9,36],[-1,69],[-29,51],[-29,28],[-3,55],[21,26],[4,55],[30,43],[-6,39],[-25,-1],[-37,34],[-14,37],[-53,6]],[[1786,4269],[-17,-85],[-40,-24],[-64,-68],[-1,-27],[59,-13],[23,-33],[-7,-35],[20,-29],[65,-18],[14,-156],[51,-31],[-21,-60],[-18,-13],[-25,-153],[38,-72],[51,-127],[10,-36],[-141,-20],[-117,-8]],[[831,3321],[-42,88],[7,38]],[[2861,4179],[2,-56],[-12,-38],[-7,-110],[8,-32],[58,48],[46,-76],[49,-57],[60,-34],[17,-30],[57,-50],[-1,-92],[-19,-24],[-24,-69],[-68,20],[-52,-16],[-93,53],[-63,-187],[-22,-22],[-5,-35],[28,-60]],[[3283,3367],[-95,-3],[-49,-21],[-120,0],[-55,-18],[-110,-62]],[[4295,3458],[35,-69],[20,-86],[50,-66],[19,-98],[13,-11],[-1,-51],[8,-203],[-71,-37],[-40,-42],[46,-64],[59,-42],[31,-68],[84,-17],[15,-39],[-17,-54],[44,-8],[60,-44],[83,-42],[-26,-49],[22,-25],[-61,-52],[23,-33],[50,-31],[52,-58],[44,-61],[41,-12],[-6,-43],[-20,-41],[-19,-83],[-36,-13],[-36,-90],[-27,-23],[-49,32],[-95,-6],[-34,83],[-66,109],[-43,59],[-53,50],[-103,138],[-137,87],[-65,47]]],"transform":{"scale":[0.00016637211261086662,0.00019155256955059015],"translate":[35.523360649103346,-0.2268772528533693]},"objects":{"wards.030.final":{"type":"GeometryCollection","geometries":[{"arcs":[[0,1,2,3]],"type":"Polygon","properties":{"code":"0781","name":"Tirioko","constituency_code":"157","county_code":"030"}},{"arcs":[[-3,4,5,6]],"type":"Polygon","properties":{"code":"0782","name":"Kolowa","constituency_code":"157","county_code":"030"}},{"arcs":[[-2,7,8,9,-5]],"type":"Polygon","properties":{"code":"0783","name":"Ribkwo","constituency_code":"157","county_code":"030"}},{"arcs":[[-1,10,11,12,-8]],"type":"Polygon","properties":{"code":"0784","name":"Silale","constituency_code":"157","county_code":"030"}},{"arcs":[[-9,-13,13,14,15]],"type":"Polygon","properties":{"code":"0785","name":"Loiyamorock","constituency_code":"157","county_code":"030"}},{"arcs":[[16,17,18,19,20,21,22,23]],"type":"Polygon","properties":{"code":"0802","name":"Mogotio","constituency_code":"161","county_code":"030"}},{"arcs":[[24,-24,25,26,27,28]],"type":"Polygon","properties":{"code":"0803","name":"Emining","constituency_code":"161","county_code":"030"}},{"arcs":[[29,-29,30]],"type":"Polygon","properties":{"code":"0804","name":"Kisanana","constituency_code":"161","county_code":"030"}},{"arcs":[[31,32,33]],"type":"Polygon","properties":{"code":"0805","name":"Lembus","constituency_code":"162","county_code":"030"}},{"arcs":[[-20,34,35,36,-32,37]],"type":"Polygon","properties":{"code":"0806","name":"Lembus Kwen","constituency_code":"162","county_code":"030"}},{"arcs":[[-36,38,39,40]],"type":"Polygon","properties":{"code":"0807","name":"Ravine","constituency_code":"162","county_code":"030"}},{"arcs":[[41,-33,-37,-41,42]],"type":"Polygon","properties":{"code":"0808","name":"Mumberes/maji Mazuri","constituency_code":"162","county_code":"030"}},{"arcs":[[-19,43,-39,-35]],"type":"Polygon","properties":{"code":"0809","name":"Lembus/perkerra","constituency_code":"162","county_code":"030"}},{"arcs":[[-43,-40,-44,-18,44]],"type":"Polygon","properties":{"code":"0810","name":"Koibatek","constituency_code":"162","county_code":"030"}},{"arcs":[[45,46,47,48,49]],"type":"Polygon","properties":{"code":"0794","name":"Sacho","constituency_code":"159","county_code":"030"}},{"arcs":[[50,51,52,53]],"type":"Polygon","properties":{"code":"0801","name":"Mukutani","constituency_code":"160","county_code":"030"}},{"arcs":[[-12,54,55,56,-54,57,58,-14]],"type":"Polygon","properties":{"code":"0786","name":"Tangulbei/korossi","constituency_code":"157","county_code":"030"}},{"arcs":[[-56,59]],"type":"Polygon","properties":{"code":"0787","name":"Churo/amaya","constituency_code":"157","county_code":"030"}},{"arcs":[[60,61,62,63,64]],"type":"Polygon","properties":{"code":"0788","name":"Barwessa","constituency_code":"158","county_code":"030"}},{"arcs":[[-64,65,66,67]],"type":"Polygon","properties":{"code":"0789","name":"Kabartonjo","constituency_code":"158","county_code":"030"}},{"arcs":[[-63,68,69,70,71,-66]],"type":"Polygon","properties":{"code":"0790","name":"Saimo/kipsaraman","constituency_code":"158","county_code":"030"}},{"arcs":[[-15,-59,72,73,-70,74]],"type":"Polygon","properties":{"code":"0791","name":"Saimo/soi","constituency_code":"158","county_code":"030"}},{"arcs":[[-6,-10,-16,-75,-69,-62,75]],"type":"Polygon","properties":{"code":"0792","name":"Bartabwa","constituency_code":"158","county_code":"030"}},{"arcs":[[76,-65,-68,77,78]],"type":"Polygon","properties":{"code":"0793","name":"Kabarnet","constituency_code":"159","county_code":"030"}},{"arcs":[[79,-49,80,-22]],"type":"Polygon","properties":{"code":"0795","name":"Tenges","constituency_code":"159","county_code":"030"}},{"arcs":[[-47,81,-78,-67,-72,82]],"type":"Polygon","properties":{"code":"0796","name":"Ewalel/chapchap","constituency_code":"159","county_code":"030"}},{"arcs":[[83,-79,-82,-46]],"type":"Polygon","properties":{"code":"0797","name":"Kapropita","constituency_code":"159","county_code":"030"}},{"arcs":[[-23,-81,-48,-83,-71,-74,84,-26]],"type":"Polygon","properties":{"code":"0798","name":"Marigat","constituency_code":"160","county_code":"030"}},{"arcs":[[-27,-85,-73,-58,-53,85]],"type":"Polygon","properties":{"code":"0799","name":"Ilchamus","constituency_code":"160","county_code":"030"}},{"arcs":[[-31,-28,-86,-52,86]],"type":"Polygon","properties":{"code":"0800","name":"Mochongoi","constituency_code":"160","county_code":"030"}}]}}}