{"type":"Topology","arcs":[[[112,3089],[-11,11],[-15,88],[-41,60],[-17,77],[-28,64],[97,207]],[[97,3596],[355,22],[138,-69],[-40,-430]],[[550,3119],[-92,0],[-32,-10],[-150,-1],[-69,4],[-56,-26],[-39,3]],[[358,2447],[14,-5],[55,43],[215,-92],[33,-5],[11,-31],[-22,-7],[-47,-110],[79,-41],[7,-31],[-64,-30],[-31,-70],[-25,-20],[-11,-31],[25,-22],[32,34],[25,1],[5,-31],[19,-13],[25,-68],[35,-29],[-31,-54],[48,-43],[32,28],[66,3],[17,42],[59,57],[39,15],[34,2],[43,42]],[[1045,1981],[49,-63]],[[1094,1918],[-75,-165],[-104,-33],[-104,-126],[124,-54],[-49,-30],[-50,3],[-31,-12],[4,-29],[-62,-10],[-178,-59],[-27,77],[-18,-13],[-70,-21],[1,-26],[-121,-17],[-21,-57],[-26,-4],[-12,41],[-101,-62],[-54,-1],[19,102],[19,3],[-33,65],[-28,91],[70,163],[82,105],[-8,67],[78,5],[40,-29],[22,21],[29,81],[29,12],[16,75],[17,38],[5,38],[-34,11],[-36,55],[-42,52],[-42,29],[-18,29],[50,47],[-18,23],[21,44]],[[358,2447],[-68,38],[-49,40],[-36,7],[14,49],[-12,35],[-69,16],[-25,61],[-48,38],[-38,58],[32,38],[58,33],[-6,184],[1,45]],[[550,3119],[62,-145],[124,25]],[[736,2999],[64,6],[122,5],[182,-295],[119,-306],[-53,-4],[-18,-26],[-32,-14],[-23,-32],[-1,-39],[-19,-71],[-26,-18],[-12,-39],[29,-25],[-6,-54],[-15,-24],[14,-20],[-8,-51]],[[1053,1992],[-8,-11]],[[825,4713],[254,-134],[166,-64],[-128,-251],[215,-90],[-42,-98],[-41,-81],[-79,-184],[-68,24],[-46,5],[-165,36],[-194,-211],[95,-143],[71,-19],[70,-78],[17,-27],[39,-33],[20,-40]],[[1009,3325],[-243,-108],[-30,-218]],[[97,3596],[119,249],[64,147],[-26,93],[-44,179],[-10,43],[54,62],[4,3],[286,74],[281,267]],[[1009,3325],[56,25],[18,-44],[60,-217],[50,36],[166,-274],[43,28],[35,9],[18,-34],[119,-163]],[[1574,2691],[-43,-34],[-14,-39],[20,-12],[77,-99],[8,-22],[-31,-43],[-206,-134],[78,-87],[-159,-47],[-1,-41],[-41,0],[-122,-91],[-87,-50]],[[1905,1370],[-76,-28],[-30,2],[-52,106],[-11,85],[-66,108],[-3,4],[-233,-85],[-27,-8],[-25,67],[-35,115],[-147,152],[-78,89],[-28,-59]],[[1574,2691],[48,61],[73,58],[33,18],[43,7],[95,72],[78,65],[55,58],[36,47],[21,58],[-5,34],[28,14],[10,49],[27,22],[14,43],[50,37],[55,-5],[58,5],[20,49],[70,4]],[[2383,3387],[90,-221],[72,-89],[125,36],[2,-44],[-13,-20],[10,-42],[19,-23],[-10,-28],[16,-35],[17,-6],[-22,-44],[-2,-33],[-51,-14],[-19,4],[-26,-22],[-38,-14],[-20,-28],[-33,-18],[-69,-8],[-40,-66],[-59,-15],[-16,-23],[-22,-61],[0,-62],[-23,-18],[8,-40],[30,-62],[-32,-20],[-23,-43],[11,-14],[8,-69],[-16,-39],[135,-157],[-18,-53],[421,-47],[22,-129],[-140,-49],[-122,-51]],[[2555,1720],[-7,-2],[-183,-3],[-100,-45],[-97,-12],[-10,-22],[-37,-3],[-41,-80],[-22,-11],[-24,-37],[-59,2],[-30,-18],[-9,-78],[-31,-41]],[[4283,1503],[-103,-73],[64,-52],[14,-41],[17,-8],[28,-64],[40,-35],[-38,-79],[-64,63],[-48,36],[-64,73],[2,41],[-30,-15]],[[4101,1349],[-5,84],[18,21],[-27,27],[20,16],[-33,23],[-38,49],[-12,57]],[[4024,1626],[220,14]],[[4244,1640],[36,-101],[3,-36]],[[2555,1720],[65,-26],[-4,-25],[-38,-82],[-66,-51],[-13,-25],[-70,-101],[-47,-58],[49,-87],[51,-48],[50,-74],[25,-11],[-14,105],[94,23],[-32,206],[78,52],[95,-21]],[[2778,1497],[72,-406],[18,19],[70,6],[3,-176],[-41,-9],[-5,-18],[39,-71],[-16,-2]],[[2918,840],[-19,1],[-168,-14],[-118,-35],[-15,24],[-59,-50],[-182,-41],[-27,-30],[-253,-82],[-19,-3],[-101,219],[-199,21],[-106,-7],[-6,5],[-48,67],[-31,-7],[24,61],[-44,36],[20,42],[0,27],[25,28],[1,26],[23,6],[54,44],[26,51],[39,7],[237,11],[57,5],[-65,141],[-59,-23]],[[4101,1349],[-16,-38],[-32,19],[-42,-38],[-13,-41],[-114,-136]],[[3884,1115],[-59,21],[-22,29],[-25,2],[-46,29],[-31,53],[-47,6]],[[3654,1255],[8,9],[88,157],[-81,26],[-63,186],[149,57],[40,-10],[59,24],[43,1],[43,-17],[47,9],[35,-29],[2,-42]],[[3884,1115],[-10,-20],[-125,-68],[-49,-8],[-58,-22],[-1,-29],[21,-89],[12,-161],[43,-46],[75,-31],[11,-39],[17,-8],[29,-104],[-32,-137],[-12,-15],[-15,-57],[26,-48],[-14,-41],[-32,-18],[-30,-36],[-52,-24],[-59,10],[-27,-13],[-13,-37],[7,-18],[-34,-14],[-15,-42],[-384,110],[-44,32],[-4,23],[-70,-37],[-65,163],[6,39],[-25,66],[31,11],[23,-10],[45,45],[26,6],[33,49],[-32,44],[-10,47],[-22,20],[12,49],[-65,27],[-81,12],[-3,144]],[[2778,1497],[-1,10],[86,7],[4,-9],[251,-13],[3,-4],[182,-31],[23,1],[-13,-79],[19,-33],[31,-25],[53,7],[32,-29],[27,0],[54,-28],[56,-14],[69,-2]],[[4742,1625],[-86,26],[-39,57],[-52,19],[-15,32],[49,54],[-37,28],[-53,107],[17,59],[8,81],[-12,70],[1,68],[10,94],[-1,181],[130,275],[-399,173]],[[4263,2949],[57,201],[-8,34],[-117,-15],[-23,33],[3,19],[-29,24],[-16,42],[18,42],[-10,37],[17,87],[39,39],[24,-1],[27,45],[-16,73],[21,18],[92,3],[22,12],[-7,62],[36,0],[16,-61],[-8,-75],[16,-26],[29,-159],[41,-27],[22,-58],[27,-45],[33,-20],[20,10],[17,37],[-11,39],[-6,80],[20,34],[9,88],[20,68],[36,-1],[-11,28],[14,108],[24,21],[23,84]],[[4724,3829],[344,-39],[497,-49],[-50,-65],[8,-61],[-21,-92],[-31,-34],[-12,-48],[2,-39],[15,-49],[6,-76],[8,-17],[44,-20],[29,-45],[2,-57],[48,-32],[-10,-39],[8,-29],[22,-28],[42,-17],[-4,-130],[15,-40],[-4,-54],[12,-26],[-17,-19],[8,-27],[-29,-26],[-13,-46],[-33,-27],[-88,-69],[23,-30],[-12,-48],[-28,-4],[3,-29],[-16,-26],[-3,-43],[-26,-34],[0,-75],[-55,-5],[19,-38],[-44,-26],[-62,12],[-60,-31],[-26,-27],[-33,-18],[-68,-68],[-6,-63],[5,-41],[-96,-91],[-50,-67],[-62,9],[-27,-6],[-6,-79],[-69,-34],[-53,-12],[-28,-30]],[[3080,4015],[88,-6],[453,-51],[172,-22],[931,-107]],[[4263,2949],[-109,48],[-32,-64],[9,-88],[1,-69],[-7,-62],[36,-77]],[[4161,2637],[-37,-62],[-146,-18],[-14,78],[-54,-38],[-54,58],[-99,-67],[-30,-84],[-76,-58],[-58,94],[-48,35],[-30,-8],[-34,16],[-15,24],[-47,38],[-7,26],[-40,37],[-10,42],[16,12],[14,62],[-16,51],[28,59],[9,36],[-35,46],[1,33],[22,16],[-5,53],[-24,5],[-14,29],[4,29],[-49,95],[5,37],[-27,12],[-26,28],[-2,34],[-19,33],[-1,43],[16,11],[-31,35],[-5,58],[-26,49],[-3,27],[-39,45],[-23,54],[-42,11],[14,53],[-5,35]],[[3099,3841],[-52,80],[29,26],[4,68]],[[2383,3387],[38,8],[53,-4],[15,91],[39,3],[12,31],[-5,36],[60,11],[51,25],[30,-19],[80,8],[52,-11],[36,6],[29,54],[6,57],[33,-3],[-10,54],[49,21],[72,-33],[-2,32],[28,29],[4,28],[23,5],[23,25]],[[4161,2637],[11,-51],[-8,-66],[10,-51],[-27,-62],[-11,-98],[11,-103],[7,-221],[12,-40],[39,-57],[9,-31],[3,-77],[-6,-72],[34,-16],[-1,-52]],[[825,4713],[321,498],[22,64],[72,44],[-15,-55],[-15,-99],[28,1],[627,0],[308,16],[38,16],[81,5],[55,-13],[112,46],[99,144],[114,42],[64,9],[125,-72],[1,-61],[68,-131],[5,-59],[49,-28],[-15,-25],[34,-51],[92,-197],[54,-2],[44,-13],[47,26],[32,1],[29,-23],[12,-37],[29,12],[16,36],[51,20],[2,-43],[-21,-27],[-7,-167],[6,-84],[-15,-16],[-10,-47],[-38,6],[-10,-23],[3,-36],[-20,-35],[-2,-50],[-59,-8],[-28,-27],[-11,-69],[-24,12],[-20,-34],[-18,0],[-48,-64],[11,-31],[-3,-35],[-17,-34]],[[4742,1625],[-73,-34],[-89,-6],[-85,-26],[-18,-27],[-93,-30],[-101,1]]],"transform":{"scale":[0.00020343751476266164,0.00021190803700708475],"translate":[36.23795587842779,-0.28247614316352837]},"objects":{"wards.031.final":{"type":"GeometryCollection","geometries":[{"arcs":[[0,1,2]],"type":"Polygon","properties":{"code":"0809","name":"Githiga","constituency_code":"163","county_code":"031"}},{"arcs":[[3,4,5]],"type":"Polygon","properties":{"code":"0810","name":"Igwamiti","constituency_code":"163","county_code":"031"}},{"arcs":[[6,-3,7,8,9,-4]],"type":"Polygon","properties":{"code":"0811","name":"Marmanet","constituency_code":"163","county_code":"031"}},{"arcs":[[10,11,-8,-2,12]],"type":"Polygon","properties":{"code":"0812","name":"Ol-Moran","constituency_code":"163","county_code":"031"}},{"arcs":[[-9,-12,13,14]],"type":"Polygon","properties":{"code":"0813","name":"Rumuruti Township","constituency_code":"163","county_code":"031"}},{"arcs":[[15,-5,-10,-15,16,17,18]],"type":"Polygon","properties":{"code":"0814","name":"Salama","constituency_code":"163","county_code":"031"}},{"arcs":[[19,20,21,22]],"type":"Polygon","properties":{"code":"0815","name":"Nanyuki","constituency_code":"164","county_code":"031"}},{"arcs":[[-19,23,24,25]],"type":"Polygon","properties":{"code":"0816","name":"Ngobit","constituency_code":"164","county_code":"031"}},{"arcs":[[26,27,28,-21]],"type":"Polygon","properties":{"code":"0817","name":"Thingithu","constituency_code":"164","county_code":"031"}},{"arcs":[[29,-25,30,-28]],"type":"Polygon","properties":{"code":"0818","name":"Tigithi","constituency_code":"164","county_code":"031"}},{"arcs":[[31,32,33]],"type":"Polygon","properties":{"code":"0819","name":"Mugogodo East","constituency_code":"165","county_code":"031"}},{"arcs":[[34,-33,35,36,37]],"type":"Polygon","properties":{"code":"0820","name":"Mugogodo West","constituency_code":"165","county_code":"031"}},{"arcs":[[-18,38,-37,39,-22,-29,-31,-24]],"type":"Polygon","properties":{"code":"0821","name":"Segera","constituency_code":"165","county_code":"031"}},{"arcs":[[-38,-39,-17,-14,-11,40]],"type":"Polygon","properties":{"code":"0822","name":"Sosian","constituency_code":"165","county_code":"031"}},{"arcs":[[41,-23,-40,-36,-32]],"type":"Polygon","properties":{"code":"0823","name":"Umande","constituency_code":"165","county_code":"031"}}]}}}