{"type":"Topology","arcs":[[[2499,4226],[-1,-63],[-14,-57],[-22,-43],[-30,-12]],[[2432,4051],[-32,26],[-49,65],[-76,-52],[-74,-18],[-71,-32],[11,-27],[-56,-49],[-9,-94],[-40,-25],[-88,9],[-38,-39],[-38,-57],[-19,-46]],[[1853,3712],[-40,6]],[[1813,3718],[-97,138],[-71,0],[-65,93],[30,43]],[[1610,3992],[30,23],[18,-16],[193,-135],[214,279],[-10,12],[35,55],[-9,35],[26,36],[-24,83]],[[2083,4364],[-25,56],[71,91],[52,8],[48,20]],[[2229,4539],[19,-20],[-17,-49],[-17,-10],[-20,-61],[134,-39],[165,-56],[6,-78]],[[2432,4051],[59,0],[55,-26],[29,25],[72,-14],[35,26],[76,-134],[28,13],[26,-40],[-32,-45],[-47,28],[-18,-16]],[[2715,3868],[-67,60],[-30,14],[-21,-75],[-39,-77],[-3,-37],[-35,-20],[-22,-44],[-29,-16],[14,-40],[-67,-122],[132,-163]],[[2548,3348],[-37,-66],[4,-30],[-14,-32],[2,-39],[-30,-43]],[[2473,3138],[-77,34],[-48,15],[40,102],[-13,30],[-26,2],[-22,-30],[-74,-16],[6,50],[-19,38],[-46,10],[-37,-3],[-17,-48],[-1,-38],[-92,-190],[-28,-116],[-135,26]],[[1884,3004],[3,145],[0,413],[1,152],[-35,-2]],[[2089,4746],[249,-121]],[[2338,4625],[-34,-16],[-24,-37],[-51,-33]],[[2083,4364],[-51,-2],[-7,-21],[-47,-36],[-41,9],[-18,-21],[-62,-17],[-60,24],[14,32],[-28,14]],[[1783,4346],[-32,-1],[-98,64],[-71,61],[50,13]],[[1632,4483],[73,54],[55,10]],[[1760,4547],[48,-33],[60,3],[59,-34],[40,11],[58,87],[28,42],[-40,15],[76,108]],[[1610,3992],[-38,0],[-52,32]],[[1520,4024],[-9,29],[38,117],[41,40],[81,44],[11,30],[32,31],[69,31]],[[3615,3619],[47,-93],[4,-47],[52,-268]],[[3718,3211],[-81,-25]],[[3637,3186],[-70,-20],[-9,-19],[19,-77],[5,-125]],[[3582,2945],[-25,-17],[-72,19],[-86,32],[-17,55],[-39,82],[-54,15],[-23,20],[-28,-38],[-77,113],[3,45],[-84,96],[-46,136]],[[3034,3503],[-10,36],[1,70]],[[3025,3609],[-9,13],[36,48]],[[3052,3670],[40,6],[48,-152],[-2,-26],[71,-72],[57,30],[53,-47],[-31,-6],[-3,-60],[-19,-41],[12,-37],[34,-38],[54,28],[12,17],[152,86],[-55,18],[-10,65],[18,163],[132,15]],[[3052,3670],[-3,35],[43,54],[141,-8],[292,-6]],[[3525,3745],[90,-126]],[[3637,3186],[4,-74],[32,-186],[11,-24],[37,-199],[-73,6]],[[3648,2709],[-62,182],[-4,54]],[[3550,2731],[-100,-15],[-27,-56],[3,-26],[72,-26],[-37,-14],[18,-65],[-9,-77],[46,-35],[38,-62]],[[3554,2355],[-105,-61],[-93,77],[-65,-47],[-76,-43],[-122,-85],[-107,-67],[-85,39],[2,37],[-212,233],[-21,-1],[-64,-5],[-13,63],[227,10],[194,-147],[179,169],[-172,300]],[[3021,2827],[123,92],[-42,55],[-36,97],[21,74],[57,9],[7,-25],[-10,-48],[-34,-57],[66,-44],[81,-124],[39,-42],[27,-45],[43,-30],[36,51],[83,-8],[6,65],[36,-4],[32,-43],[-35,-25],[29,-44]],[[2548,3348],[18,43],[113,51],[44,-2],[70,52],[241,11]],[[3648,2709],[-46,23],[-52,-1]],[[3021,2827],[-27,25],[-14,42],[-50,-7],[-16,28],[-116,8],[-44,15],[-73,92],[-6,7],[-209,93],[7,8]],[[2715,3868],[40,-43],[71,-112],[-11,-17],[26,-111],[51,7],[34,29],[99,-12]],[[2499,4226],[61,-7],[46,7],[28,-23],[50,-7],[126,-92],[16,31],[133,-81],[57,-25],[24,28],[93,-58],[39,27],[47,73],[48,20],[19,19]],[[3286,4138],[-1,-14],[107,-281]],[[3392,3843],[14,-39],[119,-59]],[[6269,2051],[-55,-15],[-44,10],[-48,54],[-6,25],[-97,-97],[-33,-11],[-91,-1]],[[5895,2016],[52,79],[6,49],[35,87]],[[5988,2231],[-17,24],[-5,83],[9,40],[51,81],[-23,37],[36,44],[1,18]],[[6040,2558],[91,8],[33,59],[11,-63],[24,-9],[-9,-35],[37,-17],[17,-64],[-29,-16],[129,-212],[-130,-68],[55,-90]],[[5985,1900],[87,-47],[41,0],[59,-13],[43,-24],[-9,-51],[36,-35],[31,-45],[13,-56],[-133,19],[28,-62],[-24,-127],[-57,-24]],[[6100,1435],[-84,-7],[-79,-34],[-4,-17]],[[5933,1377],[-52,67],[-45,91],[-27,135],[-45,17],[-79,19],[-35,17]],[[5650,1723],[24,43],[-26,24],[-16,70],[53,64],[9,65],[-5,32]],[[5689,2021],[47,7],[7,-16]],[[5743,2012],[20,-48]],[[5763,1964],[40,-99],[34,-68],[66,33],[82,70]],[[5689,2021],[-61,43],[-1,20],[51,75],[34,-59],[39,0],[76,-67]],[[5827,2033],[-84,-21]],[[5763,1964],[77,6],[40,10],[105,-80]],[[4874,2360],[-94,-182],[-44,-123],[18,-105],[50,-16],[-28,-51],[91,-17],[21,40],[87,14],[260,14],[77,0]],[[5312,1934],[-7,-99],[156,-149],[31,-36]],[[5492,1650],[-39,25],[-20,-34],[-78,-18],[-34,-22],[-57,-18],[-93,10],[-37,44],[-61,19],[-99,-27],[-41,-25],[16,-60],[-58,-72],[-62,-100],[-22,-56],[-29,-97],[-7,-64]],[[4771,1155],[-80,-18],[-247,-71],[-61,89],[-54,2],[27,27],[-20,35],[-83,131],[-75,187],[170,153],[14,97],[-41,27],[51,54],[-62,43],[-63,30],[-13,24],[-49,26],[-1,40],[-24,27],[-15,38],[9,23],[-38,20],[-25,-18],[-241,186],[-8,88]],[[3842,2395],[39,-65],[27,-30],[54,-33],[133,20],[25,14],[42,47],[49,28],[55,-8]],[[4266,2368],[128,62],[142,21],[52,3],[58,-7],[81,-25],[147,-62]],[[6363,1235],[-11,-54],[49,-54],[2,-28],[91,-13],[23,19],[33,-24],[-41,-65],[37,-22],[45,-83],[-6,-47],[23,-50],[22,-3],[8,-45],[-8,-64],[-25,-82],[-16,-86],[22,-65],[-2,-33],[-121,-189],[-14,11],[-126,-127],[-42,-130],[-10,-1],[-240,160],[-508,206],[-373,149],[-55,91],[-129,204]],[[4991,810],[96,12],[109,-35],[66,-5],[67,-20],[57,-3],[69,-37],[109,-5],[79,11],[27,13],[-10,84],[6,30],[-14,78],[26,17],[-35,72],[-75,84],[-3,21],[62,67],[10,29],[156,58],[65,20],[75,76]],[[6100,1435],[0,-91],[136,-61],[127,-48]],[[6269,2051],[87,-281],[74,-246],[12,-18],[-52,-64],[13,-80],[-40,-127]],[[5827,2033],[68,-17]],[[4991,810],[-220,345]],[[5492,1650],[19,-12],[139,85]],[[5312,1934],[7,14],[33,139],[28,44],[46,27],[-45,54],[-29,2],[-6,43],[40,17],[32,52],[26,21],[40,0],[75,-56],[106,-52],[16,27],[63,-11],[56,-49],[78,-29],[59,0],[37,53],[14,1]],[[3718,3211],[11,-21],[45,-7],[30,11],[101,56],[41,33],[19,46],[24,22],[-11,47],[23,3],[162,0]],[[4163,3401],[1,-189],[-121,-59],[-14,-12],[-138,-71],[-25,-7],[24,-54],[-9,-52],[152,14],[33,-103],[88,-241],[30,-63],[17,-15],[65,-181]],[[3842,2395],[-5,82],[-55,-17],[-134,-56],[-94,-49]],[[4836,3685],[3,-6]],[[4839,3679],[104,-186],[13,-33],[38,-30],[9,-29],[-30,-35],[25,-16],[187,-24],[-7,-37],[26,-19],[10,-44],[21,-19],[-2,-35],[32,-30],[4,-51],[-8,-46],[12,-29],[30,-30],[-25,-28],[2,-36],[18,-50],[2,-32],[42,-16]],[[5342,2824],[26,-48]],[[5368,2776],[-53,-14],[-14,15],[3,37],[-104,150],[-30,35],[-56,48],[-70,80],[-10,63],[-31,40],[-187,-55],[-47,68],[-113,5],[14,76],[63,-29],[51,-5],[-24,58],[-26,14],[20,45],[-22,52],[-50,25],[-8,68],[-14,50],[135,55],[9,22],[32,6]],[[4874,2360],[57,128],[53,-28],[43,-2],[83,-45],[39,8],[41,41],[41,20],[16,30],[42,43],[34,13],[49,-1],[19,-26],[32,8],[74,-2],[-1,45],[-41,54],[-51,93],[-36,37]],[[5342,2824],[223,-23]],[[5565,2801],[8,-3],[205,22],[46,22],[26,-224],[68,-70],[122,10]],[[4534,3986],[19,-78],[18,-31],[26,39],[37,0],[21,-15],[49,14],[63,4],[69,-234]],[[4163,3401],[-4,138]],[[4159,3539],[-4,274],[-64,200],[90,19],[-9,27]],[[4172,4059],[200,-111],[162,38]],[[4839,3679],[100,89],[107,26],[6,-83],[120,-14],[138,52],[25,-79],[9,-13],[68,-36],[15,-31],[-9,-58],[39,-20],[5,-57],[13,-22],[-11,-80],[20,-27],[10,-50],[31,-63],[-7,-64],[30,-16],[6,-31],[-16,-22],[27,-38],[-24,-22],[-4,-36],[19,-10],[-6,-41],[23,-26],[-20,-42],[12,-64]],[[1671,2902],[-13,-28],[26,-58],[-29,-71],[-87,-74],[-36,-99],[-6,-74],[-23,-46],[2,-23],[-24,-34],[-31,-2],[-35,-43],[-14,-62],[-57,-25],[-15,-45],[-46,-33],[-32,42],[-45,43],[-95,52],[-19,18]],[[1092,2340],[28,104],[14,32],[43,41],[84,60],[42,13],[42,35],[52,23],[18,54],[-43,62],[12,55],[40,42],[40,78]],[[1464,2939],[12,-4],[126,29]],[[1602,2964],[39,-70],[30,8]],[[1884,3004],[-47,10],[-42,-24],[-51,-62],[-39,-22],[-34,-4]],[[1602,2964],[13,36],[-72,65],[28,45],[-64,114],[-44,-35],[-40,-5],[5,55],[-71,-11],[-26,36],[-20,0],[-46,-31],[-30,11],[-55,-38],[-86,-17],[39,62],[-17,31],[59,112],[-26,19]],[[1149,3413],[47,58],[76,57],[26,-4],[39,34],[77,44],[10,87],[19,-2],[78,21],[37,-34],[62,-8],[-12,-71],[38,32],[49,22],[57,43],[61,26]],[[1092,2340],[-56,71],[-46,241],[-50,-22],[-54,35],[-22,35],[-63,-14],[-92,138],[57,91],[54,41]],[[820,2956],[26,39],[31,24],[65,13],[16,22],[35,-47],[80,-127],[71,6],[36,21],[34,42],[44,8],[39,20],[134,-15],[33,-23]],[[820,2956],[-129,181],[-90,121],[-75,111]],[[526,3369],[87,85],[47,9],[39,50],[-18,41],[47,59],[71,37],[40,38],[25,5]],[[864,3693],[17,-77],[31,-39],[80,13],[56,22],[9,16],[73,1],[47,-24],[-40,-42],[0,-24],[52,-20],[-37,-40],[-21,-46],[18,-20]],[[1632,4483],[5,68],[-49,-7],[-56,-39],[-32,4],[-134,-72]],[[1366,4437],[-12,64],[12,82],[24,5],[12,43],[56,29],[-45,17],[24,99],[-14,8],[-81,-6],[-11,41],[-22,19],[-41,6],[-66,-11],[-14,10],[-51,-18],[-33,-22],[-38,28],[-19,43],[0,51],[-16,11],[2,41],[30,2],[54,25],[1,32],[58,36],[-8,35],[-36,24],[1,35],[52,17],[23,34],[68,61],[34,-39],[13,-50],[91,28],[133,0],[8,-52],[-8,-41],[23,-67],[57,-51],[17,-32],[41,-35],[92,-126],[-39,-79],[2,-126],[20,-61]],[[526,3369],[-77,113],[-240,335],[-47,65],[-162,228],[212,71],[107,51],[71,12],[117,27],[23,-9],[95,4],[24,49],[155,-59],[22,-11]],[[826,4245],[-49,-29],[-48,-41],[-16,-46],[-41,-43],[-7,-21],[50,-6],[43,-60],[164,-72],[11,-71],[53,5],[35,-30],[-40,-69],[-74,-31],[-43,-38]],[[826,4245],[64,-43],[-16,-97],[66,-24],[22,83],[40,31],[21,36],[30,-25],[20,-52],[30,19]],[[1103,4173],[37,-24],[65,-8],[294,-69],[-37,-60],[58,-10],[0,22]],[[1103,4173],[38,-1],[18,-20],[62,31],[3,53],[52,26],[29,0],[25,33],[36,142]],[[4446,4950],[-40,23],[-104,9],[-53,-17],[-22,-34],[-33,-24],[-39,-2],[-32,14],[-28,-62],[-48,33],[-23,34],[-29,4],[-20,54],[-73,15],[-19,-63],[-93,-28],[5,-127],[-1,-106]],[[3794,4673],[-194,-2]],[[3600,4671],[3,82],[-29,16],[-146,60],[19,61],[-19,56],[-26,7]],[[3402,4953],[-3,94],[-13,95],[39,17],[37,-1],[94,10],[60,53],[23,-27],[-12,-102],[84,-95],[7,105],[-4,35],[12,41],[40,-21],[8,23],[0,86]],[[3774,5266],[177,-41],[2,49],[36,61],[2,51],[20,49],[72,-30]],[[4083,5405],[-11,-43],[338,-76],[20,22],[250,-2]],[[4680,5306],[20,-18],[3,-117],[-27,-167],[-111,18],[7,38],[-43,7],[-7,-37],[-20,-20],[-56,-60]],[[4740,5509],[-5,-48],[-25,-47],[12,-11],[-14,-57],[-28,-40]],[[4083,5405],[77,46],[50,52],[27,99],[49,72],[3,115]],[[4289,5789],[76,10],[110,-4],[-28,-46],[3,-57],[32,-57],[100,30],[20,-38],[31,7],[-1,-86],[-17,-33],[125,-6]],[[4289,5789],[-4,53],[5,40],[60,141],[13,49],[187,-14],[15,43],[21,95],[14,-4],[35,60],[4,55],[-38,22],[-6,28],[-37,41],[-31,68],[-31,15],[-31,-11],[-52,40],[-8,30]],[[4405,6540],[-6,64],[-17,32],[-37,5],[-41,25],[2,16],[123,25],[61,-43],[128,-81],[96,-128],[50,-47],[39,-54],[62,-101],[32,-77],[9,-68],[-94,-107],[-79,-167],[32,-94],[37,-66],[-22,-4],[-21,-104],[-19,-57]],[[3600,4671],[-7,-299]],[[3593,4372],[-44,-5],[-14,-63],[-26,-13],[-6,-32],[-55,-3],[-39,-13]],[[3409,4243],[-59,13],[-34,20],[-37,45],[-131,36],[-80,26],[-184,15],[-57,22]],[[2827,4420],[216,427]],[[3043,4847],[96,-105],[19,-47],[57,64],[-44,30],[160,185],[71,-21]],[[2338,4625],[14,-1],[475,-204]],[[3409,4243],[41,-18]],[[3450,4225],[-29,-33],[-131,-34],[-4,-20]],[[3740,5541],[-26,-47],[41,-36],[-31,-82],[50,-73],[0,-37]],[[3043,4847],[-59,63],[-37,133],[-23,40],[-33,29],[-88,39],[-37,-11],[-58,-49],[-14,-29],[-82,-16],[-177,129]],[[2435,5175],[108,148],[61,78],[94,-73],[41,11],[88,-161],[64,24],[-4,32],[42,17],[17,38],[59,34],[32,68],[34,38],[-5,20],[57,54],[16,31],[9,53],[22,50],[-10,35],[-34,19],[-39,40],[-185,178],[29,62],[28,61],[91,-28],[24,-8],[11,-32],[14,-120],[192,18],[38,-142],[151,-44],[44,-5],[68,-82],[69,-17],[79,-31]],[[3740,5541],[71,-20],[58,34],[57,43],[-7,63],[-32,208],[122,-11],[20,150],[25,121],[23,59],[46,280],[279,69],[3,3]],[[2089,4746],[29,42],[3,156],[-4,88],[26,6],[46,54],[24,-2],[78,-92],[144,177]],[[4446,4950],[-29,-32],[44,-193]],[[4461,4725],[-39,-5],[-109,36],[-38,40],[-71,-76],[-173,-115],[-62,-53],[-55,45],[-120,76]],[[4487,4217],[-78,-19],[-42,4],[-41,19],[-98,94],[-56,40],[28,14],[-33,54]],[[4167,4423],[42,35],[79,93],[52,-2],[68,-14],[17,18],[78,20]],[[4503,4573],[45,-14],[67,-86],[23,-40],[34,-87],[-15,-6],[-172,-66],[2,-57]],[[4461,4725],[19,-77],[-1,-51],[24,-24]],[[4167,4423],[-39,-24],[-48,-68],[-31,-21]],[[4049,4310],[-78,85],[-44,16],[18,49],[-61,56],[-90,157]],[[4049,4310],[-27,-49],[-30,-21]],[[3992,4240],[-44,13],[-123,56]],[[3825,4309],[-61,28],[-168,25],[-3,10]],[[4487,4217],[4,-59],[43,-172]],[[4172,4059],[-14,37],[59,11],[1,74],[-77,8],[-14,-26]],[[4127,4163],[-122,54],[-13,23]],[[3450,4225],[81,-31]],[[3531,4194],[-7,-26]],[[3524,4168],[-15,-44],[24,-42]],[[3533,4082],[-34,-129],[-57,14],[-5,-37],[24,-78],[-54,1],[-15,-10]],[[3524,4168],[58,-27],[67,-17]],[[3649,4124],[-2,-4]],[[3647,4120],[-25,-75]],[[3622,4045],[-9,-27],[-42,21],[6,26],[-44,17]],[[3647,4120],[8,-15]],[[3655,4105],[19,-37],[-11,-34]],[[3663,4034],[-41,11]],[[3531,4194],[63,-14],[45,16]],[[3639,4196],[16,-54],[-6,-18]],[[3663,4034],[13,27],[72,30]],[[3748,4091],[86,52],[11,27]],[[3845,4170],[32,10],[111,-50],[36,-35],[-1,-18],[51,-108],[14,-43],[-3,-73],[34,-56],[-1,-36],[-44,-81],[-16,-53],[2,-87],[99,-1]],[[3639,4196],[63,18],[8,-25],[79,21]],[[3789,4210],[70,-5]],[[3859,4205],[-14,-32]],[[3845,4173],[-74,-1],[2,-25],[-47,-14]],[[3726,4133],[-71,-28]],[[3726,4133],[22,-42]],[[3845,4173],[0,-3]],[[3825,4309],[-12,-23],[-41,-27],[17,-49]],[[4127,4163],[-67,-32],[-201,74]]],"transform":{"scale":[0.0001781585754143271,0.00020687652833759057],"translate":[35.41456797191635,-1.1542500604043526]},"objects":{"wards.032.final":{"type":"GeometryCollection","geometries":[{"arcs":[[0,1,2,3,4,5,6]],"type":"Polygon","properties":{"code":"0824","name":"Elburgon","constituency_code":"166","county_code":"032"}},{"arcs":[[-2,7,8,9,10,11]],"type":"Polygon","properties":{"code":"0825","name":"Mariashoni","constituency_code":"166","county_code":"032"}},{"arcs":[[12,13,-6,14,15,16,17]],"type":"Polygon","properties":{"code":"0826","name":"Molo","constituency_code":"166","county_code":"032"}},{"arcs":[[-5,18,19,-15]],"type":"Polygon","properties":{"code":"0827","name":"Turi","constituency_code":"166","county_code":"032"}},{"arcs":[[20,21,22,23,24,25,26]],"type":"Polygon","properties":{"code":"0828","name":"Kihingo","constituency_code":"167","county_code":"032"}},{"arcs":[[-27,27,28]],"type":"Polygon","properties":{"code":"0829","name":"Lare","constituency_code":"167","county_code":"032"}},{"arcs":[[[-23,29,30]],[[31,32,33]]],"type":"MultiPolygon","properties":{"code":"0830","name":"Mau Narok","constituency_code":"167","county_code":"032"}},{"arcs":[[-10,34,-24,-31,35,-34,36]],"type":"Polygon","properties":{"code":"0831","name":"Mauche","constituency_code":"167","county_code":"032"}},{"arcs":[[-9,37,-25,-35]],"type":"Polygon","properties":{"code":"0832","name":"Nessuit","constituency_code":"167","county_code":"032"}},{"arcs":[[-1,38,39,40,-28,-26,-38,-8]],"type":"Polygon","properties":{"code":"0833","name":"Njoro","constituency_code":"167","county_code":"032"}},{"arcs":[[41,42,43,44]],"type":"Polygon","properties":{"code":"0834","name":"Biashara","constituency_code":"168","county_code":"032"}},{"arcs":[[45,46,47,48,49,50,51]],"type":"Polygon","properties":{"code":"0835","name":"Hells Gate","constituency_code":"168","county_code":"032"}},{"arcs":[[[-50,52,53]],[[-52,54]]],"type":"MultiPolygon","properties":{"code":"0836","name":"Lake View","constituency_code":"168","county_code":"032"}},{"arcs":[[55,56,57,58,59,60]],"type":"Polygon","properties":{"code":"0837","name":"Maeilla","constituency_code":"168","county_code":"032"}},{"arcs":[[61,62,-47,63]],"type":"Polygon","properties":{"code":"0838","name":"Mai Mahiu","constituency_code":"168","county_code":"032"}},{"arcs":[[64,-64,-46,-55,-51,-54,65,-42]],"type":"Polygon","properties":{"code":"0839","name":"Naivasha East","constituency_code":"168","county_code":"032"}},{"arcs":[[-48,-63,66,-58,67]],"type":"Polygon","properties":{"code":"0840","name":"Olkaria","constituency_code":"168","county_code":"032"}},{"arcs":[[-43,-66,-53,-49,-68,-57,68]],"type":"Polygon","properties":{"code":"0841","name":"Viwandani","constituency_code":"168","county_code":"032"}},{"arcs":[[-22,69,70,-60,71,-32,-36,-30]],"type":"Polygon","properties":{"code":"0842","name":"Elementaita","constituency_code":"169","county_code":"032"}},{"arcs":[[72,73,74,75]],"type":"Polygon","properties":{"code":"0843","name":"Gilgil","constituency_code":"169","county_code":"032"}},{"arcs":[[-44,-69,-56,76,-75,77,78]],"type":"Polygon","properties":{"code":"0844","name":"Malewa West","constituency_code":"169","county_code":"032"}},{"arcs":[[79,-76,-77,-61,-71,80,81,82]],"type":"Polygon","properties":{"code":"0845","name":"Mbaruk/eburu","constituency_code":"169","county_code":"032"}},{"arcs":[[-78,-74,83]],"type":"Polygon","properties":{"code":"0846","name":"Murindat","constituency_code":"169","county_code":"032"}},{"arcs":[[84,85,86,87]],"type":"Polygon","properties":{"code":"0847","name":"Amalo","constituency_code":"170","county_code":"032"}},{"arcs":[[-3,-12,88,-88,89,90]],"type":"Polygon","properties":{"code":"0848","name":"Keringet","constituency_code":"170","county_code":"032"}},{"arcs":[[-86,91,92]],"type":"Polygon","properties":{"code":"0849","name":"Kiptagich","constituency_code":"170","county_code":"032"}},{"arcs":[[-87,-93,93,94,95,-90]],"type":"Polygon","properties":{"code":"0850","name":"Tinet","constituency_code":"170","county_code":"032"}},{"arcs":[[-17,96,97]],"type":"Polygon","properties":{"code":"0851","name":"Kamara","constituency_code":"171","county_code":"032"}},{"arcs":[[-95,98,99]],"type":"Polygon","properties":{"code":"0852","name":"Kiptororo","constituency_code":"171","county_code":"032"}},{"arcs":[[-4,-91,-96,-100,100,101,-19]],"type":"Polygon","properties":{"code":"0853","name":"Nyota","constituency_code":"171","county_code":"032"}},{"arcs":[[-16,-20,-102,102,-97]],"type":"Polygon","properties":{"code":"0854","name":"Sirikwa","constituency_code":"171","county_code":"032"}},{"arcs":[[103,104,105,106,107,108,109]],"type":"Polygon","properties":{"code":"0855","name":"Kabazi","constituency_code":"172","county_code":"032"}},{"arcs":[[110,-109,111,112]],"type":"Polygon","properties":{"code":"0856","name":"Subukia","constituency_code":"172","county_code":"032"}},{"arcs":[[-113,113,114]],"type":"Polygon","properties":{"code":"0857","name":"Waseges","constituency_code":"172","county_code":"032"}},{"arcs":[[-106,115,116,117,118,119]],"type":"Polygon","properties":{"code":"0858","name":"Menengai West","constituency_code":"173","county_code":"032"}},{"arcs":[[-7,-14,120,-118,121,122,-39]],"type":"Polygon","properties":{"code":"0859","name":"Mosop","constituency_code":"173","county_code":"032"}},{"arcs":[[123,-107,-120,124,125]],"type":"Polygon","properties":{"code":"0860","name":"Soin","constituency_code":"173","county_code":"032"}},{"arcs":[[126,-114,-112,-108,-124]],"type":"Polygon","properties":{"code":"0861","name":"Solai","constituency_code":"173","county_code":"032"}},{"arcs":[[127,-125,-119,-121,-13]],"type":"Polygon","properties":{"code":"0862","name":"Visoi","constituency_code":"173","county_code":"032"}},{"arcs":[[128,129,-104]],"type":"Polygon","properties":{"code":"0863","name":"Bahati","constituency_code":"174","county_code":"032"}},{"arcs":[[130,131,132]],"type":"Polygon","properties":{"code":"0864","name":"Dundori","constituency_code":"174","county_code":"032"}},{"arcs":[[133,-132,134,135,-130]],"type":"Polygon","properties":{"code":"0865","name":"Kabatini","constituency_code":"174","county_code":"032"}},{"arcs":[[-105,-136,136,137,138,-116]],"type":"Polygon","properties":{"code":"0866","name":"Kiamaina","constituency_code":"174","county_code":"032"}},{"arcs":[[139,-83,140,141,-137,-135,-131]],"type":"Polygon","properties":{"code":"0867","name":"Lanet/umoja","constituency_code":"174","county_code":"032"}},{"arcs":[[-40,-123,142,143,144,145]],"type":"Polygon","properties":{"code":"0868","name":"Kapkures","constituency_code":"175","county_code":"032"}},{"arcs":[[-145,146,147,148,149]],"type":"Polygon","properties":{"code":"0869","name":"Kaptembwo","constituency_code":"175","county_code":"032"}},{"arcs":[[-149,150,151,152]],"type":"Polygon","properties":{"code":"0870","name":"Rhoda","constituency_code":"175","county_code":"032"}},{"arcs":[[-144,153,154,-147]],"type":"Polygon","properties":{"code":"0871","name":"Shaabab","constituency_code":"175","county_code":"032"}},{"arcs":[[-21,-29,-41,-146,-150,-153,155,156,157,-81,-70]],"type":"Polygon","properties":{"code":"0872","name":"Barut","constituency_code":"176","county_code":"032"}},{"arcs":[[-148,-155,158,159,160,161,162,-151]],"type":"Polygon","properties":{"code":"0873","name":"Biashara","constituency_code":"176","county_code":"032"}},{"arcs":[[-152,-163,163,-156]],"type":"Polygon","properties":{"code":"0874","name":"Flamingo","constituency_code":"176","county_code":"032"}},{"arcs":[[-157,-164,-162,164]],"type":"Polygon","properties":{"code":"0875","name":"Kivumbini","constituency_code":"176","county_code":"032"}},{"arcs":[[-117,-139,165,-159,-154,-143,-122]],"type":"Polygon","properties":{"code":"0876","name":"London","constituency_code":"176","county_code":"032"}},{"arcs":[[-138,-142,166,-160,-166]],"type":"Polygon","properties":{"code":"0877","name":"Menengai","constituency_code":"176","county_code":"032"}},{"arcs":[[-82,-158,-165,-161,-167,-141]],"type":"Polygon","properties":{"code":"0878","name":"Nakuru East","constituency_code":"176","county_code":"032"}}]}}}