{"type":"Topology","arcs":[[[2417,5972],[-61,-27],[12,-19],[-51,-50],[-12,-29],[-79,-71],[-60,19],[-25,-47],[-1,-36]],[[2140,5712],[-77,-56],[0,-33],[-38,-27],[-25,13],[-11,-42],[-23,-5],[-11,-56],[-30,-4],[-26,-39],[-18,-54],[-41,-17],[-8,-25],[-47,-5],[4,-23],[-131,-70],[15,-39],[-64,-9],[-27,-33],[-35,-5],[-13,-47],[-19,2],[-53,-53]],[[1462,5085],[-49,-22],[-26,-30],[-51,-30]],[[1336,5003],[16,16],[-15,64],[13,25],[47,20],[42,78],[24,58],[67,20],[13,59],[16,25],[25,81],[-12,19],[25,73],[-8,35],[8,38],[-7,50],[29,85],[1,77],[-20,55],[-20,4],[-24,61],[-26,-3],[-32,65],[-4,72],[-60,127],[-27,25],[-26,57]],[[1381,6289],[132,32],[265,66],[195,49],[200,49]],[[2173,6485],[18,-98],[24,-26],[-17,-44],[58,-24],[-9,-52],[42,-13],[12,-40],[51,-40],[30,-114],[35,-62]],[[7065,7804],[20,1],[205,-258],[-1,-41],[83,-44],[102,74],[119,95],[74,48],[62,52],[90,-85],[103,68],[91,53],[129,62],[53,20],[6,-91],[7,-98],[233,-207]],[[8441,7453],[-50,-40],[-31,-12],[-83,-1],[-34,-9],[-23,12],[-31,-25],[-50,-18],[-37,-1],[-34,-35],[-81,-14],[-24,-26],[-17,-58],[-41,-4],[-43,-45],[-79,-61],[-50,-17],[-54,-43],[-57,-72],[-4,-22],[-85,-61],[-65,-14],[-47,-62],[-50,-19],[-37,-49],[-25,0],[-48,-51],[-37,-61],[8,-20],[-9,-68],[16,-41],[-17,-39],[18,-38],[-4,-43],[-25,-52],[-51,-40],[9,-45],[47,-130],[-6,-25]],[[7210,6104],[-77,32],[-23,-29],[-46,10],[-49,-13],[6,48],[-12,132],[-31,80],[-7,47],[-48,94],[24,56],[4,32],[30,72],[-18,71],[-27,34],[17,97],[-10,71],[8,43]],[[6951,6981],[29,58],[9,67],[-21,56],[14,21],[-11,78],[26,50],[81,71],[9,62],[24,65],[-15,27],[5,107],[-14,41],[7,23],[-22,38],[-7,59]],[[8441,7453],[25,21],[36,-22],[-8,-26],[14,-42],[24,-31],[1,-44],[48,-28],[11,-27],[61,-34],[61,-47],[-49,-61],[39,-29],[-13,-108],[-165,-170],[72,-207],[81,-145]],[[8679,6453],[-135,2],[-98,5],[-9,-35]],[[8437,6425],[-64,35],[-54,71],[-59,-19],[-12,73],[19,84],[3,83],[-37,-8],[-36,-31],[-96,-49],[-45,-55],[-11,-26],[-66,-55],[-19,-33],[-68,-67],[-17,-38],[-2,-57],[-51,-29],[-28,-48],[-40,-40],[-11,-25],[7,-41],[-43,-55],[-32,-10],[-19,-45],[-18,-76],[-20,-18],[-5,-56],[-25,-62],[-32,-43],[-3,-39],[14,-49],[49,-48],[-161,-238],[-30,-14]],[[7425,5397],[-18,55],[-44,17],[-22,72]],[[7341,5541],[25,68],[-19,36],[2,66],[-8,85],[10,16],[-29,60],[-33,40],[19,28],[-30,28],[-4,33],[-44,50],[-20,53]],[[8454,6048],[22,-37],[-7,-56],[16,-55]],[[8485,5900],[-51,-78],[-24,-88],[-32,-90],[2,-35],[46,-247],[13,-109],[-2,-57],[-12,-40],[8,-72],[65,-5],[46,21],[-16,35],[83,-8],[24,45],[32,-6],[60,-51],[-17,-33],[-9,-113],[32,-83],[50,-10],[-1,-69],[-48,-172],[-1,-53],[15,-120],[-54,-176],[-28,-73],[-15,-158],[3,-21]],[[8654,4034],[-455,-469],[-147,-154]],[[8052,3411],[-31,26],[12,30],[-37,23],[-25,68],[-45,23],[-64,-2],[-38,61],[-10,40],[-30,33],[0,79],[-41,11],[2,27]],[[7745,3830],[10,25],[-7,51],[-56,20],[-17,82],[-40,109],[14,8],[-1,58],[25,40],[0,31],[56,56],[3,25],[-37,45],[-2,28],[-37,54],[2,20],[-28,31],[-31,56],[-58,31],[-30,79],[19,25],[-9,33],[8,55],[30,33],[-14,19],[47,83],[-29,82],[78,33],[27,53],[-10,19],[24,96],[23,36],[22,61],[37,26],[30,45],[-9,39],[5,104],[41,114],[27,30],[25,-5],[45,87],[30,41],[32,18],[10,65],[42,23],[112,84],[68,37],[49,63],[73,45],[16,23],[76,-38],[18,-60]],[[8437,6425],[-2,-117],[-23,-39],[25,-107],[36,-26],[4,-25],[-23,-63]],[[7745,3830],[-64,26],[-130,-46],[-46,66],[-23,20],[-53,20],[-72,41],[-40,37],[-67,43],[-46,135],[23,-9],[22,25],[49,-16],[43,55],[-14,39],[11,23],[34,-2],[25,25],[-50,26],[5,50],[-19,6],[-7,44],[-63,33],[-37,9],[-5,64],[13,42],[-52,20],[-8,23],[12,38],[-33,17],[-16,58],[-36,22],[-63,16]],[[7038,4780],[101,95],[75,76],[21,29],[81,146],[107,229],[2,42]],[[8485,5900],[34,-3],[30,-21],[38,13],[24,-16],[58,20],[61,-9],[77,-24],[-21,-55],[-37,-184],[-35,-74],[-60,-69],[-33,-104],[115,-11],[148,1],[86,-21],[96,19],[132,49],[67,52],[138,130],[60,0],[35,15]],[[9498,5608],[51,-510],[9,-109],[-49,-54],[-407,-430],[-355,-374],[-93,-97]],[[8679,6453],[19,-39],[-26,-30],[53,-2],[58,-99],[240,78],[78,21],[212,-383],[126,-227],[52,-100],[7,-64]],[[8052,3411],[-118,-126],[54,-36],[6,-48],[20,-42],[62,-168],[44,-71],[11,-68],[-30,-52],[-7,-54],[-35,-1],[-18,-35],[-33,-88],[-24,-32],[-39,-101],[-7,-77],[19,-59],[22,-37]],[[7979,2316],[-144,8],[-144,18],[-27,-5],[-109,13],[-36,-4],[-166,21],[-302,33],[-60,2],[-174,13],[-61,-6],[-86,6],[-154,18],[-49,0]],[[6467,2433],[14,81],[-37,56],[-52,6],[-36,107],[-76,194],[-50,62],[-23,5],[-49,66],[-64,77],[-24,37],[-64,53]],[[6006,3177],[-78,87],[-233,174],[-80,55],[-119,105],[-91,68],[29,64],[25,24],[-3,47],[21,67],[11,65],[16,43],[35,50],[43,23],[121,151],[89,99],[40,60],[65,81],[-14,43],[-36,68],[-56,43],[-83,127],[-41,49],[-78,113],[-10,30],[-181,224],[-92,81]],[[5306,5218],[74,87]],[[5380,5305],[105,133],[106,67],[64,33],[95,64],[95,81],[49,-1],[75,-20],[43,6],[7,-31]],[[6019,5637],[4,-80],[91,-70],[4,-21],[56,-57],[-10,-25],[50,-66],[-4,-62],[31,-63],[77,-27],[31,-42],[15,-85],[29,5],[57,-53],[8,-27],[79,-24],[36,14],[63,-27],[41,-41],[3,-51],[52,-49],[4,-29],[26,-27],[66,-30],[-9,35],[21,17],[28,-9],[38,34],[18,-20],[31,22],[83,1]],[[5380,5305],[-62,44],[-1,34],[-32,14],[-34,70],[-7,35],[-30,57],[3,57],[22,69],[59,61],[10,36],[-16,68],[23,77],[-7,16],[-75,76],[-61,51],[-48,60],[-115,91],[-42,50],[24,93]],[[4991,6364],[98,-5],[30,-44],[34,-29],[64,-7],[25,-18],[86,-16],[70,-5],[86,7],[20,-29],[70,15],[58,-6],[83,29],[-9,-54],[20,-25],[-1,-46],[32,0],[16,-23],[3,-47],[32,-18],[68,56],[24,121],[-4,30],[21,104],[-32,25],[-34,55],[35,31],[49,0],[9,35],[-38,40],[-12,46],[30,35],[13,37],[-11,40],[1,54],[-11,40],[16,47],[52,47],[-31,41],[8,81],[33,55],[-32,92],[-23,47],[39,66],[53,50]],[[6031,7318],[164,-6],[26,-67],[11,-60],[12,-16],[16,-67],[23,-49],[25,-79]],[[6308,6974],[-50,-132],[-3,-147],[-27,-47],[14,-82],[21,-52],[-13,-27],[21,-88],[-10,-51],[10,-45],[-15,-48],[11,-82],[-24,-27],[-9,-53],[-1,-66],[13,-33],[3,-113],[8,-47],[-6,-37],[25,-57],[48,-41]],[[6324,5699],[-76,-20],[-229,-42]],[[4991,6364],[62,53],[10,26],[55,11],[41,71],[37,34]],[[5196,6559],[56,76],[3,31],[28,15],[38,50],[53,0],[70,-27],[47,21],[51,-46],[45,25],[75,-23],[39,-41],[29,23],[-2,61],[-10,21],[24,26],[10,57],[-39,59],[-38,27],[-5,63],[48,59],[-20,15],[-25,46],[101,92],[40,20],[46,48],[-4,66]],[[5856,7323],[175,-5]],[[7979,2316],[-21,-31],[26,-23],[31,-65],[-38,-41],[-14,-36],[-39,27],[-29,-36],[27,-46],[5,-49],[-26,-8],[-16,-50],[-27,-12],[-23,-138],[-33,-33],[15,-41],[-2,-50],[-21,-37],[-41,-27],[66,-38],[8,-84],[48,23],[27,-47],[-14,-19],[43,-42],[-8,-37],[15,-52],[-10,-42],[17,-31],[-37,-45],[-36,8],[-4,-57],[-28,8],[-34,-21],[29,-33],[3,-29],[47,-22],[13,-19],[-50,-21],[19,-24],[-6,-54],[21,-9],[15,-37],[-14,-49],[-22,-10],[28,-56],[-26,-75],[16,-3],[-17,-116],[0,-63],[-48,-87],[-33,-44],[4,-52],[26,-11],[0,-219],[-144,1],[-2,-112],[-842,468],[-573,317],[-405,227],[-486,270],[-266,146]],[[5093,1428],[270,156],[147,89],[222,151],[41,32],[97,44],[50,33],[70,-3],[42,-33],[43,10],[133,-35],[57,11],[11,29],[-9,64],[8,42],[-7,51],[49,36],[33,42],[32,71],[85,215]],[[5196,6559],[-67,67],[35,54],[-7,45],[-41,37]],[[5116,6762],[130,131],[16,43],[43,3],[36,77],[20,6],[54,-73],[67,-52],[46,24],[43,-12],[-14,48],[24,45],[-12,64],[43,85],[2,34],[30,59],[27,81]],[[5671,7325],[185,-2]],[[5721,7525],[-12,-26],[-42,-11],[-16,-61],[-96,-8],[-30,-18],[13,-38],[-22,-36],[155,-2]],[[5116,6762],[-55,35],[-66,8],[-47,34],[-69,-27]],[[4879,6812],[54,51],[63,2],[20,37],[23,-6],[23,47],[70,37],[68,74],[-11,26],[-60,36],[-132,17],[-40,15],[-126,49],[-82,65],[-160,125],[-46,35],[-25,70],[-130,338],[866,251],[61,15],[22,-38],[52,-40],[48,25],[45,-268],[54,-78],[18,-20],[92,-58],[44,-48],[31,-46]],[[5306,5218],[-46,38]],[[5260,5256],[-172,145],[-78,61],[-23,29],[-51,101],[-21,93],[-18,27],[-47,110],[-70,28],[-41,3],[-18,18],[-27,108],[-46,51],[1,54],[-48,37],[-43,80],[8,31],[-33,4]],[[4533,6236],[12,46],[-9,75],[21,4],[-24,65],[30,3],[1,33],[32,8],[31,32],[-13,17],[88,29],[3,31],[24,12],[17,59],[26,1],[21,39],[26,13],[19,78],[41,31]],[[5260,5256],[-151,-3],[-212,15],[-127,-14],[-113,-3],[-129,-17],[-73,-35],[-38,-27],[-67,-76],[-111,-53],[-103,-14],[-26,-251],[5,-53],[12,-21],[68,-44],[60,-28],[31,-32],[-55,-25],[-38,-42],[-20,5],[-76,-12],[-46,1],[-80,-66],[-48,-12],[-60,-26],[-52,12],[-56,-74],[-31,-8],[-81,-42],[-63,-5],[-127,-48],[-68,-20],[-28,13],[-65,-40],[-39,5],[-46,-28],[-197,-37],[-59,-30],[0,-24],[-25,-31],[26,-39],[-7,-44],[7,-36],[-7,-54],[-17,-28],[-6,-42],[-89,-21],[-10,-45],[-39,0],[-36,-38],[-8,-45],[-55,-19],[-60,4],[-50,-14],[-2,-44]],[[2573,3601],[-56,22],[5,45],[-21,9],[-43,83],[-46,49],[-46,12],[-24,20],[-2,39],[-27,21],[-19,-23],[-37,19],[-15,32],[-37,33],[-2,58],[-25,79],[45,71],[54,53],[103,-2],[25,40],[-13,21],[37,37],[4,41],[-12,23],[36,97],[-22,49],[-37,47],[4,30],[40,42],[-36,47],[33,72],[-16,15],[21,33],[62,42],[-4,34],[33,8],[52,61],[26,6],[66,111],[57,15],[33,69],[33,-12],[51,35],[80,21],[57,-29],[72,74],[32,6],[-9,43],[34,52],[28,8],[38,35],[-32,57],[29,61],[86,-24],[4,-39],[63,-39],[33,44],[33,98],[21,38],[49,5],[23,53],[28,23],[14,54]],[[3536,5725],[33,6],[26,26],[36,14],[20,36],[36,-11],[89,49],[63,46],[34,3],[37,22],[26,41],[112,86],[24,-11],[36,42],[32,16],[90,-24],[41,31],[10,35],[56,15],[53,1],[40,41],[44,19],[46,6],[13,22]],[[6006,3177],[-160,-38],[-28,5],[-33,25],[-29,-6],[-34,-28],[-16,-44],[-33,-40],[-37,-11],[-70,-53],[-79,-49],[-90,-50],[-112,-51],[-51,-40],[-51,-55],[-65,-81],[-30,-61],[-80,-105],[-141,-114],[-165,-157],[-76,-100],[-28,25],[-60,25],[7,24],[-38,38],[-50,11],[-49,-20],[-21,40],[-19,-14],[-38,32],[-23,-3],[-56,22],[-41,59],[-50,-9],[-105,7],[-42,-11],[-49,41],[-21,-13],[-40,23],[-40,46],[-71,-25],[-28,34],[44,79],[46,34],[3,62],[-52,18],[-32,51],[-37,20],[-14,29],[-70,-6],[-25,-15],[-151,42],[-90,-28],[-37,-36],[-16,-101],[-48,-53],[-103,-67]],[[3182,2485],[-864,487]],[[2318,2972],[17,66],[43,4],[-38,41],[10,13],[-22,53],[56,133],[23,68],[-15,22],[24,29],[-1,41],[33,-11],[8,55],[17,28],[64,-3],[-10,37],[31,24],[15,29]],[[5093,1428],[-187,108],[-262,144],[-315,175],[-91,49],[-611,341],[-49,22],[-396,218]],[[839,6154],[42,-115],[9,-50],[29,-19],[50,2],[38,-32],[37,-80],[4,-39],[50,-16],[-80,-66],[5,-74],[-17,-40],[38,-12],[39,52],[46,8],[58,-33],[55,-19],[12,-22],[-1,-46],[15,-15],[-1,-49],[-14,-10],[7,-58],[-47,-31]],[[1213,5390],[-15,37],[-24,22],[-36,57],[-23,57],[-38,-16],[-32,7],[-18,33],[-47,-50],[-48,4],[-42,-14],[-23,30],[-19,84],[-217,-110],[-171,-56],[-41,-38],[-7,-25],[-53,-75],[77,-83],[38,-50],[-85,-15],[-41,-65],[-88,-5],[-22,-21],[-45,-6]],[[193,5092],[36,87],[-13,80],[-43,57],[3,30],[-19,61],[-27,45],[20,65],[-93,94],[-17,32],[-25,48],[-15,135],[173,163],[106,104],[39,11],[41,-10],[43,-26],[35,7],[26,-8],[203,46],[173,41]],[[527,4779],[43,18],[62,-14],[12,-19],[117,-51],[29,4],[68,-54],[37,-4],[48,-40],[92,-64],[30,-28],[30,-60],[43,-41],[24,2],[20,-48],[32,-12],[26,-37],[43,-22],[29,-48],[-7,-35],[67,-92],[-58,-23],[-25,-46],[-6,-39],[18,-35],[43,-38],[124,55],[56,18],[62,35]],[[1586,4061],[16,-39],[17,-90],[0,-152],[11,-109],[12,-29],[38,-34],[68,-120],[13,-56],[-56,-75],[-68,-5]],[[1637,3352],[-519,290],[-357,200],[-74,244],[-37,153],[-17,35],[8,47],[-28,115],[-17,48],[-25,91],[-44,204]],[[1336,5003],[-31,31],[-48,17],[-87,90],[-29,-1],[-40,42],[25,24],[15,39],[43,42],[7,40],[21,31],[1,32]],[[839,6154],[42,11],[237,59],[50,12],[137,34],[76,19]],[[2140,5712],[34,-16],[43,15],[42,0],[36,-15],[31,-29],[64,6],[14,-15],[31,-101],[35,-33]],[[2470,5524],[43,-10],[31,8],[39,-28],[48,-13],[-31,-29],[75,-42],[71,30],[46,-64],[32,-20],[55,-54],[51,60],[68,70],[-38,36],[-48,-2],[-46,24],[153,241],[10,23]],[[3029,5754],[36,-47],[27,-6],[46,-37],[54,-23],[22,24],[25,56],[25,19],[119,47],[32,36]],[[3415,5823],[121,-98]],[[2318,2972],[-84,48],[-597,332]],[[1586,4061],[69,35],[30,27],[119,57],[55,53],[35,10],[52,35],[35,46],[0,19],[43,63],[-2,27],[34,53],[13,45],[25,33],[91,37],[61,12],[-10,50],[-60,45],[-112,31],[-80,93],[-33,8],[-26,-14],[-32,8],[-52,39],[-43,4],[-18,25],[7,30],[-49,34],[-37,9],[-56,-5],[-51,7],[-35,-7],[-44,58],[-42,26],[-11,31]],[[527,4779],[-40,-4],[-40,12],[-4,63],[-25,16],[-36,36],[-41,15],[-5,58],[-64,63],[-19,4],[-30,4],[-32,46],[2,0]],[[2470,5524],[27,63],[27,115],[35,50],[117,75],[9,38],[-16,37],[31,68],[1,94],[30,23],[-52,82]],[[2679,6169],[48,41]],[[2727,6210],[86,-57],[-72,-71],[114,-52],[1,-27],[-36,-48],[48,-25],[53,-2],[-13,-80],[19,-39],[30,-32],[72,-23]],[[2173,6485],[27,7],[98,21],[379,-87],[185,-149],[-1,-1]],[[2861,6276],[-35,-4],[-99,-62]],[[2679,6169],[-41,-10],[-40,-57],[-36,-9],[-35,-31],[1,-37],[-46,-28],[-65,-25]],[[2861,6276],[328,-265],[226,-188]],[[5721,7525],[45,36],[14,51],[56,27],[13,69],[34,47],[30,3],[23,38],[-2,25],[22,50],[6,83],[36,110],[83,82],[29,79],[-26,64],[13,31],[33,5],[38,24],[49,68],[41,28],[45,-12],[132,-29],[26,129],[90,211],[0,42],[17,53],[36,4],[45,-12],[18,-42],[-6,-55],[72,18],[21,33],[25,-2],[13,-33],[-39,-114],[47,-16],[74,-38],[-7,-9],[203,-104],[5,-7]],[[7075,8462],[-8,-76],[8,-37],[-17,-72],[-17,-14],[-234,45],[-50,14],[4,50],[-38,16],[-64,-42],[35,-110],[-81,-58],[-49,-50],[-14,-71],[-54,-47],[-37,-21],[-16,-80],[-22,-17],[0,-36],[-42,-56],[-76,-40],[-57,11],[-65,-7],[-40,-23],[-16,-38],[-53,-29],[-5,-45],[-65,-100],[-47,-46],[-60,2],[-34,-41],[-12,-48],[21,-36],[-14,-37]],[[6951,6981],[-194,-7],[-120,1],[-329,-1]],[[7075,8462],[71,-102],[43,-17],[113,-8],[15,-32],[48,8],[14,-47],[26,-27],[166,-333],[-173,-187],[-188,163],[-219,-12],[12,-70],[62,6]],[[6324,5699],[56,22],[210,108],[47,16],[82,17],[-18,-85],[24,-8],[3,-35],[28,-12],[46,-94],[51,-23],[16,-44],[51,18],[48,-9],[8,-21],[38,-4],[-14,-38],[13,-56],[59,7],[81,81],[116,19],[57,-23],[15,6]]],"transform":{"scale":[0.00018389801162715393,0.00018645179120238827],"translate":[34.59102628420254,-2.1052009630707618]},"objects":{"wards.033.final":{"type":"GeometryCollection","geometries":[{"arcs":[[0,1,2,3,4,5]],"type":"Polygon","properties":{"code":"0881","name":"Kilgoris Central","constituency_code":"177","county_code":"033"}},{"arcs":[[6,7,8,9]],"type":"Polygon","properties":{"code":"0895","name":"Olorropil","constituency_code":"179","county_code":"033"}},{"arcs":[[10,11,12,13,14,-8]],"type":"Polygon","properties":{"code":"0896","name":"Melili","constituency_code":"179","county_code":"033"}},{"arcs":[[15,16,17,18,19]],"type":"Polygon","properties":{"code":"0897","name":"Mosiro","constituency_code":"180","county_code":"033"}},{"arcs":[[-13,20,-20,21,22]],"type":"Polygon","properties":{"code":"0898","name":"Ildamat","constituency_code":"180","county_code":"033"}},{"arcs":[[-17,23,24]],"type":"Polygon","properties":{"code":"0899","name":"Keekonyokie","constituency_code":"180","county_code":"033"}},{"arcs":[[-24,-16,-21,-12,25]],"type":"Polygon","properties":{"code":"0900","name":"Suswa","constituency_code":"180","county_code":"033"}},{"arcs":[[-19,26,27,28,29,30,31,32,-22]],"type":"Polygon","properties":{"code":"0901","name":"Majimoto/naroosura","constituency_code":"181","county_code":"033"}},{"arcs":[[-32,33,34,35,36,37]],"type":"Polygon","properties":{"code":"0902","name":"Ololulung'a","constituency_code":"181","county_code":"033"}},{"arcs":[[-35,38,39,40]],"type":"Polygon","properties":{"code":"0903","name":"Melelo","constituency_code":"181","county_code":"033"}},{"arcs":[[-28,41,42]],"type":"Polygon","properties":{"code":"0904","name":"Loita","constituency_code":"181","county_code":"033"}},{"arcs":[[-40,43,44,45]],"type":"Polygon","properties":{"code":"0905","name":"Sogoo","constituency_code":"181","county_code":"033"}},{"arcs":[[46,-45,47,48]],"type":"Polygon","properties":{"code":"0906","name":"Sagamian","constituency_code":"181","county_code":"033"}},{"arcs":[[-31,49,50,51,-48,-44,-39,-34]],"type":"Polygon","properties":{"code":"0907","name":"Ilmotiok","constituency_code":"182","county_code":"033"}},{"arcs":[[-51,52,53,54]],"type":"Polygon","properties":{"code":"0908","name":"Mara","constituency_code":"182","county_code":"033"}},{"arcs":[[-30,55,56,57,-53,-50]],"type":"Polygon","properties":{"code":"0909","name":"Siana","constituency_code":"182","county_code":"033"}},{"arcs":[[-29,-43,58,-56]],"type":"Polygon","properties":{"code":"0910","name":"Naikarra","constituency_code":"182","county_code":"033"}},{"arcs":[[59,60,61]],"type":"Polygon","properties":{"code":"0882","name":"Keyian","constituency_code":"177","county_code":"033"}},{"arcs":[[62,63,64]],"type":"Polygon","properties":{"code":"0883","name":"Angata Barikoi","constituency_code":"177","county_code":"033"}},{"arcs":[[-4,65,-60,66]],"type":"Polygon","properties":{"code":"0884","name":"Shankoe","constituency_code":"177","county_code":"033"}},{"arcs":[[-2,67,68,69,70,-54,-58,71,-64,72]],"type":"Polygon","properties":{"code":"0885","name":"Kimintet","constituency_code":"177","county_code":"033"}},{"arcs":[[-61,-66,-3,-73,-63,73]],"type":"Polygon","properties":{"code":"0886","name":"Lolgorian","constituency_code":"177","county_code":"033"}},{"arcs":[[-69,74,75,76]],"type":"Polygon","properties":{"code":"0887","name":"Ilkerin","constituency_code":"178","county_code":"033"}},{"arcs":[[-6,77,78,-76,79]],"type":"Polygon","properties":{"code":"0888","name":"Ololmasani","constituency_code":"178","county_code":"033"}},{"arcs":[[-1,-80,-75,-68]],"type":"Polygon","properties":{"code":"0889","name":"Mogondo","constituency_code":"178","county_code":"033"}},{"arcs":[[-70,-77,-79,80]],"type":"Polygon","properties":{"code":"0890","name":"Kapsasian","constituency_code":"178","county_code":"033"}},{"arcs":[[81,82,-46,-47]],"type":"Polygon","properties":{"code":"0891","name":"Olpusimoru","constituency_code":"179","county_code":"033"}},{"arcs":[[-10,83,-36,-41,-83,84]],"type":"Polygon","properties":{"code":"0892","name":"Olokurto","constituency_code":"179","county_code":"033"}},{"arcs":[[-14,-23,-33,-38,85]],"type":"Polygon","properties":{"code":"0893","name":"Narok Town","constituency_code":"179","county_code":"033"}},{"arcs":[[-9,-15,-86,-37,-84]],"type":"Polygon","properties":{"code":"0894","name":"Nkareta","constituency_code":"179","county_code":"033"}}]}}}