{"type":"Topology","arcs":[[[2852,7951],[9,-44],[33,-51],[9,-34]],[[2903,7822],[20,-13],[27,0],[12,-16],[-2,-75]],[[2960,7718],[-19,-11],[-49,-5],[-19,-31]],[[2873,7671],[-33,-2],[-23,-29],[-37,9],[-37,26],[-3,32],[10,45],[-3,65],[-62,-3],[-6,-42],[-40,4],[-40,-5],[-17,6],[-31,-11]],[[2551,7766],[-1,98],[-8,36],[36,11],[12,18]],[[2590,7929],[59,5]],[[2649,7934],[71,-1],[46,34],[19,-13],[42,10],[25,-13]],[[2903,7822],[22,11],[106,-8],[24,10],[19,26]],[[3074,7861],[39,11],[22,-12],[35,16],[14,-10],[47,-1],[32,27],[21,-6]],[[3284,7886],[-8,-33],[-56,-2],[-39,-30],[-38,-40],[-60,-3],[-29,-27],[-17,2],[-55,-37],[-22,2]],[[2852,7951],[22,6]],[[2874,7957],[56,-48],[47,-15],[16,-13],[67,-5],[14,-15]],[[2649,7934],[-1,59],[-10,28],[25,52],[33,33],[-34,22],[-27,8]],[[2635,8136],[-37,13],[15,32],[-5,32],[34,20]],[[2642,8233],[24,-49],[-9,-22],[62,-42],[40,-87],[18,-18],[36,5],[39,-34],[22,-29]],[[2590,7929],[1,64],[31,18],[-24,42],[-4,75],[41,8]],[[3398,4884],[-25,11],[-36,-10],[-35,18],[-17,21],[-40,25],[-19,2],[-37,30],[2,-62],[-5,-32],[-70,-9],[1,-94],[-30,26],[-14,-2],[-77,21],[-80,7],[-23,12],[-15,-32],[-59,-34],[-52,12],[-46,2],[-41,-15],[-206,-22],[-114,-14]],[[2360,4745],[91,124],[53,68],[102,137],[242,110],[131,63]],[[2979,5247],[36,-13],[38,20],[22,21],[14,53],[31,-5],[47,67],[54,18],[13,-7],[44,25],[14,20]],[[3292,5446],[45,-55],[12,-34],[5,-68],[17,-35],[-4,-45],[14,-16],[-23,-35],[0,-51],[9,-67],[-2,-66],[9,-20],[31,-8],[-7,-62]],[[2979,5247],[-37,38],[-1,22],[17,94],[-33,76],[-4,68],[-8,9],[-63,-18],[-49,22],[-26,36],[-121,210],[-15,35],[-6,61],[3,53],[12,56],[4,109],[24,210]],[[2676,6328],[82,-41],[34,-6],[56,7],[143,9]],[[2991,6297],[10,-27],[-17,-69],[26,-55],[87,-125],[14,-3],[31,-31],[-2,-15],[-30,-37],[51,-56],[10,-22],[-12,-20],[-43,-7],[-27,-44],[2,-35],[70,-43],[24,-40],[-20,-23],[-1,-29],[25,-28],[4,-19],[43,-37],[3,-36],[32,-20],[13,12],[19,-33],[-11,-9]],[[2991,6297],[322,4],[42,2],[-14,-29],[-12,-50],[23,-115],[79,-105]],[[3431,6004],[72,-76],[25,-38],[62,-3],[26,22],[24,-1],[14,-26],[33,-16],[-6,-24],[17,-14],[35,5],[14,-20],[37,-14],[30,1],[36,18],[50,-36],[33,-56],[97,-40],[41,-47],[61,-21],[-12,-112],[9,-78],[-2,-20],[35,-38],[10,-26],[25,-11],[-23,-31],[20,-19],[-21,-17],[18,-17],[23,-51],[47,-1],[26,-73],[-7,-32],[18,-23],[26,-54],[14,-15],[47,-3],[15,-16],[41,3],[-1,-35],[16,-21],[-3,-44]],[[4453,4884],[-16,-4],[-84,-49],[-106,-54],[-56,-21],[-38,23],[-32,-42],[-82,11],[-160,27],[-187,41],[-31,10],[-101,20],[-132,36],[-30,2]],[[4453,4884],[-3,-15],[-32,-25],[-4,-35],[41,-26],[14,-48],[40,-33],[10,-63],[28,-51],[23,-6],[19,-82],[16,-22],[7,-80]],[[4612,4398],[33,-5],[23,-25],[37,0],[20,12],[29,-6]],[[4754,4374],[-53,-17],[-72,-30],[-40,-39],[-37,-27],[-49,-27]],[[4503,4234],[-30,-13],[-68,-82],[-27,-81],[-9,-11],[-50,-137],[-126,-332]],[[4193,3578],[-234,133],[-59,72],[-16,13],[-61,25],[-44,-13],[-17,16],[-26,0],[-89,24],[-118,44],[-59,-41],[-87,-46],[-275,-77],[-208,31],[13,220],[-43,43],[-33,-15],[-60,18],[-57,-14],[-16,17],[-33,9],[-22,16],[-34,-4],[-46,8],[-35,-7],[-21,-17],[-59,4],[-14,-24],[-198,43],[-65,-128],[-33,-38],[-29,-76]],[[2115,3814],[-24,36],[-39,-2],[-62,88],[1,40],[-24,35],[-2,55],[-28,101],[-31,51],[-38,84],[16,19],[75,121],[36,32],[12,28],[35,38],[23,41],[10,47],[51,20],[234,97]],[[4193,3578],[-142,-341],[-90,-180],[-29,-20],[-10,-21],[-31,1],[-40,-42],[-5,-29],[-22,-21],[-24,-53],[-47,-70],[-51,-35],[-27,-1],[-26,-44],[2,-43],[-23,-34],[-37,-115]],[[3591,2530],[-342,209],[-158,95],[-318,183],[-275,172],[-418,258],[-214,134]],[[1866,3581],[242,219],[7,14]],[[4501,6326],[0,-9],[-211,-165],[-40,-9],[-26,-23],[-65,3],[-91,-18],[-28,-29],[-118,-25],[-190,-29],[-145,-9],[-16,-15],[-18,13],[-30,-2],[-58,23],[-15,-1],[-19,-27]],[[2676,6328],[-211,65]],[[2465,6393],[33,48],[42,71],[27,58],[49,153],[18,135],[-4,51],[12,80],[77,2],[84,-11],[162,11],[161,0],[67,30],[-7,23]],[[3186,7044],[17,1],[21,-36],[64,-20],[31,-46],[39,-16],[43,-3],[40,21],[17,24],[59,9],[47,24],[24,36],[28,11],[101,6],[31,86],[14,55],[40,13],[27,-8]],[[3829,7201],[3,-19],[25,-38],[34,0],[25,-7],[35,-60],[42,-63],[-26,-20],[38,-53],[23,21],[92,-132],[27,-41],[297,-432],[11,-13],[46,-18]],[[3843,7513],[61,-34],[7,-11],[-23,-55],[14,-40],[-23,-38],[-17,-11],[0,-45],[-9,-44],[-15,1],[-9,-35]],[[3186,7044],[13,49],[-44,94],[-10,11]],[[3145,7198],[61,-20],[48,7],[13,32],[72,24],[63,-38],[38,-11],[50,-23],[37,23],[49,7],[40,-19],[28,-30],[21,-7],[73,45],[8,48],[-12,56],[-13,32],[-3,42],[9,34],[24,25],[76,30],[16,58]],[[3145,7198],[-1,11],[-101,152],[-39,67],[-92,181],[-39,62]],[[3284,7886],[32,-19],[65,1],[1,-19],[20,-22],[29,-9],[25,-23],[34,-15],[35,7],[39,-36],[-1,-2],[0,-1],[-45,-256],[0,-27],[21,-32],[75,53],[28,29],[34,18],[17,23],[87,13],[13,-29],[50,-27]],[[5457,5125],[76,-42],[201,-160],[79,-61],[27,-12],[91,-42],[82,-31],[83,-37],[48,-22],[10,-20],[27,-20],[-4,-30],[36,-20],[51,1],[34,-46],[81,-69],[96,-32],[21,-1],[159,24],[14,-1],[106,-40],[24,2],[30,-38],[8,-42],[56,-22],[-67,-33],[-41,-64],[-28,-25],[-18,-37],[-36,-19],[6,-50],[10,-12],[-1,-47],[-9,-26],[10,-17],[-24,-25],[-3,-39],[-28,-52],[-26,15],[-37,-18],[-12,-22],[-34,-9],[-55,-26],[-28,30],[-40,-25],[1,-25],[-43,-15]],[[6390,3823],[-11,8],[-31,-20],[-44,-1],[-13,-54],[3,-36],[31,-42],[-50,-18],[-66,-47],[-3,-38],[-13,-27],[-43,-28],[-13,-32],[-28,-46],[-50,-18],[-23,16],[-35,-17],[-30,5],[-47,-33],[-30,2],[-22,23],[-82,53],[-50,48],[-115,136],[-79,63],[-22,13],[-42,65],[-43,45],[-38,57],[-167,214],[-123,169],[-76,10],[-31,12],[-98,-1],[-33,8],[-37,-24],[-38,34],[-26,40],[-18,12]],[[4612,4398],[12,5],[118,146],[98,139],[128,187],[49,9],[78,27],[11,19],[46,24],[31,-9],[35,15],[55,56],[27,-3],[44,28],[9,21],[38,28],[25,2],[38,16],[3,17]],[[4501,6326],[41,-7],[23,18],[26,-4],[9,-21],[-8,-46],[14,-37],[31,-12],[-25,-50],[25,-8],[8,-17],[-36,-66],[5,-25],[-42,-46],[14,-24],[-9,-20],[-1,-59],[53,-44],[2,-20],[21,-25],[3,-72],[-10,-8],[-6,-45],[-22,-6],[32,-62],[51,-83],[35,-16],[-1,-28],[29,-22],[33,10],[31,-8],[18,10],[52,-4],[49,-11],[37,-34],[14,-33],[39,-32],[31,-4],[10,-29],[31,-46],[14,-75],[69,-41],[48,1],[20,-22],[183,-20],[15,-8]],[[2465,6393],[-474,73],[-157,34],[-108,27],[-19,7]],[[1707,6534],[-177,132],[-65,52],[-382,75]],[[1083,6793],[-16,83],[-65,349]],[[1002,7225],[31,15],[48,63],[-4,-83],[27,8],[27,-38],[29,41],[21,2],[11,-34],[17,-5],[18,34],[13,-13],[2,-32],[52,63],[6,16],[54,1],[109,23],[98,8],[106,22],[84,11],[82,5],[162,32],[63,-37],[-10,87],[-10,136],[89,-87],[50,-44],[133,4],[185,10],[25,73],[0,48],[8,42],[31,-1],[9,-35],[19,10],[-8,41],[-18,38],[-11,56],[1,61]],[[6285,2106],[0,-55],[20,-327],[-15,-98],[8,-58],[4,-82],[26,-193],[-42,-12],[-108,52],[-25,28],[-56,33],[-5,-48],[-18,-51],[-22,-25],[-42,-26],[-5,-20],[-44,-42],[-16,-61],[-27,-17]],[[5918,1104],[-70,43]],[[5848,1147],[25,20],[0,58],[30,48],[35,105],[11,49],[-57,39],[-134,111],[-103,80],[-34,-12],[-16,21],[-14,60],[-18,46],[-45,72],[-27,14],[-34,42],[-8,27],[145,303],[178,-80]],[[5782,2150],[14,-24],[94,-72],[140,-97],[24,31],[53,30],[71,49],[56,6],[51,33]],[[1866,3581],[-225,137],[-453,280],[-332,203]],[[856,4201],[129,127],[188,182],[151,80],[139,71],[146,77],[84,313],[81,287],[41,132],[96,331],[46,142],[54,193],[-94,126],[-210,272]],[[277,6940],[554,-99],[252,-48]],[[856,4201],[-113,68],[-439,271],[-304,185],[0,9],[2,91],[105,-1],[0,178],[-19,9],[-3,42],[25,36],[35,72],[0,50],[13,95],[-12,2],[19,62],[-20,45],[16,9],[10,39],[-11,30],[-16,8],[5,44],[-15,19],[38,17],[-10,16],[-35,18],[-2,23],[-21,27],[25,17],[20,-6],[3,46],[27,-7],[27,37],[-13,25],[8,35],[-11,43],[6,29],[-32,34],[10,16],[-19,38],[-36,-19],[-6,69],[-48,30],[30,23],[16,30],[1,41],[-11,33],[24,27],[17,112],[20,10],[12,41],[19,6],[-4,40],[-20,37],[22,30],[28,-22],[10,29],[29,34],[-23,52],[-19,20],[15,25],[-16,30],[-14,47],[5,63],[29,83],[18,26],[24,71]],[[1002,7225],[-25,177],[-58,383],[-46,322],[-77,-9]],[[796,8098],[261,304],[300,350],[36,44],[-7,89],[-37,415],[-5,52],[267,-134],[362,-187],[171,-144],[7,0],[-19,-82],[-62,-239],[-17,-63],[-87,-124],[384,-83],[196,-41],[96,-22]],[[277,6940],[13,29],[26,1],[5,44],[22,42],[-8,55],[-33,58],[-45,137],[-15,34],[-4,39],[-40,30],[87,102],[108,126],[335,381],[68,80]],[[4503,4234],[47,-78],[30,-9],[43,-44],[15,-44],[-9,-50],[36,-52],[30,2],[55,-48],[11,-26],[0,-46],[24,-30],[28,-82],[20,-22],[35,-103],[84,-103],[11,-21],[139,-132],[24,-50],[82,-54],[36,9],[16,-35],[28,-8],[16,-40],[27,-18],[14,-30],[10,-47],[74,7],[11,9],[99,25],[40,17],[35,-4],[29,20],[29,34],[1,19],[36,14],[22,-1],[13,27],[36,48],[1,-621],[1,-517]],[[5848,1147],[-442,267],[-401,247],[-453,278],[-207,125],[-199,126],[-555,340]],[[6390,3823],[109,-139],[100,-123],[340,-425],[130,-173],[194,-243],[138,-171],[58,-110],[27,-72],[21,-38]],[[7507,2329],[-214,-116],[-160,-108],[-145,-53],[-17,37],[-17,13],[6,29],[-26,37],[-36,22],[-57,14],[-13,-7],[-44,23],[-28,-6],[-48,-35],[-46,-4],[-8,13],[-110,2],[-19,20],[-49,-11],[-41,-31],[-20,6],[-6,-42],[-19,-24],[-27,14],[-40,-17],[-38,1]],[[7506,642],[-36,19],[-13,34],[-20,20],[-3,26],[-32,68],[-23,-5],[-11,19],[-33,9],[-58,35],[-9,13],[-44,10],[-25,46],[-61,-27],[-33,2],[-26,14],[-30,-6],[-23,-41],[-53,-33],[0,-14],[-31,-14],[-27,10],[-8,34],[-36,29],[-16,-17],[-17,22],[-37,14],[-6,34],[-30,1],[-4,29],[-42,27],[-9,14],[-28,-14],[-29,-3],[-38,-47],[-25,2],[-18,50],[-66,-2],[-22,9],[-46,-15],[-38,1],[-6,26],[-35,8],[-68,28],[-12,-7],[-44,11],[-77,-20],[-40,-32],[-37,-6]],[[6081,1003],[-163,101]],[[7507,2329],[14,-28],[56,-63],[34,-114],[31,-12],[45,-2],[13,-14],[27,-66],[-5,-69],[-10,-9],[0,-38],[13,-58],[32,-42],[-52,-277],[-28,-146],[-92,-74],[-22,-202],[-57,-473]],[[7506,642],[-19,-168],[-65,-6],[-1,-323],[-1,-73],[-19,-58],[-64,-14],[-20,32],[-71,51],[-26,2],[-32,-24],[-17,6],[-4,2],[-379,-31],[-17,-2],[-5,43],[-72,481],[-368,272],[-185,130],[-60,41]]],"transform":{"scale":[0.0002498350050405094,0.0002289873617213721],"translate":[36.00061575722586,-3.189173589627328]},"objects":{"wards.034.final":{"type":"GeometryCollection","geometries":[{"arcs":[[0,1,2,3,4,5,6]],"type":"Polygon","properties":{"code":"0911","name":"Olkeri","constituency_code":"183","county_code":"034"}},{"arcs":[[-2,7,8,9]],"type":"Polygon","properties":{"code":"0912","name":"Ongata Rongai","constituency_code":"183","county_code":"034"}},{"arcs":[[-1,10,11,-8]],"type":"Polygon","properties":{"code":"0913","name":"Nkaimurunya","constituency_code":"183","county_code":"034"}},{"arcs":[[-7,12,13,14,-11]],"type":"Polygon","properties":{"code":"0914","name":"Oloolua","constituency_code":"183","county_code":"034"}},{"arcs":[[-6,15,-13]],"type":"Polygon","properties":{"code":"0915","name":"Ngong","constituency_code":"183","county_code":"034"}},{"arcs":[[16,17,18,19]],"type":"Polygon","properties":{"code":"0916","name":"Purko","constituency_code":"184","county_code":"034"}},{"arcs":[[-19,20,21,22]],"type":"Polygon","properties":{"code":"0917","name":"Ildamat","constituency_code":"184","county_code":"034"}},{"arcs":[[-20,-23,23,24,25]],"type":"Polygon","properties":{"code":"0918","name":"Dalalekutuk","constituency_code":"184","county_code":"034"}},{"arcs":[[-17,-26,26,27,28,29,30,31]],"type":"Polygon","properties":{"code":"0919","name":"Matapato North","constituency_code":"184","county_code":"034"}},{"arcs":[[-31,32,33,34]],"type":"Polygon","properties":{"code":"0920","name":"Matapato South","constituency_code":"184","county_code":"034"}},{"arcs":[[35,-24,-22,36,37,38,39]],"type":"Polygon","properties":{"code":"0921","name":"Kaputiei North","constituency_code":"185","county_code":"034"}},{"arcs":[[40,-39,41,42]],"type":"Polygon","properties":{"code":"0922","name":"Kitengela","constituency_code":"185","county_code":"034"}},{"arcs":[[-43,43,-3,-10,44]],"type":"Polygon","properties":{"code":"0923","name":"Oloosirkon/sholinke","constituency_code":"185","county_code":"034"}},{"arcs":[[45,46,-28,47]],"type":"Polygon","properties":{"code":"0924","name":"Kenyawa-Poka","constituency_code":"185","county_code":"034"}},{"arcs":[[48,-48,-27,-25,-36]],"type":"Polygon","properties":{"code":"0925","name":"Imaroro","constituency_code":"185","county_code":"034"}},{"arcs":[[-4,-44,-42,-38,49,50,51,52]],"type":"Polygon","properties":{"code":"0926","name":"Keekonyokie","constituency_code":"186","county_code":"034"}},{"arcs":[[53,54,55,56]],"type":"Polygon","properties":{"code":"0935","name":"Kimana","constituency_code":"187","county_code":"034"}},{"arcs":[[-18,-32,-35,57,58,-50,-37,-21]],"type":"Polygon","properties":{"code":"0927","name":"Iloodokilani","constituency_code":"186","county_code":"034"}},{"arcs":[[59,-51,-59,60]],"type":"Polygon","properties":{"code":"0928","name":"Magadi","constituency_code":"186","county_code":"034"}},{"arcs":[[-14,-16,-5,-53,61,62]],"type":"Polygon","properties":{"code":"0929","name":"Ewuaso Oonkidong'i","constituency_code":"186","county_code":"034"}},{"arcs":[[-62,-52,-60,63]],"type":"Polygon","properties":{"code":"0930","name":"Mosiro","constituency_code":"186","county_code":"034"}},{"arcs":[[-30,64,-56,65,-33]],"type":"Polygon","properties":{"code":"0931","name":"Entonet/lenkisim","constituency_code":"187","county_code":"034"}},{"arcs":[[66,67,-57,-65,-29,-47]],"type":"Polygon","properties":{"code":"0932","name":"Mbirikani/eselenkei","constituency_code":"187","county_code":"034"}},{"arcs":[[68,69,-54,-68,70]],"type":"Polygon","properties":{"code":"0933","name":"Kuku","constituency_code":"187","county_code":"034"}},{"arcs":[[-69,71]],"type":"Polygon","properties":{"code":"0934","name":"Rombo","constituency_code":"187","county_code":"034"}}]}}}