{"type":"Topology","arcs":[[[3281,2798],[-87,-16],[-130,-75],[-259,-103],[198,-332]],[[3003,2272],[-90,-103],[-74,-47],[-36,3],[-44,-35],[-69,-9],[-40,-22],[-52,19],[-22,-26],[-50,19],[-32,-10],[-44,29],[-111,-9],[-7,42],[-43,86],[-55,53],[-53,-7],[-29,20]],[[2152,2275],[56,76],[-12,43]],[[2196,2394],[17,40],[123,72],[86,67],[39,7],[2,38],[38,13],[29,51],[72,33],[62,75],[74,29],[31,80],[-54,16],[-108,-60],[-153,1],[-4,46],[-38,-14],[-56,42],[-68,24],[-53,-13],[-64,50]],[[2171,2991],[150,72]],[[2321,3063],[54,10],[31,-43],[66,-15],[21,29],[83,51]],[[2576,3095],[61,38],[48,-51],[37,-9],[64,55],[82,35],[11,45],[75,32],[102,-1],[59,44],[23,-62],[46,18]],[[3184,3239],[-33,-95],[23,-54],[69,-16],[36,-26],[-8,-127],[10,-123]],[[4081,3791],[0,-75],[24,-62],[46,-41],[41,33],[61,25],[18,-14],[80,16],[50,-8],[27,-28],[14,-61],[99,10],[16,-12],[-29,-145],[55,-23],[-69,-43],[-14,-62],[-30,-8],[-14,-120],[15,-92],[-44,-208],[-31,-48],[-36,0],[-63,-37],[-4,-78],[-74,-45],[-23,29],[-46,2],[-37,-28],[-24,76],[-36,36],[-27,-53],[-48,-45],[-27,-121],[-80,35],[19,141],[-78,63],[-27,17],[-189,86],[-29,-71],[-115,-7],[-29,13],[-142,-40]],[[3184,3239],[36,15],[-1,73],[76,34],[4,34],[56,2],[46,31],[81,-27],[33,71]],[[3515,3472],[130,-55],[25,13],[85,4],[63,-12],[63,76],[-5,28],[80,56],[31,72],[9,58],[35,33],[8,38],[42,8]],[[4186,4142],[-1,-51],[44,-35],[10,-51],[-71,-52],[-1,-47],[-66,-36],[-36,-3],[-3,-59],[19,-17]],[[3515,3472],[4,103],[-30,156],[56,-23],[73,22],[-69,64],[-65,-1],[-13,141],[-2,135],[-13,191],[6,63],[49,94]],[[3511,4417],[46,-43],[-54,-70],[-15,-92],[34,-71],[76,-103],[101,-47],[40,30],[77,29],[20,-70],[104,2],[65,17],[83,-14],[56,123],[42,34]],[[3511,4417],[-16,18],[-44,-64],[-146,-151],[-8,-52],[-80,-137]],[[3217,4031],[-115,83],[-14,78],[-71,-14],[-141,13]],[[2876,4191],[-126,357],[-8,31],[55,168],[20,24],[153,93],[195,58],[32,-56],[-80,-36],[-9,-31],[150,38],[97,-5],[28,-34],[103,-15],[17,52],[47,4],[119,-124],[28,-38],[170,1],[16,-21],[82,25],[190,-175],[144,-22],[49,-104],[-25,-27],[38,-48],[0,0],[0,-1],[-83,-88],[-28,-50],[-64,-25]],[[2303,3981],[205,-12],[21,6],[113,80],[62,60]],[[2704,4115],[38,-150],[-52,-29],[-27,-84],[30,-56],[75,-103],[-23,-69],[-44,-65],[66,-162],[-1,-65]],[[2766,3332],[-193,-69],[-43,21],[6,-63],[40,-126]],[[2321,3063],[-47,212],[-36,122],[-3,99],[-41,4]],[[2194,3500],[-1,55],[25,106],[-10,28],[32,36],[16,130],[47,126]],[[2704,4115],[21,15],[151,61]],[[3217,4031],[-10,-59],[-61,-50],[21,-81],[4,-60],[-17,-20],[8,-125],[-84,-97],[-94,-73],[-49,-18],[-45,-46],[-66,11],[-31,-69],[-27,-12]],[[2194,3500],[-195,-1],[-40,74],[-54,1],[20,61],[-47,85],[-49,-59],[-118,232],[-129,2],[-60,89],[1,11],[358,50],[198,93],[142,-115],[82,-42]],[[2113,2992],[-35,-27],[29,-33],[17,-53],[-8,-81],[-21,-41],[-61,-25],[-9,-25],[8,-103]],[[2033,2604],[-139,-73],[-16,-20],[-62,14],[-24,45],[-41,-23],[-39,11]],[[1712,2558],[3,64],[-13,29],[8,59],[-23,36],[-32,109]],[[1655,2855],[14,86],[34,32],[-12,43],[7,73],[-10,80],[17,38]],[[1705,3207],[50,-39],[9,-53],[52,-49],[162,5],[58,-30],[31,8],[46,-57]],[[2152,2275],[-65,-60],[-47,-15],[-19,-30],[43,-53],[-78,-67]],[[1986,2050],[-32,-2],[-21,42],[7,41],[-28,34],[-43,10],[-16,34]],[[1853,2209],[38,49],[-17,109],[-27,61],[96,-6],[146,32]],[[2089,2454],[107,-60]],[[2089,2454],[-31,57],[-2,46],[-23,47]],[[2113,2992],[58,-1]],[[1712,2558],[-15,-98],[9,-51],[-15,-48],[8,-58],[41,-15]],[[1740,2288],[-95,-26]],[[1645,2262],[-22,40],[-4,67],[-18,46],[-51,50],[-64,14]],[[1486,2479],[-51,19],[-119,13],[-123,-85],[-62,-4]],[[1131,2422],[53,88],[-44,22],[-6,61],[68,3],[19,123],[25,32],[20,92],[-9,47]],[[1257,2890],[51,-18],[76,61],[70,13],[36,-24],[56,9],[29,-29],[5,-60],[75,13]],[[1986,2050],[49,-72],[-16,-36],[-122,-28],[-61,26],[-50,-57],[-58,-7],[-71,-31],[-54,35],[-37,55]],[[1566,1935],[84,105],[-20,81],[-56,-8],[-19,32],[69,69],[21,48]],[[1740,2288],[34,-11],[79,-68]],[[1076,927],[-47,-83],[69,-89],[-8,-29],[-87,-73],[-20,-43],[-75,-54],[-76,-74]],[[832,482],[-88,-36],[-58,7],[-60,59],[-18,53]],[[608,565],[76,84],[4,89],[-31,42],[-9,45],[13,49],[84,-31],[29,46],[40,150],[110,-1]],[[924,1038],[27,3],[56,-28],[69,-86]],[[924,1038],[-30,21]],[[894,1059],[69,46],[-22,57],[-49,56],[72,38],[-43,83],[7,42],[-23,69]],[[905,1450],[45,67],[53,-46],[53,-7]],[[1056,1464],[103,-67],[42,-62],[21,-8]],[[1222,1327],[-34,-85],[9,-41],[69,-22],[30,-30],[-26,-69],[21,-39],[45,-16],[-10,-57],[30,-60],[30,-40],[-33,-38],[-45,-120]],[[1308,710],[-151,78],[-40,97],[-41,42]],[[832,482],[45,-45],[-47,-21],[-22,-129],[81,22],[99,4]],[[988,313],[43,-50],[18,-57],[-22,-104]],[[1027,102],[-64,-14],[-76,4],[-14,-14],[-103,-22],[-29,38],[-25,-40],[-78,5],[-48,-59],[-42,19],[-40,75],[29,49],[-16,27],[11,63],[39,108],[-24,51],[21,58],[-37,16],[7,78]],[[538,544],[70,21]],[[988,313],[93,30],[35,25],[113,44],[51,38],[9,112],[-8,67],[31,57]],[[1312,686],[45,-61],[63,-60],[81,-31],[49,-66],[8,-57],[-9,-3],[-125,-88],[-77,-66],[-37,-63],[-113,-53],[-36,-28],[-134,-8]],[[894,1059],[-110,94],[-50,25],[-99,-17],[-32,-17],[-115,9],[-58,-17],[-69,29]],[[361,1165],[-29,46],[-1,3]],[[331,1214],[3,22],[55,31],[94,14],[67,120]],[[550,1401],[39,-13],[31,34],[119,33],[52,44],[66,-3],[48,-46]],[[1308,710],[4,-24]],[[538,544],[-27,6],[-62,-43],[-43,-78],[-41,-22],[37,50],[-5,36],[-39,46],[-36,77],[-24,96],[23,49],[-8,119],[20,21],[-24,39],[26,23],[-8,52],[-27,27],[31,39],[3,45],[27,39]],[[1566,1935],[-40,-55]],[[1526,1880],[-43,26],[0,81],[-69,-12],[-46,44],[-22,58]],[[1346,2077],[20,91],[-20,48],[12,43],[-11,47],[19,55],[86,104],[34,14]],[[3003,2272],[57,-96],[-65,-86],[-32,-14],[-104,-110],[-38,-62],[-29,-18],[-61,37],[-94,-29],[-48,22],[-36,-23],[-90,-1],[-18,-17],[-77,-12],[-111,21],[-76,-91],[-47,-13],[-30,-30],[-60,-17],[-85,21],[-23,32],[-82,2],[-94,-45],[-71,30],[-91,-24],[-31,13],[-30,-57],[-63,-172],[-76,-89],[92,-36],[-40,-54],[-56,-1],[-71,-28],[-20,14],[-68,-27],[-13,15]],[[1056,1464],[45,54]],[[1101,1518],[87,-49],[126,33],[64,68],[41,78],[32,31],[75,201]],[[1101,1518],[75,57],[44,3],[22,79],[-64,13],[-76,56],[18,99],[53,92]],[[1173,1917],[25,49],[52,-9],[9,46],[48,67],[39,7]],[[550,1401],[0,65],[19,44],[-16,35],[29,45],[-19,86],[79,143],[43,57],[20,54],[49,29],[31,46],[28,7]],[[813,2012],[78,-13]],[[891,1999],[6,-33],[44,3],[108,-53],[58,28],[66,-27]],[[891,1999],[39,51],[47,26],[-13,117],[-45,56],[-93,22]],[[826,2271],[16,85],[31,-4],[51,44],[42,-12],[75,29],[42,-9],[48,18]],[[813,2012],[-25,43],[-54,-4],[-40,52],[-17,-33],[-24,-100],[-38,-35],[-40,116],[-44,6],[-66,-63],[-33,-56],[-94,38],[21,31],[-43,66],[-88,-64],[-18,-30],[7,-104],[-49,-68]],[[168,1807],[-58,26],[11,55],[-24,54],[-52,47],[-25,96],[-20,180],[19,54],[-11,33],[33,56],[100,51],[34,40],[125,112],[20,39]],[[320,2650],[27,-16],[90,-95],[89,-26],[21,-52],[46,-63],[50,-38],[105,-28],[17,-26],[61,-35]],[[331,1214],[-67,2],[-66,24],[4,82],[43,7],[21,130],[-4,60],[27,20],[-5,55],[-45,57],[2,52],[-23,40],[-50,64]],[[1257,2890],[-11,17],[-153,7],[-41,-13],[-25,-74],[-45,18],[-20,-74],[-94,-12],[-53,32],[-75,86],[-72,50],[-89,-15],[-111,24],[-106,6]],[[362,2942],[6,135],[32,103],[8,28],[61,61],[212,51],[112,207],[55,115],[12,4],[50,-42],[59,-5],[90,-28],[43,25],[70,-5],[63,-17],[15,42],[35,-25],[45,3],[48,-51],[55,-23],[31,-53],[15,-89],[45,-25],[35,15],[49,-46],[47,-18],[50,-97]],[[320,2650],[9,95],[24,100],[9,97]]],"transform":{"scale":[0.00014615808854670658,0.00014199230139304848],"translate":[35.00452789028393,-0.6736927933447324]},"objects":{"wards.035.final":{"type":"GeometryCollection","geometries":[{"arcs":[[0,1,2,3,4,5,6,7]],"type":"Polygon","properties":{"code":"0935","name":"Chepseon","constituency_code":"188","county_code":"035"}},{"arcs":[[8,-8,9,10]],"type":"Polygon","properties":{"code":"0936","name":"Kedowa/kimugul","constituency_code":"188","county_code":"035"}},{"arcs":[[11,-11,12,13]],"type":"Polygon","properties":{"code":"0937","name":"Londiani","constituency_code":"188","county_code":"035"}},{"arcs":[[-14,14,15,16]],"type":"Polygon","properties":{"code":"0938","name":"Tendeno/sorget","constituency_code":"188","county_code":"035"}},{"arcs":[[17,18,19,-6,20,21]],"type":"Polygon","properties":{"code":"0939","name":"Chilchila","constituency_code":"189","county_code":"035"}},{"arcs":[[22,-16,23,-19]],"type":"Polygon","properties":{"code":"0940","name":"Kamasian","constituency_code":"189","county_code":"035"}},{"arcs":[[-7,-20,-24,-15,-13,-10]],"type":"Polygon","properties":{"code":"0941","name":"Kipkelion","constituency_code":"189","county_code":"035"}},{"arcs":[[-22,24]],"type":"Polygon","properties":{"code":"0942","name":"Kunyak","constituency_code":"189","county_code":"035"}},{"arcs":[[25,26,27,28,29]],"type":"Polygon","properties":{"code":"0943","name":"Ainamoi","constituency_code":"190","county_code":"035"}},{"arcs":[[-3,30,31,32,33]],"type":"Polygon","properties":{"code":"0944","name":"Kapkugerwet","constituency_code":"190","county_code":"035"}},{"arcs":[[-4,-34,34,-26,35]],"type":"Polygon","properties":{"code":"0945","name":"Kapsaos","constituency_code":"190","county_code":"035"}},{"arcs":[[-28,36,37,38,39,40,41]],"type":"Polygon","properties":{"code":"0946","name":"Kapsoit","constituency_code":"190","county_code":"035"}},{"arcs":[[-32,42,43,-38,44]],"type":"Polygon","properties":{"code":"0947","name":"Kipchebor","constituency_code":"190","county_code":"035"}},{"arcs":[[-27,-35,-33,-45,-37]],"type":"Polygon","properties":{"code":"0948","name":"Kipchimchim","constituency_code":"190","county_code":"035"}},{"arcs":[[45,46,47,48]],"type":"Polygon","properties":{"code":"0949","name":"Cheboin","constituency_code":"191","county_code":"035"}},{"arcs":[[-49,49,50,51,52,53,54]],"type":"Polygon","properties":{"code":"0950","name":"Chemosot","constituency_code":"191","county_code":"035"}},{"arcs":[[-47,55,56,57,58]],"type":"Polygon","properties":{"code":"0951","name":"Cheplanget","constituency_code":"191","county_code":"035"}},{"arcs":[[-57,59,60]],"type":"Polygon","properties":{"code":"0952","name":"Kapkatet","constituency_code":"191","county_code":"035"}},{"arcs":[[-51,61,62,63,64]],"type":"Polygon","properties":{"code":"0953","name":"Kisiara","constituency_code":"191","county_code":"035"}},{"arcs":[[-46,-55,65,-60,-56]],"type":"Polygon","properties":{"code":"0954","name":"Litein","constituency_code":"191","county_code":"035"}},{"arcs":[[-48,-59,66,-62,-50]],"type":"Polygon","properties":{"code":"0955","name":"Tebesonik","constituency_code":"191","county_code":"035"}},{"arcs":[[-39,-44,67,68,69]],"type":"Polygon","properties":{"code":"0956","name":"Belgut","constituency_code":"192","county_code":"035"}},{"arcs":[[70,-53,71,72,-68,-43,-31,-2]],"type":"Polygon","properties":{"code":"0957","name":"Chaik","constituency_code":"192","county_code":"035"}},{"arcs":[[-69,-73,73,74]],"type":"Polygon","properties":{"code":"0958","name":"Cheptororiet/seretut","constituency_code":"192","county_code":"035"}},{"arcs":[[-52,-65,75,76,77,-74,-72]],"type":"Polygon","properties":{"code":"0959","name":"Kabianga","constituency_code":"192","county_code":"035"}},{"arcs":[[-40,-70,-75,-78,78,79]],"type":"Polygon","properties":{"code":"0960","name":"Waldai","constituency_code":"192","county_code":"035"}},{"arcs":[[-77,80,81,82,-79]],"type":"Polygon","properties":{"code":"0961","name":"Kaplelartet","constituency_code":"193","county_code":"035"}},{"arcs":[[-64,83,-81,-76]],"type":"Polygon","properties":{"code":"0962","name":"Sigowet","constituency_code":"193","county_code":"035"}},{"arcs":[[-29,-42,84,85]],"type":"Polygon","properties":{"code":"0963","name":"Soin","constituency_code":"193","county_code":"035"}},{"arcs":[[-41,-80,-83,86,-85]],"type":"Polygon","properties":{"code":"0964","name":"Soliat","constituency_code":"193","county_code":"035"}}]}}}