{"type":"Topology","arcs":[[[483,2403],[44,55],[70,-4],[23,37],[27,-36],[93,21],[13,13],[69,-4],[58,14],[122,7]],[[1002,2506],[25,-51],[-1,-76],[-95,-23],[-39,-25],[7,-89],[39,-1],[-43,-95],[32,-23],[-12,-36],[27,-39]],[[942,2048],[1,-77],[-261,3]],[[682,1974],[-29,75],[-48,31],[-38,107],[-42,39],[5,45],[-21,34],[33,39],[-10,46],[-49,13]],[[1002,2506],[33,26],[103,50],[34,59],[70,61],[114,83]],[[1356,2785],[62,-53],[3,-58],[-90,-40],[133,-50],[9,-43],[69,-43],[24,-58],[-9,-70]],[[1557,2370],[-38,-46],[-30,-1],[-51,-68]],[[1438,2255],[-79,-31],[-57,-57],[-60,17],[-37,-7],[-117,-147],[-21,35],[-72,12],[-53,-29]],[[1438,2255],[0,-351]],[[1438,1904],[-38,-24],[-17,-43],[-49,2],[-24,-45],[-68,-23],[-22,-20],[-52,-2],[4,-53],[-19,-20],[9,-44]],[[1162,1632],[-129,-45],[-19,41],[-28,-41],[41,-51],[8,-38],[-24,-64],[-24,-19],[-14,-46],[56,-61],[-6,-32]],[[1023,1276],[-122,56],[-66,-12],[-63,6],[-4,-75]],[[768,1251],[-78,78],[-13,100],[-93,48],[-18,42]],[[566,1519],[84,110],[4,48],[31,62],[47,53],[-36,30],[-40,148],[26,4]],[[648,679],[-212,184],[-434,107],[0,5],[-2,60],[38,54],[40,-24],[3,88],[-27,86],[67,19],[79,-52],[291,342]],[[491,1548],[61,-49],[14,20]],[[768,1251],[19,-88],[35,-33],[-26,-84],[26,-26],[46,-89],[34,-48]],[[902,883],[-29,-50],[-47,14],[-42,-49],[-5,-27],[-54,-63],[-77,-29]],[[491,1548],[-200,460],[-65,151],[3,45],[79,47],[37,-1],[24,27],[-17,52],[-44,55],[6,30],[-40,49],[-11,47],[3,70],[20,53],[30,25],[5,31],[-44,62],[1,33],[37,21],[39,73],[57,40],[24,-5],[-6,-73],[33,-16],[-18,-54],[21,-48],[-35,-101],[-10,-59],[14,-25],[-26,-46],[37,-70],[38,-18]],[[902,883],[78,-96],[19,24],[152,-58],[-6,-80],[142,-80],[24,-6],[49,24],[46,-4]],[[1406,607],[26,-78],[-7,-24],[31,-33],[63,-22],[-14,-69],[32,-52],[28,2],[33,113],[34,-17],[53,18],[13,-53],[26,-44],[-12,-57],[-27,-12],[-35,-54],[-41,-27],[-4,-39],[-53,-57]],[[1552,102],[-23,-45],[-41,-17],[-30,-32],[-37,-8],[-139,121],[-259,231],[-375,327],[0,0]],[[1162,1632],[49,-38],[32,-85],[86,-57],[72,-20],[89,21],[38,20],[30,54]],[[1558,1527],[171,-164],[-28,-49],[7,-32],[-55,-58],[-16,-76],[-31,-31],[29,-41]],[[1635,1076],[-37,-42],[34,-44],[-71,-46],[-31,-8]],[[1530,936],[12,27],[-31,73],[-26,29],[-5,50],[-59,2],[-1,37],[-45,21],[-24,-15],[-96,8],[-88,20],[-144,88]],[[1558,1527],[-78,78],[91,107],[114,54],[95,7],[72,90]],[[1852,1863],[48,-63],[78,-84],[-13,-32],[39,-113],[53,35],[0,22],[45,39]],[[2102,1667],[133,-13]],[[2235,1654],[-96,-142],[-3,-45],[22,-62],[-49,-25],[14,-36],[52,-57],[-35,-149]],[[2140,1138],[-2,-41],[-52,-7],[34,-125],[-35,-120]],[[2085,845],[-39,55],[-35,28],[-42,76],[-8,-59],[-28,-32],[4,-38],[-72,-40],[-120,58],[46,90],[68,113],[11,40],[-61,0],[-65,39],[-67,-78],[-42,-21]],[[2112,450],[-37,-20],[-41,-52],[-27,13],[-129,-105],[-30,-51],[-42,-26],[-39,-4],[-72,-57],[-101,-60],[-42,14]],[[1406,607],[45,82],[5,72],[23,-2],[35,39],[52,24],[-9,76],[-27,38]],[[2085,845],[-18,-57],[32,-96],[-20,-67],[13,-72],[-1,-63],[21,-40]],[[3048,1751],[45,-18],[152,-21],[68,-44],[13,-32],[-77,-91],[-81,-46],[-27,-58],[-25,7],[-23,-45],[-73,-2],[-61,-64],[-47,-38],[-23,-95],[-29,-16],[-25,-48],[-29,-1]],[[2806,1139],[12,65],[-30,39],[-11,44],[-68,81]],[[2709,1368],[-10,16],[12,66],[73,56],[37,65],[60,21],[65,62],[48,34],[54,63]],[[2810,1892],[94,-80],[144,-61]],[[2709,1368],[-36,-9],[-61,-45],[-55,-58],[-75,58],[-41,-27],[-43,-9],[-36,12],[-4,79],[-37,39],[-2,59],[59,70]],[[2378,1537],[54,56],[52,-6],[69,82],[1,51],[45,-5],[57,-28],[90,25],[50,87],[-9,67],[23,26]],[[2563,863],[27,-80],[-24,-5],[9,-92],[-13,-57],[-15,-27],[-53,-8],[-50,-23],[-46,-51],[-60,0],[-64,-19],[-12,-43],[-47,-38],[-103,30]],[[2140,1138],[46,-5],[3,-29],[101,4],[-5,-30],[27,-58],[34,13],[70,-30],[8,-57],[46,-71],[93,-12]],[[2806,1139],[-19,-73],[-28,-15],[-4,-38],[-100,-35],[14,-22],[-35,-38],[-36,-11],[-2,-40],[-33,-4]],[[2235,1654],[91,-45],[40,-33],[12,-39]],[[2626,2045],[184,-153]],[[2102,1667],[-57,34],[-26,49],[43,64],[-4,60],[22,23],[35,-25],[25,-39],[85,-29],[36,-30],[38,2],[-3,87],[66,-10],[10,26],[-56,140],[-41,7]],[[2275,2026],[9,35],[79,-41],[-5,-44],[20,-40],[58,6],[34,-19],[30,20],[3,38],[68,33],[26,-6],[29,37]],[[1557,2370],[79,93],[54,27],[33,42],[32,14]],[[1755,2546],[140,-27]],[[1895,2519],[36,-36],[59,-81],[5,-35],[37,-56],[28,-98]],[[2060,2213],[-140,-33],[-42,11],[-89,1],[-66,-36],[-10,-61],[-79,-11]],[[1634,2084],[-28,-17],[-44,-71],[-52,-44],[-70,-44],[0,0],[-2,-4]],[[1634,2084],[139,-139]],[[1773,1945],[79,-82]],[[2396,2591],[149,-417]],[[2545,2174],[-52,-52],[-53,11],[-22,36],[-38,0],[-7,33],[-83,4],[-32,-14],[-36,-47],[-34,38],[-82,6],[-46,24]],[[1895,2519],[63,5],[14,23],[63,-4],[60,7],[161,-10],[66,-39],[60,43],[11,45]],[[2393,2589],[3,2]],[[1773,1945],[83,51],[137,53],[85,3],[15,80],[38,18],[59,-42],[-13,-109],[57,54],[41,-27]],[[2545,2174],[29,-86],[52,-43]],[[2393,2589],[-43,124],[108,127],[-96,150],[-2,104],[-47,163],[-77,165],[-73,-53],[-45,-70],[-24,-105],[-50,-81],[-43,-131]],[[2001,2982],[-45,-55],[-69,-13],[-31,-48],[-47,-36],[-76,31],[-57,-16],[-62,17],[-58,57],[-46,3],[-37,-16],[5,-61],[-26,-26],[-88,-31]],[[1364,2788],[-7,53],[-45,62],[-74,29],[-58,57],[-40,57],[-4,22],[41,113],[30,35],[-27,37]],[[1180,3253],[48,1],[75,-34],[43,5],[38,-16],[13,-35],[64,-7],[20,23],[50,-6],[44,39],[120,-25],[86,-7],[37,17],[4,74],[32,51],[43,31],[49,14],[11,50],[34,44]],[[1991,3472],[39,18],[17,48],[37,19],[28,63],[38,0],[26,28],[-5,421],[-60,-50],[-39,-6],[-20,29],[22,27],[66,20],[30,36],[1,35]],[[2171,4160],[17,15],[81,2],[34,21],[43,-20],[85,27],[56,-36],[27,18],[34,58],[94,103],[30,13],[60,81],[265,-457],[86,-155],[84,-151],[99,-164],[143,-249],[-60,-55],[-63,-124],[102,-188],[-992,-308]],[[1125,3479],[-27,28],[-63,21],[-8,39],[31,79],[12,-14],[62,26],[18,-14],[65,26],[51,2],[36,50],[-84,33],[70,84],[56,161],[28,53],[28,-12],[83,23],[64,-28],[87,42],[74,-2],[21,-30],[77,-19],[55,16],[28,27],[42,13],[69,85],[101,-20],[70,12]],[[1991,3472],[-41,-1],[-54,-38],[-36,31],[-31,-28],[-106,-47],[-80,-1],[-43,-28],[-48,-2],[-64,23],[-26,73],[-117,24],[-37,-59],[-49,20],[-113,17],[-21,23]],[[1755,2546],[-42,1],[51,78],[84,47],[32,44],[37,-30],[41,4],[104,70],[8,76],[28,58],[-13,26],[7,60],[-91,2]],[[1180,3253],[-28,56],[10,54],[-41,15],[-20,37],[24,64]],[[1356,2785],[8,3]]],"transform":{"scale":[0.0001605645197781372,0.00015155029194186304],"translate":[35.01325561098794,-1.0378387983608475]},"objects":{"wards.036.final":{"type":"GeometryCollection","geometries":[{"arcs":[[0,1,2,3]],"type":"Polygon","properties":{"code":"0965","name":"Chemagel","constituency_code":"194","county_code":"036"}},{"arcs":[[4,5,6,7,-2]],"type":"Polygon","properties":{"code":"0966","name":"Kapletundo","constituency_code":"194","county_code":"036"}},{"arcs":[[-3,-8,8,9,10,11,12,13]],"type":"Polygon","properties":{"code":"0967","name":"Kipsonoi","constituency_code":"194","county_code":"036"}},{"arcs":[[14,15,-13,16,17]],"type":"Polygon","properties":{"code":"0968","name":"Ndanai/abosi","constituency_code":"194","county_code":"036"}},{"arcs":[[-4,-14,-16,18]],"type":"Polygon","properties":{"code":"0969","name":"Rongena/manaret","constituency_code":"194","county_code":"036"}},{"arcs":[[-18,19,20,21]],"type":"Polygon","properties":{"code":"0970","name":"Chebunyo","constituency_code":"195","county_code":"036"}},{"arcs":[[-11,22,23,24,25]],"type":"Polygon","properties":{"code":"0971","name":"Kong'asis","constituency_code":"195","county_code":"036"}},{"arcs":[[-24,26,27,28,29,30,31]],"type":"Polygon","properties":{"code":"0972","name":"Nyangores","constituency_code":"195","county_code":"036"}},{"arcs":[[32,-21,33,-25,-32,34]],"type":"Polygon","properties":{"code":"0973","name":"Sigor","constituency_code":"195","county_code":"036"}},{"arcs":[[-12,-26,-34,-20,-17]],"type":"Polygon","properties":{"code":"0974","name":"Siongiroi","constituency_code":"195","county_code":"036"}},{"arcs":[[35,36,37]],"type":"Polygon","properties":{"code":"0975","name":"Chemaner","constituency_code":"196","county_code":"036"}},{"arcs":[[38,-38,39,40]],"type":"Polygon","properties":{"code":"0976","name":"Kembu","constituency_code":"196","county_code":"036"}},{"arcs":[[41,-35,-31,42]],"type":"Polygon","properties":{"code":"0977","name":"Kipreres","constituency_code":"196","county_code":"036"}},{"arcs":[[43,-43,-30,44,-40,-37]],"type":"Polygon","properties":{"code":"0978","name":"Longisa","constituency_code":"196","county_code":"036"}},{"arcs":[[45,-41,-45,-29,46,47]],"type":"Polygon","properties":{"code":"0979","name":"Merigi","constituency_code":"196","county_code":"036"}},{"arcs":[[-7,48,49,50,51,52,-9]],"type":"Polygon","properties":{"code":"0980","name":"Chesoen","constituency_code":"197","county_code":"036"}},{"arcs":[[-10,-53,53,54,-27,-23]],"type":"Polygon","properties":{"code":"0981","name":"Mutarakwa","constituency_code":"197","county_code":"036"}},{"arcs":[[55,56,-51,57,58]],"type":"Polygon","properties":{"code":"0982","name":"Ndaraweta","constituency_code":"197","county_code":"036"}},{"arcs":[[-28,-55,59,-47]],"type":"Polygon","properties":{"code":"0983","name":"Silibwet Township","constituency_code":"197","county_code":"036"}},{"arcs":[[60,-48,-60,-54,-52,-57]],"type":"Polygon","properties":{"code":"0984","name":"Singorwet","constituency_code":"197","county_code":"036"}},{"arcs":[[-59,61,62,63,64,65,66]],"type":"Polygon","properties":{"code":"0985","name":"Boito","constituency_code":"198","county_code":"036"}},{"arcs":[[67,-66,68]],"type":"Polygon","properties":{"code":"0986","name":"Chepchabas","constituency_code":"198","county_code":"036"}},{"arcs":[[-50,69,-62,-58]],"type":"Polygon","properties":{"code":"0987","name":"Embomos","constituency_code":"198","county_code":"036"}},{"arcs":[[70,-69,-65]],"type":"Polygon","properties":{"code":"0988","name":"Kimulot","constituency_code":"198","county_code":"036"}},{"arcs":[[71,-63,-70,-49,-6]],"type":"Polygon","properties":{"code":"0989","name":"Mogogosiek","constituency_code":"198","county_code":"036"}}]}}}