{"type":"Topology","arcs":[[[4307,3885],[-44,8],[-33,-19],[-53,0],[-63,-31],[-100,-88],[-93,30],[-57,66],[-51,17]],[[3813,3868],[-325,306],[-21,46]],[[3467,4220],[55,-5],[52,17],[64,-29],[39,-35],[53,28],[106,-28],[79,-8],[140,-32]],[[4055,4128],[1,-48],[50,-17],[2,-38],[41,-38],[34,10],[124,-112]],[[3245,3718],[62,-49],[9,-31]],[[3316,3638],[-98,-87],[1,-105]],[[3219,3446],[-3,-41],[-61,-69],[-42,-93],[-76,33],[-53,-43],[-53,-14],[-68,-101],[-41,-21],[-1,-89]],[[2821,3008],[0,-53],[-25,-33],[-54,-18]],[[2742,2904],[-53,7],[-153,52],[-23,-28],[-85,-10],[-32,36]],[[2396,2961],[37,65],[1,33],[55,61],[50,-22],[59,46],[23,-25],[46,32],[42,52],[29,101],[34,38],[54,20],[69,69],[39,60],[-8,55],[40,2],[55,67],[66,17],[62,62],[82,19],[14,5]],[[3467,4220],[-24,-2]],[[3443,4218],[29,92],[60,30],[50,50],[34,57],[125,-13],[39,32],[35,27],[33,-32],[89,-3],[22,45],[28,6],[23,52],[29,0],[37,62],[-56,125]],[[4020,4748],[107,-27],[20,-20],[66,4],[55,-18],[73,0],[71,-62],[32,-57],[66,-40],[40,-75]],[[4550,4453],[-66,-51],[-27,-50],[-109,-41],[-80,-53],[-8,-30],[-94,-36],[-95,-8],[-16,-56]],[[4550,4453],[62,-62],[144,-10],[18,-21],[19,-95],[56,-69]],[[4849,4196],[15,-20],[-16,-66]],[[4848,4110],[-1,-55],[-42,-30],[-26,-87],[-30,-22],[-178,176],[-50,-54],[-97,-23],[-45,-63],[-72,-67]],[[3813,3868],[5,-21]],[[3818,3847],[-33,-39],[-91,-21],[-25,-52],[-97,-6],[-37,-92],[-60,40],[-14,-25],[-66,5],[-79,-19]],[[3245,3718],[-77,90],[38,65],[30,-9],[38,67],[58,18],[65,57],[7,60],[21,24],[-23,74],[41,54]],[[4020,4748],[45,98],[51,33],[36,-7],[61,84],[44,-23],[30,22],[59,0],[54,30],[32,-27],[29,12],[47,-58],[55,-24],[51,29],[34,49],[58,-81],[55,24],[-11,26],[102,10],[-22,34],[61,51],[45,10],[58,-9]],[[4994,5031],[-55,-106],[30,-71],[-7,-57],[-26,-22],[6,-81],[-9,-71],[-56,-100],[-42,-44],[-1,-63]],[[4834,4416],[1,-161],[14,-59]],[[5430,5457],[4,68],[42,19],[93,-25],[-3,-587],[-4,-70]],[[5562,4862],[-47,-44],[-98,-43],[-56,7],[-31,26],[-54,-11]],[[5276,4797],[-2,287],[60,26],[-3,91],[-47,98]],[[5284,5299],[48,50],[14,74],[84,34]],[[5562,4862],[80,6],[-2,-282],[1,-223],[-26,-43],[19,-25],[-33,-36],[-55,12],[-59,-46],[-62,-7],[-55,-53],[-3,-40],[-78,43],[-107,-120],[-103,-4],[-76,20],[-68,-9],[-10,29],[-77,26]],[[4834,4416],[70,-85],[84,-28],[19,-20],[32,90],[-20,192],[182,32],[1,168],[74,32]],[[5393,5599],[37,-142]],[[5284,5299],[-38,-32],[-68,-6],[-69,-45],[-38,-3],[-40,-30]],[[5031,5183],[-26,37],[0,69],[-50,39],[-38,8],[-53,80],[-18,52],[-67,10],[-31,57],[-4,116]],[[4744,5651],[72,-8],[69,38],[-29,69],[94,73],[68,-22],[47,-43],[120,-205],[77,61],[60,14],[71,-29]],[[4994,5031],[32,30],[-10,83],[15,39]],[[4744,5651],[-9,58],[-77,56],[-5,20],[31,85],[13,96],[33,62],[38,-12],[149,65],[81,-42],[86,15],[52,-42],[-12,-40],[35,-49],[78,-20],[34,-37],[81,59],[17,-225],[24,-101]],[[3219,3446],[90,-44],[42,-88],[48,-20],[38,-105],[44,-92],[55,-32],[65,7],[14,-50],[50,-51],[47,-143]],[[3712,2828],[-19,-14],[-52,-95],[-77,-8]],[[3564,2711],[-31,0],[-32,43],[-47,10],[-24,80],[-75,7],[-48,-58],[-62,-15],[-103,20],[-20,94],[-8,105],[-64,52],[-75,-26],[-54,9],[-100,-24]],[[3975,2950],[69,-76],[96,-181],[94,-199]],[[4234,2494],[-79,-30],[-67,-4],[-50,22],[-119,-24],[-145,50],[-45,-12],[-92,-46],[-72,21],[4,-107],[-41,-55],[24,-46]],[[3552,2263],[-74,38],[-162,31],[-43,34],[-17,87],[-20,45]],[[3236,2498],[97,-6],[34,72],[-27,52],[26,37],[60,36],[99,-13],[39,35]],[[3712,2828],[30,-11],[110,75],[57,50],[66,8]],[[4234,2494],[24,-51],[1,-100],[-8,-237]],[[4251,2106],[-89,-6],[-22,94],[-70,98],[-47,19],[-42,-26],[-28,15],[-43,-21],[-21,-51],[-76,-62],[-72,14],[-57,-44],[8,-75],[-47,-6],[-61,18],[-29,24]],[[3555,2097],[-15,49],[12,117]],[[3818,3847],[31,-31],[-312,-399],[121,-97],[29,-39],[94,-57],[130,-114],[13,-109],[51,-51],[0,0]],[[3236,2498],[-61,29],[-40,-17],[-51,9]],[[3084,2519],[-10,38],[-81,62],[-72,20],[-3,58],[-40,1],[-59,-30],[-88,29]],[[2731,2697],[46,47],[-35,160]],[[3555,2097],[-86,-95],[-48,-24],[-29,-58],[-104,-73],[-90,-20],[-66,5]],[[3132,1832],[-141,192]],[[2991,2024],[-31,65],[-114,136]],[[2846,2225],[37,36],[205,30],[48,-53],[56,-14],[-14,74],[-26,53],[-2,48],[-49,56],[-17,64]],[[2846,2225],[-19,14],[-84,-15]],[[2743,2224],[-98,40],[-2,53],[-33,30],[-19,73],[-47,7]],[[2544,2427],[98,97],[2,54],[87,119]],[[2501,1620],[46,-85],[44,-10],[59,-75]],[[2650,1450],[-40,-44],[-26,-87]],[[2584,1319],[-51,-29]],[[2533,1290],[-30,11],[-131,-68],[-46,-11],[-26,-49],[-120,-48],[-59,24]],[[2121,1149],[-29,73],[22,61],[-29,61],[-62,-8],[-67,81]],[[1956,1417],[28,87]],[[1984,1504],[20,25],[139,58],[58,33],[98,-75],[202,75]],[[3132,1832],[-72,-94]],[[3060,1738],[-39,39],[-111,-4],[-56,-45],[6,-46],[-39,-62],[-156,-49],[20,-46],[-35,-75]],[[2501,1620],[50,83],[24,13],[6,65]],[[2581,1781],[78,78],[74,-12],[51,13],[76,50],[16,31],[86,38],[29,45]],[[2121,1149],[-70,-31],[-51,-68],[14,-94],[47,-22]],[[2061,934],[20,-75],[-34,-57]],[[2047,802],[-66,17],[-49,29],[32,-122],[-61,-46],[-54,42]],[[1849,722],[-11,12]],[[1838,734],[-1,134],[-16,36],[69,97],[-7,65],[-53,50]],[[1830,1116],[20,122],[40,36],[-15,109],[-14,16]],[[1861,1399],[52,42],[43,-24]],[[3115,1689],[21,-101],[-36,-101]],[[3100,1487],[-47,-67],[-43,4]],[[3010,1424],[-38,-30],[-50,-9],[-78,16]],[[2844,1401],[16,80],[103,115],[33,72],[64,69]],[[3060,1737],[55,-48]],[[3060,1738],[0,-1]],[[2844,1401],[-50,-14],[-16,50],[-95,-44],[-53,-50],[-46,-24]],[[1984,1504],[-24,16],[-20,78],[79,124],[74,30],[39,87],[-47,104]],[[2085,1943],[43,45],[47,24]],[[2175,2012],[67,41],[77,-34],[41,85]],[[2360,2104],[17,-81],[151,-174],[53,-68]],[[3010,1424],[-22,-168]],[[2988,1256],[-59,-29],[-52,-9]],[[2877,1218],[-21,31],[-137,3],[-136,-59],[-18,-45]],[[2565,1148],[-29,11],[-21,87],[18,44]],[[2743,2224],[-65,-106],[-45,-27],[-160,-27],[-36,26],[-77,14]],[[2175,2012],[4,64],[-19,78],[49,51],[-14,66],[49,22],[-70,143],[-32,21],[-2,40],[-43,120],[-9,78]],[[2088,2695],[44,41],[30,-19],[34,55],[48,-1]],[[2244,2771],[53,-46],[20,-113],[92,-96],[22,-68],[49,-13],[33,-67],[34,12],[-3,47]],[[2244,2771],[54,84],[28,18],[-20,70],[90,18]],[[2085,1943],[-71,-7],[-68,112],[-18,-11]],[[1928,2037],[-64,59],[-47,73],[-59,-5],[-105,36],[-27,127]],[[1626,2327],[40,29],[42,53],[2,59]],[[1710,2468],[21,100],[-19,22],[34,58],[73,50],[55,-58],[32,105],[96,26],[8,-61],[78,-15]],[[947,1629],[-56,-65],[-43,-104],[-67,-125]],[[781,1335],[-66,-78],[-56,-110],[-51,-33],[-56,-17],[-20,-28],[-93,-30],[-65,26]],[[374,1065],[16,45],[-15,73],[25,100],[-70,59],[-16,32],[52,56],[71,17],[58,31],[-3,33],[28,63]],[[520,1574],[64,69],[112,19],[23,13],[147,-11],[30,-26],[51,-9]],[[520,1574],[-18,65],[-49,58],[42,73],[34,38]],[[529,1808],[123,26],[48,39],[51,14],[110,53],[89,18],[13,146],[26,-5]],[[989,2099],[4,-53],[31,-149],[-17,-63],[69,-29],[37,-36]],[[1113,1769],[-86,-74],[-56,-86]],[[971,1609],[-24,20]],[[781,1335],[58,-89],[91,-122],[51,-99],[-11,-70],[-26,2],[-98,-86]],[[846,871],[-84,-14],[-15,11]],[[747,868],[-29,63],[-27,21],[-102,-41],[-51,-64],[-55,-26],[-65,-103],[-113,-54],[-21,1],[45,121],[7,85],[-10,67],[-49,92],[97,35]],[[1928,2037],[-14,-10],[-67,43],[-73,-21],[-20,25],[-120,6],[-3,-29],[63,-44],[68,-19],[8,-103],[40,-25],[-61,-102],[8,-28],[-46,-26],[-16,-68],[25,-70],[-2,-36]],[[1718,1530],[-52,42],[-59,73],[-1,70],[-61,30],[-128,29],[-96,9],[-80,-22]],[[1241,1761],[-65,88],[52,13],[23,34],[70,15],[103,35],[82,66],[11,54],[47,73],[-47,63],[-74,6]],[[1443,2208],[17,49],[33,16],[30,48],[26,-44],[62,59],[15,-9]],[[1113,1769],[68,-22],[60,14]],[[1718,1530],[-31,-8],[-149,-112],[-41,-12]],[[1497,1398],[-42,-26],[-134,-14]],[[1321,1358],[-71,22],[-76,-16],[-24,95],[-83,16],[-68,40],[-5,62],[-23,32]],[[1861,1399],[-32,29],[-67,-58],[-40,8],[-20,-36],[-123,-3],[-82,59]],[[989,2099],[43,0]],[[1032,2099],[68,37],[18,-46],[78,0],[10,49],[75,86],[43,12],[41,-40]],[[1365,2197],[78,11]],[[1365,2197],[62,99],[-51,49],[-57,32],[9,36],[-3,152],[-24,76]],[[1301,2641],[42,84],[-2,42],[51,55],[46,24],[89,-94],[71,-2],[40,-22],[6,-171],[47,-43],[19,-46]],[[1032,2099],[16,193],[-11,75],[-29,35],[-40,111],[1,55],[-99,5],[-39,-19]],[[831,2554],[-14,20],[-29,196],[-15,56]],[[773,2826],[51,7],[50,67],[31,21],[75,26],[77,-137],[18,-63],[61,6],[56,-63],[74,-18],[35,-31]],[[529,1808],[-4,78],[-19,87],[92,144],[21,5],[65,68],[41,17],[52,49],[8,55],[30,56],[21,120],[-23,50]],[[813,2537],[18,17]],[[813,2537],[-22,-40],[-79,-14],[-64,18],[-30,44],[-39,23],[-114,39],[3,-41],[-22,-94],[-73,-11],[-29,-40],[-100,-69],[-119,0],[-50,72],[-75,73],[92,89],[59,40],[18,105],[21,19],[47,18],[36,-15],[52,24],[9,43],[93,59],[104,-1],[75,-70],[65,-16],[49,35],[52,-1],[1,0]],[[1321,1358],[2,-65],[35,-47],[-17,-103],[14,-27],[-171,-92],[25,-40],[-35,-92]],[[1174,892],[-36,-9],[-34,-47],[-43,-29],[-38,21]],[[1023,828],[-45,-11],[-70,10],[-62,44]],[[1838,734],[-128,-38],[-34,18],[-122,-17],[-52,-31],[-38,21]],[[1464,687],[-47,104],[-55,55],[-17,49]],[[1345,895],[64,24],[73,-15],[28,76],[37,12],[47,53],[38,20],[25,-26],[77,-27],[62,35],[9,59],[25,10]],[[1023,828],[20,-43],[-26,-74],[-90,-81],[23,-29],[3,-69],[22,-81]],[[975,451],[-14,-2]],[[961,449],[-50,39],[-54,7],[-98,-29],[-67,-44],[-69,-15],[-61,48],[76,40],[42,74],[-82,76],[-3,90],[45,94],[68,8],[39,31]],[[1345,895],[-46,18],[-50,-13],[-44,13],[-31,-21]],[[1464,687],[-28,-72],[-35,-51],[-52,-5],[-34,52],[-55,20],[-24,-75],[-46,-22],[-19,39],[-69,42],[-50,-56]],[[1052,559],[-21,-54],[-1,-53],[-55,-1]],[[1849,722],[-53,-102],[-59,-20],[-46,-55],[18,-69],[-11,-103]],[[1698,373],[-21,-26],[-75,-41],[131,-73],[22,-38]],[[1755,195],[-76,-16],[-2,-59],[-81,-78],[-80,-3],[-29,-39],[-16,59],[22,71],[-32,2],[-42,65],[49,70],[-40,35],[-27,52],[-79,-18]],[[1322,336],[-24,61],[-55,15],[-26,41],[1,38],[-57,55],[-44,-19],[-17,37],[-48,-5]],[[1698,373],[60,49],[60,16],[13,27],[81,-26],[32,26],[87,25],[9,29],[105,-48],[-13,-44],[51,-29],[106,108],[-15,36]],[[2274,542],[19,18]],[[2293,560],[23,-75],[40,-42],[-19,-56],[6,-60],[-23,-35]],[[2320,292],[-86,-17],[-13,-20],[-188,24],[-111,-17],[-123,-36],[-44,-31]],[[2047,802],[134,-164],[-20,-68],[73,-36],[40,8]],[[1322,336],[-27,-61],[-42,-25],[-75,25],[-5,-46],[-31,-33],[-86,-47],[-10,-75],[-48,26],[-58,3],[-33,-16],[9,117],[-79,31],[-45,5],[-11,54],[116,2],[81,84],[-17,69]],[[3464,1254],[107,-141],[39,-34],[-75,-70],[14,-116],[-20,-50],[-74,-72]],[[3455,771],[-59,3],[-15,23],[-114,7],[-88,75],[-62,78],[-17,-64],[-40,-6],[-36,83],[-20,144],[47,33]],[[3051,1147],[100,-42],[164,39],[41,33],[-9,64],[9,68],[32,0],[76,-55]],[[3443,705],[12,66]],[[3464,1254],[36,48],[-3,151],[-13,26],[-73,27],[-29,26],[-102,-24],[-33,12],[-68,-36],[-79,3]],[[3115,1689],[64,-16],[22,-26],[42,15],[44,52],[-6,60],[56,5],[191,153],[-7,68],[35,57],[47,-9],[8,-51],[101,-10],[63,24],[-11,71],[33,16],[117,-19],[28,-26],[-21,-90],[48,10],[84,-36],[48,11],[39,-57]],[[4140,1891],[18,-142],[90,-221],[89,-198],[65,-147],[8,-42],[2,-14],[-115,-9],[-37,6],[-92,-246],[-93,0],[-28,-68],[-55,8],[-68,-41],[-26,7],[-80,88],[-42,-19],[0,-42],[-106,5],[-6,-32],[-73,21],[-3,-44],[-55,-21],[1,-35],[-85,-5],[-6,5]],[[4251,2106],[-47,-139],[-78,47],[14,-123]],[[2988,1256],[43,-12],[20,-97]],[[3443,705],[-38,-9],[-56,24],[-51,-4],[-53,-28]],[[3245,688],[-150,-29],[-17,15],[-55,-44],[-44,14],[-66,82],[-85,66],[-39,3]],[[2789,795],[23,85],[28,61],[58,67],[-20,46],[5,52],[-39,50],[33,62]],[[2789,795],[-26,32]],[[2763,827],[-76,59],[-5,27],[-108,38]],[[2574,951],[31,70],[-40,127]],[[2061,934],[88,-41],[67,-12],[135,-78],[36,-10],[62,16],[1,57],[-16,79],[54,19],[86,-13]],[[2763,827],[-56,-10],[4,-45],[-25,-26],[-22,-69],[-65,18],[-49,-91]],[[2550,604],[-101,9],[-115,-2],[-41,-51]],[[3245,688],[35,-48],[4,-106],[-47,-62],[-35,56],[-60,4],[-38,-39],[-35,18],[-48,-68],[-60,18],[-21,-54],[-40,-23],[-105,-36],[-61,41],[4,49]],[[2738,438],[-27,131],[-132,14],[-29,21]],[[2738,438],[-103,-66],[-29,15],[-100,-50],[-60,-15],[-56,-71],[-46,1],[-24,40]]],"transform":{"scale":[0.00014394933356548222,0.00013350814997045325],"translate":[34.344071348242075,0.08886491552873413]},"objects":{"wards.037.final":{"type":"GeometryCollection","geometries":[{"arcs":[[0,1,2,3]],"type":"Polygon","properties":{"code":"0990","name":"Chekalini","constituency_code":"199","county_code":"037"}},{"arcs":[[4,5,6,7,8,9]],"type":"Polygon","properties":{"code":"0991","name":"Chevaywa","constituency_code":"199","county_code":"037"}},{"arcs":[[-3,10,11,12,13]],"type":"Polygon","properties":{"code":"0992","name":"Lugari","constituency_code":"199","county_code":"037"}},{"arcs":[[-4,-14,14,15,16]],"type":"Polygon","properties":{"code":"0993","name":"Lumakanda","constituency_code":"199","county_code":"037"}},{"arcs":[[17,18,-5,19,-11,-2]],"type":"Polygon","properties":{"code":"0994","name":"Lwandeti","constituency_code":"199","county_code":"037"}},{"arcs":[[-13,20,21,22,-15]],"type":"Polygon","properties":{"code":"0995","name":"Mautuma","constituency_code":"199","county_code":"037"}},{"arcs":[[23,24,25,26]],"type":"Polygon","properties":{"code":"0996","name":"Kongoni","constituency_code":"200","county_code":"037"}},{"arcs":[[27,-16,-23,28,-25]],"type":"Polygon","properties":{"code":"0997","name":"Likuyani","constituency_code":"200","county_code":"037"}},{"arcs":[[29,-27,30,31,32]],"type":"Polygon","properties":{"code":"0998","name":"Nzoia","constituency_code":"200","county_code":"037"}},{"arcs":[[-22,33,-31,-26,-29]],"type":"Polygon","properties":{"code":"0999","name":"Sango","constituency_code":"200","county_code":"037"}},{"arcs":[[-33,34]],"type":"Polygon","properties":{"code":"1000","name":"Sinoko","constituency_code":"200","county_code":"037"}},{"arcs":[[-7,35,36,37]],"type":"Polygon","properties":{"code":"1001","name":"Butali Chegulo","constituency_code":"201","county_code":"037"}},{"arcs":[[38,39,40,41,-37,42]],"type":"Polygon","properties":{"code":"1002","name":"Chemuche","constituency_code":"201","county_code":"037"}},{"arcs":[[43,44,45,-40]],"type":"Polygon","properties":{"code":"1003","name":"East Kabras","constituency_code":"201","county_code":"037"}},{"arcs":[[46,-43,-36,-6,-19]],"type":"Polygon","properties":{"code":"1004","name":"Manda-Shivanga","constituency_code":"201","county_code":"037"}},{"arcs":[[-8,-38,-42,47,48,49]],"type":"Polygon","properties":{"code":"1005","name":"Shirungu-Mugai","constituency_code":"201","county_code":"037"}},{"arcs":[[-41,-46,50,51,52,53,-48]],"type":"Polygon","properties":{"code":"1006","name":"South Kabras","constituency_code":"201","county_code":"037"}},{"arcs":[[-49,-54,54,55,56]],"type":"Polygon","properties":{"code":"1007","name":"West Kabras","constituency_code":"201","county_code":"037"}},{"arcs":[[57,58,59,60,61,62,63]],"type":"Polygon","properties":{"code":"1008","name":"Butsotso Central","constituency_code":"202","county_code":"037"}},{"arcs":[[-52,64,65,-58,66,67]],"type":"Polygon","properties":{"code":"1009","name":"Butsotso East","constituency_code":"202","county_code":"037"}},{"arcs":[[-62,68,69,70,71,72,73,74]],"type":"Polygon","properties":{"code":"1010","name":"Butsotso South","constituency_code":"202","county_code":"037"}},{"arcs":[[75,76,77,78,79]],"type":"Polygon","properties":{"code":"1011","name":"Mahiakalo","constituency_code":"202","county_code":"037"}},{"arcs":[[-59,-66,80,-79,81]],"type":"Polygon","properties":{"code":"1012","name":"Sheywe","constituency_code":"202","county_code":"037"}},{"arcs":[[-64,82,83,84,85,-67]],"type":"Polygon","properties":{"code":"1013","name":"Shinoyi-Shikomari-Esumeiya","constituency_code":"202","county_code":"037"}},{"arcs":[[-60,-82,-78,86,87,88,89]],"type":"Polygon","properties":{"code":"1014","name":"Shirere","constituency_code":"202","county_code":"037"}},{"arcs":[[-56,90,-85,91,92,93]],"type":"Polygon","properties":{"code":"1015","name":"Bunyala Central","constituency_code":"203","county_code":"037"}},{"arcs":[[-9,-50,-57,-94,94]],"type":"Polygon","properties":{"code":"1016","name":"Bunyala East","constituency_code":"203","county_code":"037"}},{"arcs":[[-84,95,96,97,98,-92]],"type":"Polygon","properties":{"code":"1017","name":"Bunyala West","constituency_code":"203","county_code":"037"}},{"arcs":[[-53,-68,-86,-91,-55]],"type":"Polygon","properties":{"code":"1018","name":"Ingoste-Matiha","constituency_code":"203","county_code":"037"}},{"arcs":[[99,100,101,102]],"type":"Polygon","properties":{"code":"1019","name":"Etenje","constituency_code":"204","county_code":"037"}},{"arcs":[[-103,103,104,105,106,107]],"type":"Polygon","properties":{"code":"1020","name":"Mumias Central","constituency_code":"204","county_code":"037"}},{"arcs":[[-101,108,109,110]],"type":"Polygon","properties":{"code":"1021","name":"Musanda","constituency_code":"204","county_code":"037"}},{"arcs":[[-97,111,112,113,114]],"type":"Polygon","properties":{"code":"1022","name":"East Wanga","constituency_code":"205","county_code":"037"}},{"arcs":[[-107,115,-113,116,117,118]],"type":"Polygon","properties":{"code":"1023","name":"Lusheya Lubinu","constituency_code":"205","county_code":"037"}},{"arcs":[[-63,-75,119,-117,-112,-96,-83]],"type":"Polygon","properties":{"code":"1024","name":"Malaha Isongo Makunga","constituency_code":"205","county_code":"037"}},{"arcs":[[-106,120,121,122,-114,-116]],"type":"Polygon","properties":{"code":"1025","name":"Mumias North","constituency_code":"205","county_code":"037"}},{"arcs":[[-98,-115,-123,123,124]],"type":"Polygon","properties":{"code":"1026","name":"Khalaba","constituency_code":"206","county_code":"037"}},{"arcs":[[-122,125,126,127,-124]],"type":"Polygon","properties":{"code":"1027","name":"Kholera","constituency_code":"206","county_code":"037"}},{"arcs":[[-105,128,129,-126,-121]],"type":"Polygon","properties":{"code":"1028","name":"Mayoni","constituency_code":"206","county_code":"037"}},{"arcs":[[-127,-130,130]],"type":"Polygon","properties":{"code":"1029","name":"Namamali","constituency_code":"206","county_code":"037"}},{"arcs":[[-100,-108,-119,131,132,133,-109]],"type":"Polygon","properties":{"code":"1030","name":"Marama Central","constituency_code":"207","county_code":"037"}},{"arcs":[[-73,134,135,136]],"type":"Polygon","properties":{"code":"1031","name":"Marama North","constituency_code":"207","county_code":"037"}},{"arcs":[[-110,-134,137,138,139]],"type":"Polygon","properties":{"code":"1032","name":"Marama South","constituency_code":"207","county_code":"037"}},{"arcs":[[-74,-137,140,-132,-118,-120]],"type":"Polygon","properties":{"code":"1033","name":"Marama West","constituency_code":"207","county_code":"037"}},{"arcs":[[-133,-141,-136,141,142,-138]],"type":"Polygon","properties":{"code":"1034","name":"Marenyo-Shianda","constituency_code":"207","county_code":"037"}},{"arcs":[[-72,143,144,145,146,-142,-135]],"type":"Polygon","properties":{"code":"1035","name":"Kisa Central","constituency_code":"208","county_code":"037"}},{"arcs":[[-145,147,148,149,150]],"type":"Polygon","properties":{"code":"1036","name":"Kisa East","constituency_code":"208","county_code":"037"}},{"arcs":[[-71,151,-148,-144]],"type":"Polygon","properties":{"code":"1037","name":"Kisa North","constituency_code":"208","county_code":"037"}},{"arcs":[[-139,-143,-147,152]],"type":"Polygon","properties":{"code":"1038","name":"Kisa West","constituency_code":"208","county_code":"037"}},{"arcs":[[153,154,155]],"type":"Polygon","properties":{"code":"1039","name":"Isukha Central","constituency_code":"209","county_code":"037"}},{"arcs":[[156,-154,157,-76,158,159]],"type":"Polygon","properties":{"code":"1040","name":"Isukha East","constituency_code":"209","county_code":"037"}},{"arcs":[[160,-159,-80,-81,-65,-51,-45]],"type":"Polygon","properties":{"code":"1041","name":"Isukha North","constituency_code":"209","county_code":"037"}},{"arcs":[[-88,161,-155,-157,162,163,164]],"type":"Polygon","properties":{"code":"1042","name":"Isukha South","constituency_code":"209","county_code":"037"}},{"arcs":[[-89,-165,165,166,167]],"type":"Polygon","properties":{"code":"1043","name":"Isukha West","constituency_code":"209","county_code":"037"}},{"arcs":[[-77,-158,-156,-162,-87]],"type":"Polygon","properties":{"code":"1044","name":"Murhanda","constituency_code":"209","county_code":"037"}},{"arcs":[[-70,168,-167,169,170,-149,-152]],"type":"Polygon","properties":{"code":"1045","name":"Idakho Central","constituency_code":"210","county_code":"037"}},{"arcs":[[-164,171,172,-170,-166]],"type":"Polygon","properties":{"code":"1046","name":"Idakho East","constituency_code":"210","county_code":"037"}},{"arcs":[[-61,-90,-168,-169,-69]],"type":"Polygon","properties":{"code":"1047","name":"Idakho North","constituency_code":"210","county_code":"037"}},{"arcs":[[-150,-171,-173,173]],"type":"Polygon","properties":{"code":"1048","name":"Idakho South","constituency_code":"210","county_code":"037"}}]}}}