{"type":"Topology","arcs":[[[1605,937],[-76,-45],[-26,-81]],[[1503,811],[-67,-78],[10,-86],[-42,-108],[-52,-81]],[[1352,458],[14,73],[-33,20],[-22,55],[-131,2]],[[1180,608],[16,41],[-20,83]],[[1176,732],[125,108],[12,37],[50,-11],[45,83],[88,-31],[66,79],[6,35]],[[1568,1032],[37,-95]],[[1176,732],[-177,32],[-45,39]],[[954,803],[31,86],[60,29],[-4,113]],[[1041,1031],[12,51]],[[1053,1082],[195,-35],[141,19],[111,-1],[51,14]],[[1551,1079],[17,-47]],[[1180,608],[-73,-25],[5,-68],[-65,-62],[-12,-46],[-93,21],[-69,-54],[-12,-63]],[[861,311],[-91,40],[-93,4]],[[677,355],[12,32],[111,95],[69,99],[52,105]],[[921,686],[39,72],[-6,45]],[[1352,458],[-32,-40],[69,-48],[47,-59]],[[1436,311],[-64,-19],[-53,-110],[-109,5],[-18,51],[-36,28],[-55,-18],[-70,-25],[-167,81],[-3,7]],[[1693,1554],[43,26],[23,61],[64,-20],[51,77],[38,-21],[40,45],[65,-4],[37,-64],[51,70]],[[2105,1724],[9,-27],[59,-12],[12,-114],[-17,-98]],[[2168,1473],[-4,-57],[-45,-51]],[[2119,1365],[-56,5],[-84,55],[-55,-23],[-84,38]],[[1840,1440],[-39,4],[-25,-35],[-42,21]],[[1734,1430],[-27,16],[-14,108]],[[1722,1387],[-40,-107]],[[1682,1280],[-63,53],[-99,-27],[-38,-36],[-104,-35],[-38,20],[-107,-25],[-17,-30],[-63,-33],[-91,28]],[[1062,1195],[35,209]],[[1097,1404],[102,-86],[25,-5],[80,79],[164,-45],[27,20],[125,36],[20,24],[82,-40]],[[1053,1082],[22,85],[-13,28]],[[1682,1280],[-52,-115],[-59,-10],[-42,-28],[22,-48]],[[1722,1387],[12,43]],[[1840,1440],[10,-57],[-28,-13],[-11,-74],[-45,7],[-3,-59],[46,-32],[-8,-68],[18,-121]],[[1819,1023],[-23,-28],[-154,-70],[-37,12]],[[1097,1404],[1,0]],[[1098,1404],[49,-1],[60,81],[65,17],[106,56],[31,-17],[111,75],[-4,-55],[65,-46],[112,40]],[[2119,1365],[7,-35],[-56,-166],[-80,-91]],[[1990,1073],[-136,-53],[-35,3]],[[2397,1022],[-14,-51],[-50,-76],[18,-46],[-71,-113],[-25,-121],[-59,-11],[-74,30]],[[2122,634],[30,53],[-94,27],[-34,-10],[-64,59],[-81,19]],[[1879,782],[25,137],[68,30],[26,35]],[[1998,984],[137,56],[45,-11],[217,-7]],[[1990,1073],[8,-89]],[[1879,782],[-47,-117],[-41,-57],[-78,-53]],[[1713,555],[-4,70],[-24,30],[-65,-14],[-14,43],[-83,54],[-20,73]],[[1713,555],[-45,-77],[-111,-29],[-13,-68]],[[1544,381],[-11,-42]],[[1533,339],[-69,-65]],[[1464,274],[-28,37]],[[2281,1912],[38,-88],[58,11],[44,-47],[2,-41],[-36,-47],[-69,12],[-58,-35],[15,-53],[72,-84],[56,-35],[-2,-51],[-95,-13],[-36,-55]],[[2270,1386],[-102,87]],[[2105,1724],[-5,120],[-37,55],[56,32],[55,4],[60,-28],[41,11],[6,-6]],[[2420,1343],[-13,-80],[18,-27],[-15,-84],[21,-91],[-34,-39]],[[2270,1386],[41,-44],[24,30],[85,-29]],[[2281,1912],[91,6],[-1,40],[60,24],[3,49],[78,-23],[6,36],[113,-5],[0,47],[45,22],[85,-100],[29,-8],[72,47],[59,-10],[-46,-169],[-28,-56],[34,-30],[-54,-118],[-29,-10],[-59,-7],[-137,-85],[-8,-50],[-77,-46],[-97,-123]],[[2122,634],[-69,-45],[-31,-60],[-42,31],[-73,-58],[-23,-46],[-39,-9],[-16,-43],[-121,-69],[-23,40],[1,53],[-43,5],[-49,-48],[-50,-4]],[[1533,339],[39,-86],[15,-89],[-51,-14],[-72,124]],[[677,355],[-114,26],[-43,83],[-39,-37]],[[481,427],[-51,44],[19,46]],[[449,517],[41,-22],[100,49],[3,57]],[[593,601],[21,1],[82,104],[60,-27],[70,-5],[95,12]],[[481,427],[-67,-64],[24,-68],[-63,-158],[0,-56],[-56,-47],[-79,-34],[-33,49],[-2,117],[-45,29],[-54,-36],[-106,61],[62,93]],[[62,313],[38,45],[162,-2],[108,84],[-5,32],[55,52]],[[420,524],[20,-15],[9,8]],[[420,524],[-79,23],[15,50]],[[356,597],[50,46],[-17,65],[42,4]],[[431,712],[66,41],[49,-5]],[[546,748],[-3,-112],[50,-35]],[[62,313],[-62,69],[82,48],[-9,38],[38,32],[10,140],[26,31],[21,77],[33,-5]],[[201,743],[52,-59],[86,-58],[17,-29]],[[546,748],[42,4],[32,69],[-6,60],[54,38]],[[668,919],[99,32],[50,-10],[67,48],[132,3],[25,39]],[[515,1375],[132,41],[118,19]],[[765,1435],[-15,-69],[-51,-106],[17,-55],[-5,-88],[-42,-84],[13,-67],[-14,-47]],[[431,712],[-59,29],[4,48],[33,13],[26,78],[-18,63],[49,58],[-10,96],[34,31],[34,114],[-9,133]],[[765,1435],[201,-27],[14,22],[93,20],[25,-46]],[[201,743],[-23,82],[13,116],[-24,119],[14,58],[31,45],[85,3],[87,88],[3,67],[81,19],[47,35]]],"transform":{"scale":[0.00013446904425579246,0.00011767866745562677],"translate":[34.533800370052745,-0.04273464742206303]},"objects":{"wards.038.final":{"type":"GeometryCollection","geometries":[{"arcs":[[0,1,2,3,4,5]],"type":"Polygon","properties":{"code":"1049","name":"Central Maragoli","constituency_code":"211","county_code":"038"}},{"arcs":[[-5,6,7,8,9,10]],"type":"Polygon","properties":{"code":"1050","name":"Lugaga-Wamuluma","constituency_code":"211","county_code":"038"}},{"arcs":[[-4,11,12,13,14,-7]],"type":"Polygon","properties":{"code":"1051","name":"Mungoma","constituency_code":"211","county_code":"038"}},{"arcs":[[-3,15,16,-12]],"type":"Polygon","properties":{"code":"1052","name":"South Maragoli","constituency_code":"211","county_code":"038"}},{"arcs":[[17,18,19,20,21,22]],"type":"Polygon","properties":{"code":"1053","name":"Busali","constituency_code":"212","county_code":"038"}},{"arcs":[[23,24,25,26]],"type":"Polygon","properties":{"code":"1054","name":"Chavakali","constituency_code":"212","county_code":"038"}},{"arcs":[[-10,27,-25,28]],"type":"Polygon","properties":{"code":"1055","name":"Lyaduywa/izava","constituency_code":"212","county_code":"038"}},{"arcs":[[-6,-11,-29,-24,29,-22,30,31]],"type":"Polygon","properties":{"code":"1056","name":"North Maragoli","constituency_code":"212","county_code":"038"}},{"arcs":[[-23,-30,-27,32,33]],"type":"Polygon","properties":{"code":"1057","name":"West Sabatia","constituency_code":"212","county_code":"038"}},{"arcs":[[-21,34,35,-31]],"type":"Polygon","properties":{"code":"1058","name":"Wodanga","constituency_code":"212","county_code":"038"}},{"arcs":[[36,37,38,39]],"type":"Polygon","properties":{"code":"1059","name":"Banja","constituency_code":"213","county_code":"038"}},{"arcs":[[-1,-32,-36,40,-39,41,42]],"type":"Polygon","properties":{"code":"1060","name":"Gisambai","constituency_code":"213","county_code":"038"}},{"arcs":[[-2,-43,43,44,45,46,-16]],"type":"Polygon","properties":{"code":"1061","name":"Jepkoyai","constituency_code":"213","county_code":"038"}},{"arcs":[[47,48,-19,49]],"type":"Polygon","properties":{"code":"1062","name":"Muhudu","constituency_code":"213","county_code":"038"}},{"arcs":[[50,-40,-41,-35,-20,-49,51]],"type":"Polygon","properties":{"code":"1063","name":"Shamakhokho","constituency_code":"213","county_code":"038"}},{"arcs":[[-52,-48,52]],"type":"Polygon","properties":{"code":"1064","name":"Shiru","constituency_code":"213","county_code":"038"}},{"arcs":[[[-38,53,-44,-42]],[[-46,54]]],"type":"MultiPolygon","properties":{"code":"1065","name":"Tambua","constituency_code":"213","county_code":"038"}},{"arcs":[[-14,55,56,57,58]],"type":"Polygon","properties":{"code":"1066","name":"Emabungo","constituency_code":"214","county_code":"038"}},{"arcs":[[-57,59,60,61]],"type":"Polygon","properties":{"code":"1067","name":"Luanda South","constituency_code":"214","county_code":"038"}},{"arcs":[[-58,-62,62,63,64,65]],"type":"Polygon","properties":{"code":"1068","name":"Luanda Township","constituency_code":"214","county_code":"038"}},{"arcs":[[-61,66,67,-63]],"type":"Polygon","properties":{"code":"1069","name":"Mwibona","constituency_code":"214","county_code":"038"}},{"arcs":[[-8,-15,-59,-66,68,69]],"type":"Polygon","properties":{"code":"1070","name":"Wemilabi","constituency_code":"214","county_code":"038"}},{"arcs":[[70,71,-69,-65,72]],"type":"Polygon","properties":{"code":"1071","name":"Central Bunyore","constituency_code":"215","county_code":"038"}},{"arcs":[[73,-33,-26,-28,-9,-70,-72]],"type":"Polygon","properties":{"code":"1072","name":"North East Bunyore","constituency_code":"215","county_code":"038"}},{"arcs":[[-73,-64,-68,74]],"type":"Polygon","properties":{"code":"1073","name":"West Bunyore","constituency_code":"215","county_code":"038"}}]}}}