{"type":"Topology","arcs":[[[831,2725],[16,-17],[-29,-76],[-1,-36],[-54,-63],[36,-42],[6,-47],[-18,-31]],[[787,2413],[-29,47],[-40,-9],[-93,76],[-64,4],[-111,22],[-65,-10]],[[385,2543],[-25,32],[19,31],[-33,21],[1,50],[48,21],[-1,52],[85,71],[124,34],[23,34],[0,87]],[[626,2976],[176,-25],[-5,-70],[-19,-23],[30,-36],[23,-97]],[[1896,2734],[-27,-5],[-311,-151],[-58,38],[-138,34],[-189,32]],[[1173,2682],[-5,0]],[[1168,2682],[35,66],[-23,45],[-41,26],[-45,60],[14,171],[-19,30],[25,70],[635,-1],[72,-59],[23,-81],[-3,-119],[63,-55],[7,-34],[-15,-67]],[[831,2725],[9,23],[70,-8],[11,-29],[130,-22],[117,-7]],[[1173,2682],[44,-96],[86,10],[13,-18],[-21,-104]],[[1295,2474],[-104,-19],[-20,-58],[3,-81],[-20,-16]],[[1154,2300],[-69,-17],[-35,37],[-94,27]],[[956,2347],[-13,33],[-77,23],[-79,10]],[[2865,2770],[0,-1],[3,-4],[-55,-34],[-108,-28],[-72,-35],[-56,-41]],[[2577,2627],[-87,-69],[-166,-87],[-36,74],[-52,35],[-39,-8],[-15,-32],[-92,56],[-10,20]],[[2080,2616],[-12,66],[4,56],[-17,25]],[[2055,2763],[22,20],[95,6],[56,63],[1,30],[96,-74],[53,33],[-31,57],[33,29],[88,-41],[88,48],[59,-37],[33,84],[30,19],[53,-126],[33,17],[43,-44],[18,-46],[40,-31]],[[1896,2734],[141,10],[18,19]],[[2080,2616],[-4,-6],[0,0],[-26,-77],[26,-29],[-14,-58]],[[2062,2446],[-34,32],[-89,4],[-85,-21],[-91,-10],[-100,-59],[-80,-16]],[[1583,2376],[-42,-5],[-39,42],[-58,35],[-91,-3],[-58,29]],[[3182,2845],[-21,-36],[-51,-10],[-74,30],[-50,-40]],[[2986,2789],[-8,11],[-113,-30]],[[626,2976],[40,113],[-10,48],[43,4],[13,36],[47,26],[103,163],[23,152],[36,90],[13,66],[-12,37],[6,127],[26,124],[7,68],[54,125],[20,76],[71,62],[35,52],[17,59],[50,62],[351,-29],[39,311],[141,-162],[74,-86],[54,-46],[114,-74],[68,-18],[86,-42],[63,-4],[-80,-177],[41,-22],[148,-184],[88,-114],[168,-187],[57,-75],[145,-176],[32,-23],[179,-88],[65,21],[60,-1],[89,-65],[23,-63],[-98,-85],[15,-58],[51,-114],[-7,-25],[8,-35]],[[956,2347],[-52,15],[-52,-49],[-27,10],[-79,-79],[-30,-49],[-39,-8],[-19,-55],[6,-59],[-40,-65],[32,-52],[-12,-43],[46,-48],[16,-82],[-72,-23],[-144,-76],[-54,17],[-77,-25]],[[359,1676],[-7,24],[50,50],[-26,66],[-64,164],[109,26],[98,-9],[16,57],[-5,45],[-70,108],[1,46],[-87,1],[-16,-40],[-40,-32],[-44,-2],[-86,71],[-28,46],[-88,-9],[-72,32],[85,63],[25,63],[53,-20],[0,49],[39,23],[52,-10],[131,55]],[[1154,2300],[-17,-37],[30,-45],[-10,-79],[35,-151],[-3,-39],[29,-58],[-6,-77]],[[1212,1814],[-35,-38],[-72,-43],[-20,-56]],[[1085,1677],[-54,36],[-63,27],[-96,23],[-37,-30],[-12,-43],[-40,-27],[-129,64],[-38,-3],[-127,-51],[-20,-26]],[[469,1647],[-15,-46],[-42,-43]],[[412,1558],[-53,118]],[[1583,2376],[-73,-117]],[[1510,2259],[-20,-69],[-38,-70],[16,-67],[-13,-92],[-49,-22],[-22,-63],[-37,-25]],[[1347,1851],[-46,-26],[-89,-11]],[[1899,1891],[60,-57],[54,-68],[55,-51],[22,-73],[63,23],[35,-36],[47,-21],[48,-88],[3,-65]],[[2286,1455],[-116,-89],[-69,-23],[-21,-72],[-50,-52]],[[2030,1219],[-133,-47]],[[1897,1172],[-52,151],[9,100],[-23,68],[-27,35],[-134,24]],[[1670,1550],[106,75],[-64,124],[-9,81],[-73,85],[77,25],[22,-27]],[[1729,1913],[83,42],[51,-49],[36,-15]],[[1510,2259],[128,-39],[63,-59],[-7,-73],[49,-48],[7,-62],[-21,-65]],[[1670,1550],[-60,33],[-105,-10],[-34,-48],[-95,90]],[[1376,1615],[38,30],[34,65],[-79,60],[-22,81]],[[2062,2446],[67,-33],[22,-56],[-14,-51],[18,-23],[-11,-57],[49,-79],[-3,-109],[-21,-37]],[[2169,2001],[-45,46],[-36,17],[-62,-35],[-127,-138]],[[1897,1172],[-62,-33],[-73,53],[-81,12],[-79,-49],[-71,-57]],[[1531,1098],[-53,59],[-17,40],[-63,52]],[[1398,1249],[-36,32],[-42,66],[-35,114],[-40,38],[-11,49],[68,56],[74,11]],[[822,394],[-32,-18],[-54,-59],[-53,-6],[-1,0]],[[682,311],[-32,195],[-121,31],[-163,-6],[-30,6]],[[336,537],[-9,63],[-43,42],[-69,128],[-25,9]],[[190,779],[42,131],[162,95],[93,12]],[[487,1017],[72,7],[104,-48],[80,-10]],[[743,966],[42,-57],[51,-31],[22,-34],[10,-93],[-42,-20],[-91,31],[-123,29],[21,-138],[83,-7],[104,-144],[2,-108]],[[1383,329],[-49,-21],[-53,-48],[2,-37],[-44,-73],[-37,28],[-77,15],[-59,55],[-65,-5],[-19,54],[-81,119]],[[901,416],[40,60],[59,19],[44,44],[18,50],[37,35]],[[1099,624],[100,-38],[107,-14],[109,-48],[75,-1]],[[1490,523],[7,-56],[-18,-35],[-95,-89],[-1,-14]],[[682,311],[-55,1],[-52,-31],[-68,14],[-78,62],[-110,1],[-98,-52],[-12,9],[-34,128],[10,42],[29,27],[100,8],[22,17]],[[469,1647],[37,-202],[37,-98],[19,-92],[18,-39]],[[580,1216],[8,-38],[-10,-70],[-18,-42],[-73,-49]],[[190,779],[0,0],[-142,138],[64,116],[-44,65],[-1,118],[40,-3],[21,38],[-1,68],[40,70],[-5,53],[25,19],[225,97]],[[1085,1677],[-35,-63],[-1,-56],[34,-18],[15,-63]],[[1098,1477],[-82,-31],[-58,-4],[-75,-86],[-41,-89],[-55,-53],[-91,-40],[-1,68],[-61,-2],[-54,-24]],[[901,416],[-79,-22]],[[743,966],[54,23],[18,29],[152,-11],[67,-16]],[[1034,991],[77,-29],[138,1],[41,-27],[-47,-54],[-80,-2],[-81,-58],[-15,-32],[36,-115],[-4,-51]],[[1098,1477],[7,-37],[-90,-139],[11,-45],[-12,-115],[74,6],[8,-23]],[[1096,1124],[2,-84],[-64,-49]],[[2286,1455],[36,-55],[19,-96],[-10,-86],[14,-59]],[[2345,1159],[13,-42],[-31,-54],[2,-74],[29,-108],[-20,-135],[-21,-33]],[[2317,713],[-120,45],[-64,0],[-44,22],[-70,8],[-64,30],[-26,26]],[[1929,844],[56,61],[43,68],[26,137],[-28,45],[4,64]],[[1929,844],[-93,47],[-175,38],[-42,-14],[-113,22]],[[1506,937],[25,161]],[[1976,263],[-100,-22],[-34,-92],[-58,51],[-76,-44],[-36,-50],[19,-19],[-22,-87],[-19,40],[-50,37],[-6,149]],[[1594,226],[29,25],[46,8],[79,123],[-8,81],[27,46],[46,34],[23,43],[35,19],[5,86],[-18,19],[-18,74],[89,60]],[[2317,713],[13,-100],[-43,-16],[-57,-104],[-4,-52],[-59,-12],[-24,-47],[-33,-5],[-54,-67],[-45,4],[-35,-51]],[[1506,937],[-37,-127],[4,-77]],[[1473,733],[-76,13],[6,68],[41,81]],[[1444,895],[16,40],[19,102],[-43,18],[-41,87],[-32,38]],[[1363,1180],[40,29],[-5,40]],[[1363,1180],[-9,-45]],[[1354,1135],[-128,11],[-130,-22]],[[1354,1135],[-13,-101],[12,-57],[64,-19],[-13,-52],[40,-11]],[[1473,733],[-10,-60],[25,-55],[2,-95]],[[1594,226],[-42,19],[-75,2],[-94,82]],[[3270,1083],[-86,-17],[-65,-53],[-69,-16],[-58,-57],[-42,-3],[8,-47],[-41,-52],[-73,-60]],[[2844,778],[3,121],[-11,42],[-107,-5],[-91,-49],[-28,100],[21,44]],[[2631,1031],[40,10],[73,70],[35,62],[133,30],[44,17],[60,-74],[59,10],[61,-18]],[[3136,1138],[84,-27],[50,-28]],[[3136,1138],[-133,97],[-24,50],[-53,37],[-46,74],[27,66],[-32,118]],[[2875,1580],[-43,100],[10,111]],[[2842,1791],[129,12],[63,28],[32,-70],[98,-123],[-6,-70],[19,-67],[40,-31],[75,50],[68,69],[71,21],[21,19]],[[3452,1629],[72,-26]],[[3524,1603],[-31,-81],[-43,-46],[25,-65],[-23,-21],[-7,-52],[-68,-50],[-61,-15],[-40,-59],[-32,9],[-40,-57],[82,-79],[-16,-4]],[[2842,1791],[29,145],[5,70]],[[2876,2006],[73,92],[48,36]],[[2997,2134],[95,58],[49,21],[103,-12],[102,10]],[[3346,2211],[20,-86],[-37,-95],[22,-33]],[[3351,1997],[46,-25],[18,-63],[-4,-101],[-23,-54],[19,-26],[8,-76],[37,-23]],[[2169,2001],[62,-41],[56,2]],[[2287,1962],[55,-83],[96,-18],[69,-98],[34,2],[45,-51],[-12,-20],[3,-71],[-28,-22],[25,-80],[-13,-53],[16,-61]],[[2577,1407],[-10,-31],[-59,-12],[-47,-77],[14,-29],[-49,-39]],[[2426,1219],[-57,-30],[-24,-30]],[[2631,1031],[21,85],[-8,40],[-57,-28],[-44,55],[-44,25],[-73,11]],[[2577,1407],[16,24],[65,14],[50,34],[18,34],[55,0],[52,54],[42,13]],[[2287,1962],[64,40],[38,70]],[[2389,2072],[77,28],[109,-50],[47,-60],[82,-53],[57,-6],[40,14],[17,38],[58,23]],[[2844,778],[-57,-18],[-35,-33],[-32,-88],[-43,-45],[-48,-28],[-25,22],[-62,-40],[-53,19],[-57,-53],[-2,-29],[-39,-56],[-94,-16],[21,-61],[-30,-15],[-57,-74],[-50,2],[-36,-49],[-32,17],[-46,-36],[-82,13],[-9,53]],[[3182,2845],[21,-56],[43,-24],[0,-38],[47,-113],[-21,-98]],[[3272,2516],[-9,-31],[-47,-34],[25,-136],[98,-75],[7,-29]],[[2997,2134],[2,9]],[[2999,2143],[5,43],[-15,74],[-30,44],[27,92],[-13,94],[24,59],[-25,29],[-18,89],[32,82],[0,40]],[[2577,2627],[33,-31],[32,-162]],[[2642,2434],[-105,-47],[-27,-59],[-44,-47],[-45,-99],[17,-38],[-6,-45],[-43,-27]],[[2642,2434],[36,-35],[4,-32],[70,-85],[106,-12],[81,-60],[60,-67]],[[3848,1738],[-41,-28],[-131,12],[-36,-50],[-53,-43],[-63,-26]],[[3351,1997],[184,100],[42,-43],[28,42],[52,17],[114,-29],[44,14],[20,53],[50,49]],[[3885,2200],[19,-7],[15,-121],[-52,-47],[-28,-61],[9,-226]],[[3272,2516],[102,25],[349,98]],[[3723,2639],[-33,-133],[43,-104],[94,-113],[36,-80],[22,-9]],[[4038,2778],[26,-54],[9,-171]],[[4073,2553],[-13,-68],[-28,-39],[12,-85],[52,-25],[55,-61],[28,-2],[33,-44],[28,-138]],[[4240,2091],[-38,7],[-54,-29],[-47,-85],[58,-109],[-38,-54],[-31,0],[-23,-46],[-31,-4],[-23,-40],[-93,3],[-34,27],[-38,-23]],[[3723,2639],[0,1],[315,138]],[[4038,2778],[112,56],[37,-9],[57,109],[65,-3],[117,27],[-7,30],[155,42],[-12,-32],[98,18],[154,27],[-14,-83],[-33,-74],[6,-18],[80,-48],[10,-51],[4,-101]],[[4867,2668],[-124,-49],[-85,-46]],[[4658,2573],[-71,89],[-34,18],[-74,-21],[-8,79],[-109,-45],[-40,27],[-50,-23],[-47,2],[-30,-42],[-49,-16],[-73,-88]],[[4565,2177],[76,164],[39,37],[-20,19],[41,40],[79,-7],[-26,51],[-78,53],[-18,39]],[[4867,2668],[33,-49],[70,-9],[19,-45],[56,-70],[40,-7],[52,-34],[1,-59],[27,-33],[-15,-34],[10,-72],[-34,-26],[-61,7],[-47,-8],[-65,-44],[23,-30],[-107,-8],[12,-23],[-58,-21],[-62,70],[-35,-42],[-53,-25],[-58,20],[-50,51]],[[4565,2177],[-31,-11],[-33,24],[-56,-26],[-63,-1],[-32,-19],[-46,20],[-64,-73]]],"transform":{"scale":[0.000136754555154429,0.0001534405017423251],"translate":[34.361927745598365,0.41839807260010703]},"objects":{"wards.039.final":{"type":"GeometryCollection","geometries":[{"arcs":[[0,1,2,3]],"type":"Polygon","properties":{"code":"1074","name":"Cheptais","constituency_code":"216","county_code":"039"}},{"arcs":[[4,5,6]],"type":"Polygon","properties":{"code":"1075","name":"Chepyuk","constituency_code":"216","county_code":"039"}},{"arcs":[[-1,7,-6,8,9,10,11]],"type":"Polygon","properties":{"code":"1076","name":"Chesikaki","constituency_code":"216","county_code":"039"}},{"arcs":[[12,13,14,15]],"type":"Polygon","properties":{"code":"1077","name":"Elgon","constituency_code":"216","county_code":"039"}},{"arcs":[[-5,16,-15,17,18,19,-9]],"type":"Polygon","properties":{"code":"1078","name":"Kakateny","constituency_code":"216","county_code":"039"}},{"arcs":[[20,21,-16,-17,-7,-8,-4,22]],"type":"Polygon","properties":{"code":"1079","name":"Kaptama","constituency_code":"216","county_code":"039"}},{"arcs":[[-2,-12,23,24]],"type":"Polygon","properties":{"code":"1080","name":"Lwandanyi","constituency_code":"217","county_code":"039"}},{"arcs":[[-11,25,26,27,28,29,-24]],"type":"Polygon","properties":{"code":"1081","name":"Malakisi/south Kulisiru","constituency_code":"217","county_code":"039"}},{"arcs":[[-10,-20,30,31,32,-26]],"type":"Polygon","properties":{"code":"1082","name":"Namwela","constituency_code":"217","county_code":"039"}},{"arcs":[[33,34,35,36,37,38]],"type":"Polygon","properties":{"code":"1083","name":"Bwake/luuya","constituency_code":"218","county_code":"039"}},{"arcs":[[-32,39,-38,40,41]],"type":"Polygon","properties":{"code":"1084","name":"Kabuchai/chwele","constituency_code":"218","county_code":"039"}},{"arcs":[[-19,42,43,-39,-40,-31]],"type":"Polygon","properties":{"code":"1085","name":"Mukuyuni","constituency_code":"218","county_code":"039"}},{"arcs":[[-37,44,45,46,-41]],"type":"Polygon","properties":{"code":"1086","name":"West Nalondo","constituency_code":"218","county_code":"039"}},{"arcs":[[47,48,49,50,51,52]],"type":"Polygon","properties":{"code":"1087","name":"Bumula","constituency_code":"219","county_code":"039"}},{"arcs":[[53,54,55,56]],"type":"Polygon","properties":{"code":"1088","name":"Kabula","constituency_code":"219","county_code":"039"}},{"arcs":[[57,-49]],"type":"Polygon","properties":{"code":"1089","name":"Khasoko","constituency_code":"219","county_code":"039"}},{"arcs":[[-29,58,59,-51,60]],"type":"Polygon","properties":{"code":"1090","name":"Kimaeti","constituency_code":"219","county_code":"039"}},{"arcs":[[-28,61,62,-59]],"type":"Polygon","properties":{"code":"1091","name":"Siboti","constituency_code":"219","county_code":"039"}},{"arcs":[[63,-53,64,65,-55]],"type":"Polygon","properties":{"code":"1092","name":"South Bukusu","constituency_code":"219","county_code":"039"}},{"arcs":[[-52,-60,-63,66,67,-65]],"type":"Polygon","properties":{"code":"1093","name":"West Bukusu","constituency_code":"219","county_code":"039"}},{"arcs":[[-35,68,69,70,71]],"type":"Polygon","properties":{"code":"1094","name":"Bukembe East","constituency_code":"220","county_code":"039"}},{"arcs":[[-36,-72,72,73,-45]],"type":"Polygon","properties":{"code":"1095","name":"Bukembe West","constituency_code":"220","county_code":"039"}},{"arcs":[[74,75,-71,76]],"type":"Polygon","properties":{"code":"1096","name":"East Sang'alo","constituency_code":"220","county_code":"039"}},{"arcs":[[-46,-74,77,78,79,80]],"type":"Polygon","properties":{"code":"1097","name":"Khalaba","constituency_code":"220","county_code":"039"}},{"arcs":[[-27,-33,-42,-47,-81,81,82,-67,-62]],"type":"Polygon","properties":{"code":"1098","name":"Marakaru/tuuti","constituency_code":"220","county_code":"039"}},{"arcs":[[-56,-66,-68,-83,83,-79,84]],"type":"Polygon","properties":{"code":"1099","name":"Musikoma","constituency_code":"220","county_code":"039"}},{"arcs":[[-80,-84,-82]],"type":"Polygon","properties":{"code":"1100","name":"Township","constituency_code":"220","county_code":"039"}},{"arcs":[[85,-57,-85,-78,-73,-76]],"type":"Polygon","properties":{"code":"1101","name":"West Sang'alo","constituency_code":"220","county_code":"039"}},{"arcs":[[86,87,88,89]],"type":"Polygon","properties":{"code":"1102","name":"Maraka","constituency_code":"221","county_code":"039"}},{"arcs":[[-90,90,91,92,93,94]],"type":"Polygon","properties":{"code":"1103","name":"Mihuu","constituency_code":"221","county_code":"039"}},{"arcs":[[-93,95,96,97,98,99]],"type":"Polygon","properties":{"code":"1104","name":"Ndivisi","constituency_code":"221","county_code":"039"}},{"arcs":[[-34,-44,100,101,102,103,-69]],"type":"Polygon","properties":{"code":"1105","name":"Bokoli","constituency_code":"222","county_code":"039"}},{"arcs":[[-89,104,-103,105,-91]],"type":"Polygon","properties":{"code":"1106","name":"Matulo","constituency_code":"222","county_code":"039"}},{"arcs":[[-92,-106,-102,106,107,-96]],"type":"Polygon","properties":{"code":"1107","name":"Misikhu","constituency_code":"222","county_code":"039"}},{"arcs":[[108,-77,-70,-104,-105,-88]],"type":"Polygon","properties":{"code":"1108","name":"Sitikho","constituency_code":"222","county_code":"039"}},{"arcs":[[109,110,-98,111,112,-21]],"type":"Polygon","properties":{"code":"1109","name":"Kamukuywa","constituency_code":"223","county_code":"039"}},{"arcs":[[-18,-14,113,114,-107,-101,-43]],"type":"Polygon","properties":{"code":"1110","name":"Kibingei","constituency_code":"223","county_code":"039"}},{"arcs":[[-97,-108,-115,115,-112]],"type":"Polygon","properties":{"code":"1111","name":"Kimilili","constituency_code":"223","county_code":"039"}},{"arcs":[[-13,-22,-113,-116,-114]],"type":"Polygon","properties":{"code":"1112","name":"Maeni","constituency_code":"223","county_code":"039"}},{"arcs":[[116,-94,-100,117,118]],"type":"Polygon","properties":{"code":"1113","name":"Mbakalo","constituency_code":"224","county_code":"039"}},{"arcs":[[119,120,-118,-99,-111]],"type":"Polygon","properties":{"code":"1114","name":"Milima","constituency_code":"224","county_code":"039"}},{"arcs":[[121,122,123,-119,-121,124]],"type":"Polygon","properties":{"code":"1115","name":"Naitiri/kabuyefwe","constituency_code":"224","county_code":"039"}},{"arcs":[[125,126,127,-122]],"type":"Polygon","properties":{"code":"1116","name":"Ndalu/ Tabani","constituency_code":"224","county_code":"039"}},{"arcs":[[128,-127,129]],"type":"Polygon","properties":{"code":"1117","name":"Soysambu/ Mitua","constituency_code":"224","county_code":"039"}},{"arcs":[[130,-123,-128,-129]],"type":"Polygon","properties":{"code":"1118","name":"Tongaren","constituency_code":"224","county_code":"039"}}]}}}