{"type":"Topology","arcs":[[[2381,3660],[64,-21]],[[2445,3639],[-59,-168],[44,-78],[55,-35]],[[2485,3358],[-12,-18],[-97,-58],[-73,24],[-125,11],[-58,-42],[-66,-27],[-13,-55]],[[2041,3193],[-76,105],[-74,39],[-5,76],[-87,5],[-80,25]],[[1719,3443],[23,50],[-73,-2]],[[1669,3491],[117,64],[34,29],[7,56],[-17,54]],[[1810,3694],[75,-14],[19,59],[47,-4],[90,37],[109,-6],[83,18],[57,2]],[[2290,3786],[0,0],[5,-84],[-28,-45],[47,-34],[67,37]],[[2912,4500],[1,-128],[41,-71],[-59,-126],[132,-150]],[[3027,4025],[-113,-90],[6,-76],[-108,-96],[-21,1],[-30,-77],[-115,-6],[-71,29],[-92,-72],[-38,1]],[[2381,3660],[40,56],[54,54],[37,69],[117,65],[89,101],[11,64],[-24,72],[2,56],[28,56],[-21,29],[-109,57]],[[2605,4339],[-82,72],[77,130],[56,-63],[65,14],[91,-11],[100,19]],[[3027,4025],[0,0],[23,-10],[65,-139],[40,-46],[9,-68],[-21,-18],[-93,-10],[-28,-29],[-9,-45],[32,-140],[11,-9],[-9,-41],[-51,-23],[-36,14],[-45,-16]],[[2915,3445],[-82,-4],[-39,-29],[-39,-1],[-107,21],[-48,34],[-62,-31],[-31,-63],[-22,-14]],[[2915,3445],[-21,-18],[-18,-100],[-58,-38],[-90,-84]],[[2728,3205],[-69,-4],[-82,-26]],[[2577,3175],[-31,-27],[-79,-8],[-15,-55],[-85,-13],[-70,-36]],[[2297,3036],[-113,-26]],[[2184,3010],[-14,61],[-25,35],[-53,-23],[-74,72]],[[2018,3155],[23,38]],[[1719,3443],[-3,-74],[-20,-83],[-40,-31],[-9,-50],[17,-94],[-67,-82],[-84,-49],[-32,-30],[-30,11],[-57,-26]],[[1394,2935],[-69,-71],[-57,-125]],[[1268,2739],[-81,34],[-64,-29],[-38,23]],[[1085,2767],[37,53],[-2,80],[-23,115]],[[1097,3015],[45,42],[38,102],[36,44],[-19,32],[1,63]],[[1198,3298],[74,72],[56,-10],[13,19]],[[1341,3379],[38,38],[0,46],[30,87]],[[1409,3550],[42,-22],[37,7],[97,-50],[84,6]],[[2184,3010],[-43,-18],[-39,-43]],[[2102,2949],[-36,-11],[-69,-89],[-111,11],[-97,20],[-26,-12],[-51,-77],[44,-126]],[[1756,2665],[-13,-96],[-28,-38],[-32,-95],[-43,-57],[-82,-49],[-79,-5]],[[1479,2325],[-4,2]],[[1475,2327],[61,18],[45,35],[-25,52],[-2,58],[-35,28]],[[1519,2518],[-66,19],[-20,83],[-56,9],[-82,49],[-27,61]],[[1394,2935],[81,-17],[131,1],[38,49],[83,49],[52,42],[43,-20],[68,24],[128,92]],[[1198,3298],[-60,63],[-14,39],[-128,5]],[[996,3405],[-7,29],[60,77]],[[1049,3511],[164,-59],[128,-73]],[[2731,4693],[-2,1],[-1,0],[5,-46],[-72,-54],[-78,-4],[-63,48],[-50,6],[-74,-41],[-33,13],[-44,-15],[-77,10],[-31,-25],[-27,30],[-35,-9]],[[2149,4607],[-27,7],[-51,-53],[-36,1],[-42,39],[-48,22],[-85,2]],[[1860,4625],[25,54],[65,-35],[68,22],[11,31],[69,-25],[70,53],[118,54]],[[2286,4779],[145,-7],[82,-47],[100,1],[85,38],[33,-71]],[[2286,4779],[-6,114],[20,27],[-24,73],[34,50],[34,-6],[52,29],[27,44],[31,-1]],[[2454,5109],[74,-115],[105,-21],[23,-55],[51,-39],[37,-10],[46,30],[63,11],[34,-54],[8,-58],[42,-48]],[[2937,4750],[-53,-34],[-153,-23]],[[3001,4746],[-64,4]],[[2454,5109],[15,27],[54,19]],[[2523,5155],[73,57],[151,-68],[40,-52],[-10,-41],[94,23],[43,32],[35,118]],[[2949,5224],[90,-4],[57,-21],[62,-62],[43,16]],[[3201,5153],[24,-71],[-47,-56],[7,-26],[49,-128],[-210,-105],[-23,-21]],[[2917,5666],[18,-35],[-23,-124],[-4,-96],[-38,-39],[30,-25],[57,-83],[-8,-40]],[[2523,5155],[-29,59],[-14,108],[23,214],[24,73],[28,20],[105,12],[78,41],[61,-1],[51,20],[67,-35]],[[2917,5666],[82,10],[26,-50],[80,-77],[42,2],[37,35],[15,44],[81,-1],[0,-50],[65,-118],[4,-50],[-15,-61],[-91,9],[-102,-27],[60,-179]],[[3001,4746],[5,-57],[-38,-76],[1,-75],[-19,-41],[-38,3]],[[2605,4339],[-34,14],[-28,-76],[-489,151]],[[2054,4428],[-17,23],[60,75],[52,81]],[[1049,3511],[46,28],[42,46],[61,38],[-17,194],[36,39]],[[1217,3856],[45,-40],[52,-16],[45,-47],[29,-135],[21,-68]],[[1217,3856],[-44,48],[72,115],[8,144],[67,174]],[[1320,4337],[39,-60],[55,-51],[-7,-34],[35,-31],[18,-45],[59,-65],[41,-68],[100,-61],[39,-59],[56,-1]],[[1755,3862],[25,-30],[-2,-94],[32,-44]],[[1320,4337],[37,-4],[68,22],[62,86],[82,36]],[[1569,4477],[25,-28],[51,2],[2,-37],[122,-135],[62,-98],[21,-7],[75,-89]],[[1927,4085],[-53,-47],[4,-88],[18,-50],[-111,-12],[-30,-26]],[[2054,4428],[8,-75],[19,-46]],[[2081,4307],[-44,-50],[-110,-172]],[[1569,4477],[26,35],[39,-19],[9,42],[44,59],[52,44],[44,-18],[17,29],[60,-24]],[[2290,3786],[66,67],[45,69],[-28,56],[-33,7],[-87,55],[-30,-9],[-61,19],[37,110],[40,30],[-35,33],[-58,16],[-65,68]],[[1097,3015],[-24,34],[-9,74],[-75,105],[15,105],[-8,72]],[[1756,2665],[42,-5],[6,-35],[64,-40],[18,21],[53,-30],[26,-38],[-13,-50],[13,-51]],[[1965,2437],[54,-32],[62,5]],[[2081,2410],[-56,-105],[-36,-43],[-204,-38],[4,-75],[-30,-49],[-99,48],[-26,75],[-59,69],[-53,18],[-43,15]],[[3014,2581],[-3,106],[-53,17],[-93,4],[-26,61],[-39,50],[-58,134],[-80,56]],[[2662,3009],[-15,51],[-70,115]],[[2728,3205],[73,-69],[50,-68],[116,0],[37,-46],[59,-18],[106,-70],[33,-44],[64,-54],[-49,-38],[-121,-47],[6,-89],[-22,-44],[-66,-37]],[[3014,2581],[-17,-121],[-26,-46],[-48,-34],[-32,-32],[-122,20],[-121,30],[-73,-12]],[[2575,2386],[-1,45],[-33,91],[74,50],[-16,76],[-60,62],[-62,-8],[7,35],[40,9],[16,51],[82,81],[12,75],[28,56]],[[2575,2386],[-172,1]],[[2403,2387],[-24,51],[-1,88],[-27,63],[75,106],[6,33],[-50,40],[-14,66],[-43,87],[5,70],[-33,45]],[[1519,2518],[-86,-138],[-100,-83],[-153,-94],[-66,38],[-66,6],[-38,58],[-66,-17],[-54,26],[-27,-43],[-61,-59],[4,-24]],[[806,2188],[-40,-18],[-84,14],[-18,-9]],[[664,2175],[-14,80],[75,47],[7,79],[51,22],[1,85],[79,9],[69,47],[63,86],[65,40],[-1,59],[26,38]],[[1475,2327],[-4,-71],[-65,-111],[-9,-30],[-70,-103],[-30,-32],[-104,-56],[-14,-64]],[[1179,1860],[-60,69],[-36,3],[-64,-28],[-82,33],[-12,45],[-1,112],[-36,6],[-60,51],[-22,37]],[[1179,1860],[2,-100],[-19,-70],[-32,-38],[9,-35],[-37,-104]],[[1102,1513],[-125,19],[-34,25],[-75,24],[-34,-9],[-69,16],[-59,-4],[-48,78],[-44,15],[-29,37],[-59,15],[-114,-13],[-19,-14]],[[393,1702],[38,72],[43,24],[-6,31],[-43,37],[69,122],[37,18],[24,106],[68,8],[41,55]],[[1102,1513],[47,-64],[-8,-103],[12,-90],[-4,-86],[-32,-58],[-35,-30],[7,53],[-45,8]],[[1044,1143],[-69,53],[-92,113],[-60,39],[-105,-5],[-159,9],[-33,14],[-114,4],[-95,-3]],[[317,1367],[71,185],[-39,69],[44,81]],[[2102,2949],[55,-20],[24,-57],[-32,-62],[28,-106],[-1,-35],[49,-79],[-83,-6],[-177,-147]],[[2403,2387],[-48,-13],[-79,21],[-76,-20],[-72,36],[-47,-1]],[[874,1046],[10,-45],[-2,-83],[-29,-40],[-153,-573]],[[700,305],[-175,141],[-53,-19],[0,140],[-12,52],[18,154],[-3,67]],[[475,840],[46,45],[38,-10],[70,13],[48,42],[2,44],[53,12],[17,44],[39,16],[86,0]],[[1044,1143],[-81,-73],[-89,-24]],[[475,840],[-45,14]],[[430,854],[84,219],[-19,-4],[-130,93],[-98,-99]],[[267,1063],[-3,72],[71,53],[28,56],[-37,61],[-39,-12],[-6,47],[36,27]],[[430,854],[1,31],[-105,-2],[-36,-16],[3,-101],[-132,-76],[-14,-31],[-87,1]],[[60,660],[17,56],[-77,109],[134,70],[62,41],[37,-5],[51,55],[10,70],[-27,7]],[[700,305],[-19,-76],[-44,-88],[-46,-69],[-93,-72],[-50,7],[-17,120],[4,35],[-43,16],[-50,59],[-29,55],[-51,205],[-37,51],[-57,49],[-49,-24],[-43,17],[-16,70]]],"transform":{"scale":[0.00014645655428668027,0.0001410707865504627],"translate":[33.94458593985886,-0.029881986809051946]},"objects":{"wards.040.final":{"type":"GeometryCollection","geometries":[{"arcs":[[0,1,2,3,4,5,6,7]],"type":"Polygon","properties":{"code":"1133","name":"Nambale Township","constituency_code":"227","county_code":"040"}},{"arcs":[[8,9,-1,10,11]],"type":"Polygon","properties":{"code":"1134","name":"Bukhayo North/waltsi","constituency_code":"227","county_code":"040"}},{"arcs":[[12,13,-2,-10]],"type":"Polygon","properties":{"code":"1135","name":"Bukhayo East","constituency_code":"227","county_code":"040"}},{"arcs":[[-3,-14,14,15,16,17,18,19]],"type":"Polygon","properties":{"code":"1136","name":"Bukhayo Central","constituency_code":"227","county_code":"040"}},{"arcs":[[-5,20,21,22,23,24,25,26,27]],"type":"Polygon","properties":{"code":"1137","name":"Bukhayo West","constituency_code":"228","county_code":"040"}},{"arcs":[[-19,28,29,30,31,32,33,-22,34]],"type":"Polygon","properties":{"code":"1139","name":"Matayos South","constituency_code":"228","county_code":"040"}},{"arcs":[[-4,-20,-35,-21]],"type":"Polygon","properties":{"code":"1140","name":"Busibwabo","constituency_code":"228","county_code":"040"}},{"arcs":[[-26,35,36,37]],"type":"Polygon","properties":{"code":"1141","name":"Burumba","constituency_code":"228","county_code":"040"}},{"arcs":[[38,39,40,41]],"type":"Polygon","properties":{"code":"1121","name":"Malaba Central","constituency_code":"225","county_code":"040"}},{"arcs":[[-42,42,43,44]],"type":"Polygon","properties":{"code":"1122","name":"Malaba North","constituency_code":"225","county_code":"040"}},{"arcs":[[45,-44,46,47,48,49]],"type":"Polygon","properties":{"code":"1123","name":"Ang'urai South","constituency_code":"225","county_code":"040"}},{"arcs":[[50,-48,51]],"type":"Polygon","properties":{"code":"1124","name":"Ang'urai North","constituency_code":"225","county_code":"040"}},{"arcs":[[52,-49,-51]],"type":"Polygon","properties":{"code":"1125","name":"Ang'urai East","constituency_code":"225","county_code":"040"}},{"arcs":[[53,-12,54,55,-39,-45,-46]],"type":"Polygon","properties":{"code":"1126","name":"Malaba South","constituency_code":"225","county_code":"040"}},{"arcs":[[-27,-38,56,57]],"type":"Polygon","properties":{"code":"1127","name":"Ang'orom","constituency_code":"226","county_code":"040"}},{"arcs":[[-6,-28,-58,58,59,60]],"type":"Polygon","properties":{"code":"1128","name":"Chakol South","constituency_code":"226","county_code":"040"}},{"arcs":[[-60,61,62,63]],"type":"Polygon","properties":{"code":"1129","name":"Chakol North","constituency_code":"226","county_code":"040"}},{"arcs":[[-40,-56,64,65,-63,66]],"type":"Polygon","properties":{"code":"1130","name":"Amukura West","constituency_code":"226","county_code":"040"}},{"arcs":[[-8,67,-65,-55,-11]],"type":"Polygon","properties":{"code":"1131","name":"Amukura East","constituency_code":"226","county_code":"040"}},{"arcs":[[-7,-61,-64,-66,-68]],"type":"Polygon","properties":{"code":"1132","name":"Amukura Central","constituency_code":"226","county_code":"040"}},{"arcs":[[-25,68,-36]],"type":"Polygon","properties":{"code":"1138","name":"Mayenje","constituency_code":"228","county_code":"040"}},{"arcs":[[-31,69,70,71]],"type":"Polygon","properties":{"code":"1142","name":"Marachi West","constituency_code":"229","county_code":"040"}},{"arcs":[[72,73,-16,74]],"type":"Polygon","properties":{"code":"1145","name":"Marachi East","constituency_code":"229","county_code":"040"}},{"arcs":[[75,76,-73]],"type":"Polygon","properties":{"code":"1146","name":"Marachi North","constituency_code":"229","county_code":"040"}},{"arcs":[[-17,-74,-77,77,78]],"type":"Polygon","properties":{"code":"1147","name":"Elugulu","constituency_code":"229","county_code":"040"}},{"arcs":[[-23,-34,79,80,81]],"type":"Polygon","properties":{"code":"1148","name":"Namboboto Nambuku","constituency_code":"230","county_code":"040"}},{"arcs":[[-33,82,83,-80]],"type":"Polygon","properties":{"code":"1149","name":"Nangina","constituency_code":"230","county_code":"040"}},{"arcs":[[-81,-84,84,85,86]],"type":"Polygon","properties":{"code":"1150","name":"Ageng'a Nanguba","constituency_code":"230","county_code":"040"}},{"arcs":[[-86,87,88,89]],"type":"Polygon","properties":{"code":"1151","name":"Bwiri","constituency_code":"230","county_code":"040"}},{"arcs":[[-30,90,-70]],"type":"Polygon","properties":{"code":"1143","name":"Kingandole","constituency_code":"229","county_code":"040"}},{"arcs":[[-18,-79,91,-71,-91,-29]],"type":"Polygon","properties":{"code":"1144","name":"Marachi Central","constituency_code":"229","county_code":"040"}},{"arcs":[[92,93,94]],"type":"Polygon","properties":{"code":"1152","name":"Bunyala Central","constituency_code":"231","county_code":"040"}},{"arcs":[[-89,95,-95,96,97,98]],"type":"Polygon","properties":{"code":"1153","name":"Bunyala North","constituency_code":"231","county_code":"040"}},{"arcs":[[-98,99,100]],"type":"Polygon","properties":{"code":"1154","name":"Bunyala West","constituency_code":"231","county_code":"040"}},{"arcs":[[-94,101,-100,-97]],"type":"Polygon","properties":{"code":"1155","name":"Bunyala South","constituency_code":"231","county_code":"040"}}]}}}