{"type":"Topology","arcs":[[[2881,5029],[-93,-25],[-42,32],[-27,-22],[-3,-61],[-68,-12],[-46,-34],[-25,-44],[-85,3],[-34,-17]],[[2458,4849],[-195,-57],[-18,-113],[-42,-61],[-45,-107],[-63,-13],[-45,65],[-110,96]],[[1940,4659],[6,65],[30,80],[-4,43],[42,75],[5,101],[-12,51],[111,78],[10,63],[-40,80]],[[2088,5295],[82,-23],[50,14],[180,0],[76,11],[126,-30],[127,-21],[34,33],[51,-17],[26,-48],[80,-74],[15,-55],[-54,-56]],[[1940,4659],[-36,-37],[-103,14]],[[1801,4636],[10,47],[-69,57],[-51,-34],[-34,-42],[-39,4],[-44,31],[-60,76],[-8,30]],[[1506,4805],[1,38],[-63,63],[-22,63],[-74,112],[-11,64],[-35,61]],[[1302,5206],[55,-19],[62,-73],[27,-79],[103,-50],[31,51],[-4,79],[213,40],[38,46],[58,109],[48,2],[76,-38],[79,21]],[[1801,4636],[-19,-77],[40,-66],[9,-50],[-110,-67],[0,-124],[-77,-64]],[[1644,4188],[-49,-24],[-76,44],[-22,37],[-85,-8],[-63,-87],[-78,0]],[[1271,4150],[-4,28],[38,48],[-4,59],[34,74],[1,56],[27,86],[16,107],[1,148],[126,49]],[[1271,4150],[-77,-57],[-128,-34],[-35,4],[-43,-26],[-40,-66],[26,-29],[-56,-61]],[[918,3881],[-75,32]],[[843,3913],[37,32],[33,61],[4,90],[-12,95],[8,108],[-49,68],[38,109],[-9,37],[34,40],[19,74],[-2,105],[15,68],[108,58],[32,33],[73,109],[9,31],[68,118],[3,74],[5,-2],[45,-15]],[[2851,4323],[21,-1],[116,53],[66,103],[57,26],[52,63],[105,42],[27,-22],[29,-62],[-39,-31],[-70,-8],[-46,-94],[3,-89],[85,-76],[-44,-73],[-78,-40]],[[3135,4114],[-27,-1],[-57,-121],[-31,43],[-105,66],[-34,31],[-47,-47],[-111,-23],[-34,-25],[-92,-23]],[[2597,4014],[-63,47],[-39,-10],[-83,18],[-101,57],[-31,2]],[[2280,4128],[-5,10]],[[2275,4138],[66,47]],[[2341,4185],[67,6],[66,28],[121,70],[43,8],[74,-21],[97,54],[42,-7]],[[2881,5029],[16,-32],[72,-59],[-26,-99],[16,-73],[-17,-45],[-99,-35],[50,-92],[11,-66],[-7,-85],[-46,-120]],[[2341,4185],[-5,126],[9,37],[48,25],[24,90],[117,12],[38,26],[5,36],[-55,12],[-15,33],[-65,68],[13,75],[20,36],[0,70],[-17,18]],[[2275,4138],[-95,-5],[-44,22],[-60,-53],[-82,-7],[-144,14],[-58,-18],[-110,73]],[[1682,4164],[-38,24]],[[2280,4128],[-10,-74],[9,-50],[-164,-181],[-97,-143],[25,-41],[28,-96]],[[2071,3543],[-65,-2],[-10,30],[-102,-18],[-32,-19],[-9,-57],[-37,-42],[4,-40],[-49,-20],[-16,-41],[19,-96],[-23,-53]],[[1751,3185],[-33,-29],[-95,-24],[-129,-79],[-66,-16],[-61,-30],[-33,41],[-86,49],[-29,32],[-7,63],[-36,34]],[[1176,3226],[-11,54],[26,50],[-19,42],[8,68]],[[1180,3440],[196,28],[105,63],[48,-25],[49,122],[88,93],[-16,60],[25,60],[-19,80],[12,88],[-10,42],[45,33],[-21,80]],[[2597,4014],[24,-65],[28,-14],[37,-59],[23,-185],[31,-47],[75,-74]],[[2815,3570],[-31,-36],[-20,-63],[13,-96]],[[2777,3375],[-70,-37],[-18,14],[-78,-10],[-51,-42],[-89,104]],[[2471,3404],[40,22],[1,44],[-72,1],[-69,36],[-154,-29],[-27,51],[-58,-3],[-61,17]],[[2471,3404],[-26,-59],[-47,-11],[-16,-32],[-75,-16],[-135,31],[-24,-27],[73,-105],[-26,-36],[-58,37],[-89,9],[-54,62],[-63,-62],[-46,-19],[-46,-51],[-65,33],[-23,27]],[[2777,3375],[14,-38],[-14,-83],[52,-66],[34,-11],[27,-136],[-5,-58],[-108,-28],[-53,-36],[-12,-101]],[[2712,2818],[-71,-45]],[[2641,2773],[-66,4],[-153,-54],[-97,-5],[-57,-27],[-129,-30]],[[2139,2661],[-91,-16],[-31,13],[-88,-37],[-83,72],[-80,12],[-55,28]],[[1711,2733],[-35,82],[-21,81],[-37,-7],[-45,22],[-52,-27],[-88,-8],[-38,64],[-44,10],[-60,-53],[-69,77],[-87,-1],[33,91],[-46,83]],[[1122,3147],[54,79]],[[918,3881],[60,-49],[23,-43],[31,-173],[-18,-88],[33,-79],[39,-12],[94,3]],[[1122,3147],[-21,72],[-51,98],[-30,0],[-205,-100],[-62,22],[-127,-71],[-4,-53],[-36,-28],[-42,23],[-61,-27],[-3,-28],[-56,-39]],[[424,3016],[21,80],[160,603],[30,41],[2,88],[-11,48],[92,24],[85,77],[47,-8],[-7,-56]],[[3488,3747],[34,16],[60,-3],[49,-26]],[[3631,3734],[45,-5],[40,-72],[89,-46],[3,-71],[16,-47]],[[3824,3493],[-43,-40],[-138,-48],[-43,-4],[-64,-39],[-1,-38],[-47,-53]],[[3488,3271],[-144,26],[-49,-27],[-56,8],[-17,64],[8,59],[-18,69],[-71,39],[-62,14],[11,51]],[[3090,3574],[120,64],[27,26],[67,23],[38,-21],[53,38],[23,-29],[70,72]],[[3796,2807],[10,109],[-27,27],[-67,12],[-58,37],[-46,-26],[-24,16],[12,129],[-18,21],[-83,10],[-29,26]],[[3466,3168],[-3,64],[25,39]],[[3824,3493],[43,-22],[80,22],[2,29],[83,52],[38,36]],[[4070,3610],[22,-105],[-12,-102],[22,-72],[-31,4],[-20,-67],[-25,-27],[-9,-123],[-37,-29],[8,-33],[-78,-42],[60,-61],[-60,-81],[-41,-38],[-73,-27]],[[3135,4114],[63,-48],[70,15],[69,43],[101,30],[55,-7],[51,-40],[17,-68],[-83,-83],[-118,-3],[11,-54],[46,-5],[81,-31],[-10,-116]],[[3090,3574],[-51,104],[-99,-92],[-23,-39],[-68,1],[-34,22]],[[2712,2818],[131,35],[110,13],[98,29],[44,41],[57,-11],[40,25],[1,41],[70,94],[48,-1],[24,36],[40,9],[21,36],[70,3]],[[3796,2807],[-73,-25],[-163,-32],[-155,-76],[-103,-99],[-152,-104],[-70,-46]],[[3080,2425],[-64,54],[-92,32],[-96,14]],[[2828,2525],[-74,106],[-106,63],[-7,79]],[[3631,3734],[11,75],[87,46],[33,33],[4,46],[77,-25],[43,25],[28,61],[81,18],[28,-52],[41,-35],[-50,-69],[43,-65],[32,-2],[-23,-71],[17,-59],[-13,-50]],[[1161,1301],[25,-52],[-33,-31],[-27,48],[35,35]],[[807,2091],[32,-32],[9,-66],[-54,4],[-31,65],[44,29]],[[1662,2126],[-63,-2],[-35,-56],[19,-62],[-21,-134],[-39,-39],[-34,-96],[-25,-101],[6,-41]],[[1470,1595],[-70,-33],[-22,-42],[-55,-15],[-94,32],[-14,-54],[-52,-28],[-62,88],[-39,14],[-20,65],[-49,-36],[-50,19],[41,68],[-49,80],[-52,-7],[-29,21],[-45,82],[-51,54],[62,11],[84,54],[26,44],[9,86],[25,24],[29,-58],[96,-25],[110,77]],[[1199,2116],[88,-53],[61,13],[74,49],[90,1],[20,52],[74,-3],[56,-49]],[[2828,2525],[-54,9],[-63,-84],[-76,-85]],[[2635,2365],[-66,-66],[-116,-44],[-7,-61],[-77,-13],[-77,-171],[-26,-31],[-95,-178]],[[2171,1801],[-139,47],[-39,5],[-11,61],[-36,-4],[-44,45],[-52,106],[-9,46],[-85,43]],[[1756,2150],[87,30],[16,39],[56,44],[84,31],[40,-28],[183,21],[32,43],[20,63],[35,44],[-69,73],[-62,14],[-11,74],[-28,63]],[[1662,2126],[94,24]],[[2171,1801],[-28,-56],[3,-96],[-23,-116]],[[2123,1533],[-62,4],[4,-107]],[[2065,1430],[-69,-74],[-55,-10],[-76,-115]],[[1865,1231],[-50,-23],[-67,42],[-67,-16],[-8,-64],[-60,14],[-31,24],[-5,56],[-25,46],[4,89],[-52,40],[-74,-10],[28,68],[61,65],[-49,33]],[[1199,2116],[-68,48],[-129,-14],[-64,9],[-4,55],[55,44],[59,-11],[50,15],[30,33],[14,95]],[[1142,2390],[62,1],[71,47],[41,52],[63,36],[101,2],[159,113],[-11,38],[83,54]],[[379,2923],[25,-70],[55,-89],[65,-72],[51,-37],[118,-110],[32,-53]],[[725,2492],[-63,-45],[56,-44],[5,-79],[-89,-46],[75,-65],[-23,-24],[-69,-5],[-81,46],[32,69],[51,29],[1,28],[-33,99],[-21,19],[-59,-50],[-66,-23],[-48,34],[15,89],[-29,109],[-63,56],[-74,-25],[-53,10],[-8,108],[53,-7],[97,75],[48,73]],[[155,2080],[67,-42],[28,8],[32,-40],[36,-7],[4,-66],[-54,16],[-63,-9],[-27,25],[-44,0],[-34,24],[-100,-6],[16,38],[52,19],[60,48],[27,-8]],[[379,2923],[45,93]],[[1142,2390],[-42,2],[-37,28],[3,61],[31,11],[43,58],[-37,38],[-80,-82],[-112,-69],[-57,74],[-57,3],[-72,-22]],[[3080,2425],[-29,-22],[-8,-46],[89,-252],[13,-20],[43,-190],[68,-203],[-58,-12],[-63,14],[-58,-40],[-42,-76],[-45,38],[-61,-17],[-34,10],[-86,-27]],[[2809,1582],[-5,45],[-40,89],[45,169],[28,29],[26,106],[79,78],[11,96],[-75,-68],[-61,-31],[-58,-82],[-50,29],[-24,104],[7,116],[-57,103]],[[2123,1533],[83,-10],[62,-46],[105,-59],[75,-2],[82,17]],[[2530,1433],[46,-23],[22,-53],[81,-100],[35,-22],[65,-6],[53,34],[46,-70],[28,-141],[56,-128],[22,-17],[-44,-133],[-77,-98],[-63,17],[-30,-46]],[[2770,647],[-223,142],[-94,71],[-49,20]],[[2404,880],[20,86],[34,51],[12,50],[41,34],[22,54],[-15,128],[-52,42],[-70,-19],[-45,30],[-86,-31],[-52,-7],[-23,-61],[-79,182],[-46,11]],[[2770,647],[-11,-44],[-38,-7],[-63,-109],[-91,-50],[25,-40],[-65,-59],[-51,3],[-49,-42],[8,-50],[-27,-48],[-74,2],[0,-79],[38,-26],[-99,-98],[-20,45],[-48,1],[-46,-30],[-21,90],[13,49],[41,-12],[31,55],[48,16],[-61,94],[7,41],[-53,61]],[[2164,410],[49,89],[9,43],[54,118],[68,71],[52,111],[8,38]],[[2809,1582],[-57,-35],[-40,9],[-73,-26],[-56,25],[-16,-88],[-37,-34]],[[2164,410],[-53,-28],[-59,12],[-5,53],[18,75],[-21,20],[-87,-2],[43,41],[11,43],[-58,15],[31,44],[-5,46],[-91,-3],[13,110],[-15,41],[67,12],[12,63],[70,69],[-18,58],[-55,-10],[-79,144],[-18,18]]],"transform":{"scale":[0.0001404477077955368,0.00013406055026142353],"translate":[33.9846452383119,-0.40184836022003056]},"objects":{"wards.041.final":{"type":"GeometryCollection","geometries":[{"arcs":[[0,1,2,3]],"type":"Polygon","properties":{"code":"1155","name":"East Ugenya","constituency_code":"232","county_code":"041"}},{"arcs":[[-3,4,5,6,7]],"type":"Polygon","properties":{"code":"1156","name":"North Ugenya","constituency_code":"232","county_code":"041"}},{"arcs":[[-6,8,9,10]],"type":"Polygon","properties":{"code":"1157","name":"Ukwala","constituency_code":"232","county_code":"041"}},{"arcs":[[-7,-11,11,12,13]],"type":"Polygon","properties":{"code":"1158","name":"West Ugenya","constituency_code":"232","county_code":"041"}},{"arcs":[[14,15,16,17,18,19]],"type":"Polygon","properties":{"code":"1159","name":"Sidindi","constituency_code":"233","county_code":"041"}},{"arcs":[[20,-20,21,-1]],"type":"Polygon","properties":{"code":"1160","name":"Sigomere","constituency_code":"233","county_code":"041"}},{"arcs":[[-2,-22,-19,22,23,-9,-5]],"type":"Polygon","properties":{"code":"1161","name":"Ugunja","constituency_code":"233","county_code":"041"}},{"arcs":[[-18,24,25,26,27,28,-23]],"type":"Polygon","properties":{"code":"1162","name":"Central Alego","constituency_code":"234","county_code":"041"}},{"arcs":[[-17,29,30,31,32,-25]],"type":"Polygon","properties":{"code":"1163","name":"North Alego","constituency_code":"234","county_code":"041"}},{"arcs":[[-26,-33,33]],"type":"Polygon","properties":{"code":"1164","name":"Siaya Township","constituency_code":"234","county_code":"041"}},{"arcs":[[-27,-34,-32,34,35,36,37,38,39]],"type":"Polygon","properties":{"code":"1165","name":"South East Alego","constituency_code":"234","county_code":"041"}},{"arcs":[[-13,40,-28,-40,41,42]],"type":"Polygon","properties":{"code":"1166","name":"Usonga","constituency_code":"234","county_code":"041"}},{"arcs":[[-10,-24,-29,-41,-12]],"type":"Polygon","properties":{"code":"1167","name":"West Alego","constituency_code":"234","county_code":"041"}},{"arcs":[[43,44,45,46,47]],"type":"Polygon","properties":{"code":"1168","name":"Central Gem","constituency_code":"235","county_code":"041"}},{"arcs":[[48,49,-46,50,51]],"type":"Polygon","properties":{"code":"1169","name":"East Gem","constituency_code":"235","county_code":"041"}},{"arcs":[[52,-48,53,-30,-16]],"type":"Polygon","properties":{"code":"1170","name":"North Gem","constituency_code":"235","county_code":"041"}},{"arcs":[[-36,54,-49,55,56,57]],"type":"Polygon","properties":{"code":"1171","name":"South Gem","constituency_code":"235","county_code":"041"}},{"arcs":[[-31,-54,-47,-50,-55,-35]],"type":"Polygon","properties":{"code":"1172","name":"West Gem","constituency_code":"235","county_code":"041"}},{"arcs":[[-51,-45,58]],"type":"Polygon","properties":{"code":"1173","name":"Yala Township","constituency_code":"235","county_code":"041"}},{"arcs":[[[59]],[[60]],[[61,62,63]]],"type":"MultiPolygon","properties":{"code":"1174","name":"Central Sakwa","constituency_code":"236","county_code":"041"}},{"arcs":[[-37,-58,64,65,66,67]],"type":"Polygon","properties":{"code":"1175","name":"North Sakwa","constituency_code":"236","county_code":"041"}},{"arcs":[[-62,68,-67,69,70,71,72]],"type":"Polygon","properties":{"code":"1176","name":"South Sakwa","constituency_code":"236","county_code":"041"}},{"arcs":[[-38,-68,-69,-64,73,74]],"type":"Polygon","properties":{"code":"1177","name":"West Sakwa","constituency_code":"236","county_code":"041"}},{"arcs":[[[75,76]],[[77]]],"type":"MultiPolygon","properties":{"code":"1178","name":"West Yimbo","constituency_code":"236","county_code":"041"}},{"arcs":[[78,-42,-39,-75,79,-76]],"type":"Polygon","properties":{"code":"1179","name":"Yimbo East","constituency_code":"236","county_code":"041"}},{"arcs":[[-57,80,81,-65]],"type":"Polygon","properties":{"code":"1180","name":"East Asembo","constituency_code":"237","county_code":"041"}},{"arcs":[[-71,82,83,84,85]],"type":"Polygon","properties":{"code":"1181","name":"North Uyoma","constituency_code":"237","county_code":"041"}},{"arcs":[[-85,86,87]],"type":"Polygon","properties":{"code":"1182","name":"South Uyoma","constituency_code":"237","county_code":"041"}},{"arcs":[[-66,-82,88,-83,-70]],"type":"Polygon","properties":{"code":"1183","name":"West Asembo","constituency_code":"237","county_code":"041"}},{"arcs":[[-72,-86,-88,89]],"type":"Polygon","properties":{"code":"1184","name":"West Uyoma","constituency_code":"237","county_code":"041"}}]}}}