{"type":"Topology","arcs":[[[2569,3126],[-41,-74],[-7,-54]],[[2521,2998],[-7,-33],[26,-41],[-4,-31],[31,-51],[-5,-158],[-19,-75]],[[2543,2609],[-137,4]],[[2406,2613],[-86,-6]],[[2320,2607],[3,69],[-60,93]],[[2263,2769],[-24,62],[-56,57]],[[2183,2888],[51,73],[19,49],[55,2],[50,-16],[32,81],[24,17],[90,104],[43,13],[55,82],[79,19],[-112,-186]],[[2543,2609],[28,0]],[[2571,2609],[-10,-45],[42,-100],[-36,1],[6,-162],[15,-60],[24,-32],[-31,-70],[-94,15],[-22,-60],[-34,-8],[-22,68],[-25,-36],[-162,-140],[-34,-38]],[[2188,1942],[-62,18],[-19,51]],[[2107,2011],[29,38],[-21,35],[39,37],[71,36],[38,53]],[[2263,2210],[91,6],[33,60]],[[2387,2276],[-21,95],[43,30],[4,51],[-28,88]],[[2385,2540],[26,12],[-5,61]],[[2571,2609],[430,-10]],[[3001,2599],[-36,-69],[-87,-24],[-29,-196],[58,-70],[46,-5]],[[2953,2235],[-83,-95],[-46,23],[-50,-68],[-78,-58],[-83,-5],[-24,26],[-63,-39],[-74,-10],[-11,-44],[-37,-61],[-48,-28],[-35,-56]],[[2321,1820],[-32,15],[-101,107]],[[2387,2276],[-68,35]],[[2319,2311],[2,77]],[[2321,2388],[54,34],[9,43],[-8,71]],[[2376,2536],[9,4]],[[2183,2888],[-44,74]],[[2139,2962],[-13,78],[-33,76],[9,37],[42,4],[42,42],[37,-4],[0,-47],[20,-35],[103,61],[14,38],[34,8],[19,40],[63,51],[36,-27],[27,54],[59,39],[63,-26],[50,10],[22,106],[61,100],[54,-1],[7,-66],[46,-47],[45,31],[78,-19],[13,-56],[-1,-106],[-66,-44],[-88,-2],[-22,-32],[-93,-26],[-61,-58],[-70,9],[-67,-24]],[[2169,2686],[17,-61],[9,-96],[-46,-11],[-87,37],[-76,9],[-17,-121],[50,-40],[41,14]],[[2060,2417],[-63,-69],[-40,-9],[-50,56],[-62,47],[-74,0],[-33,-26]],[[1738,2416],[-10,45],[-41,57],[-20,57],[-44,56]],[[1623,2631],[2,0]],[[1625,2631],[48,5],[36,26],[35,-16],[46,36],[107,14],[32,26],[51,-8],[65,14],[52,-25],[72,-17]],[[1721,3036],[48,16],[31,-25],[15,-45],[94,-4],[45,96],[55,18],[24,-33],[62,-110],[44,13]],[[2263,2769],[-26,-45],[-68,-38]],[[1625,2631],[27,48],[68,81],[8,39],[-22,103],[15,134]],[[1519,3085],[-42,-26],[-10,-212],[46,-16],[15,-47],[-38,-57],[-42,-22],[-20,28],[-98,38],[-45,43],[-198,13]],[[1087,2827],[-36,20]],[[1051,2847],[48,41],[0,50],[54,139],[-21,60],[58,57],[33,33],[37,-74],[98,-23],[80,-3],[78,-36],[3,-6]],[[1738,2416],[-36,-18],[-36,-77],[-62,-39],[-97,-10],[-69,-66],[-9,-30],[-106,-137],[-24,-1],[-76,-45],[11,50],[-49,35],[-50,-26],[-59,5]],[[1076,2057],[-2,65],[42,99],[2,55],[73,17]],[[1191,2293],[77,84],[33,22],[109,16],[82,-25],[-56,87],[-28,59],[-6,57],[54,41],[17,40],[48,-10],[45,18],[57,-51]],[[1519,3085],[143,-71],[59,22]],[[1191,2293],[-37,115],[0,59],[57,32],[-46,92],[-74,41],[-20,157],[16,38]],[[2321,2388],[-1,55],[-47,6]],[[2273,2449],[37,58]],[[2310,2507],[66,29]],[[2285,2322],[-62,-61]],[[2223,2261],[-76,-66],[-40,-8]],[[2107,2187],[24,195]],[[2131,2382],[36,-7],[58,63]],[[2225,2438],[47,-61],[13,-55]],[[2310,2507],[10,100]],[[2263,2210],[-40,51]],[[2285,2322],[34,-11]],[[2107,2011],[-60,67],[55,48],[5,61]],[[2273,2449],[-48,-11]],[[2131,2382],[46,73],[-43,35],[-33,-17],[-41,-56]],[[96,2607],[136,105]],[[232,2712],[29,-80],[44,-33],[78,-116],[52,-21],[61,3],[46,-16],[18,-28],[62,64],[49,21],[128,-49],[26,4]],[[825,2461],[-7,-101],[-34,-55],[-40,-18],[105,-68],[32,-37],[-42,-30],[-31,-87],[63,-75],[33,15],[35,-27]],[[939,1978],[-19,-35],[-50,1],[-44,-30],[-19,-34],[-40,-12],[-22,-92],[-71,-17],[-29,-62]],[[645,1697],[7,94],[-20,56],[16,54],[-48,49],[21,51],[1,46],[-32,34],[3,51],[50,52],[18,49],[-137,47],[0,-51],[-90,11],[-24,-21],[-53,41],[4,140],[-57,13],[-50,-11],[-44,19],[-27,33],[-47,105],[-40,48]],[[983,2816],[68,31]],[[1076,2057],[-69,-25],[-19,35],[-53,15],[-28,-56],[21,-31],[0,-1],[1,0],[4,-6],[0,-1],[1,-1],[3,-1],[0,0],[2,-1],[0,-3],[0,-3]],[[825,2461],[9,87],[25,25],[15,78],[25,-2],[45,132],[39,35]],[[232,2712],[93,99],[138,77],[146,32],[66,26],[66,27],[36,38],[91,-54],[46,32],[39,-26],[1,-103],[29,-44]],[[645,1697],[-49,-16],[-28,35],[-38,11],[-21,72],[-51,-28],[-86,19],[-58,101],[-19,3],[-47,-45],[-57,-28],[-61,206],[-39,191],[-12,20],[-79,255],[7,46],[26,21],[63,47]],[[3178,1328],[-60,-119],[-108,-106]],[[3010,1103],[-12,-39],[-33,-20]],[[2965,1044],[6,96],[-30,132],[48,27],[54,124],[33,140]],[[3076,1563],[37,84],[41,129],[9,72]],[[3163,1848],[36,-7],[97,109],[12,36],[49,21],[63,54],[22,-14],[97,-9],[51,17]],[[3590,2055],[73,-22],[43,3],[69,-41]],[[3775,1995],[-76,-35]],[[3699,1960],[-82,-36],[3,-43],[33,-51],[13,-188],[-171,-17],[-22,-16],[-227,-38],[1,-38],[27,-48],[-60,-12],[-28,-21],[-8,-124]],[[4583,1965],[-11,-5],[-52,-122],[-104,-221],[-198,-55],[-57,-65],[-8,-29]],[[4153,1468],[-209,138],[-6,51],[-120,45],[-75,53],[21,156],[-30,-22],[-35,71]],[[3775,1995],[14,-28],[72,-48],[134,79],[12,33],[109,-46],[45,19],[50,-60],[39,-14],[133,13],[33,41],[140,53]],[[4556,2037],[-3,-32],[30,-40]],[[4153,1468],[-29,-111],[-6,-144],[-8,-104],[-22,-106]],[[4088,1003],[-94,7],[-50,-25],[-34,32],[-54,-2],[-44,31],[-56,61],[1,26],[-142,152],[-13,44],[-43,-14],[-55,28],[-20,33],[-98,64],[-64,-18],[-69,-45],[-48,-14],[-27,-35]],[[2965,1044],[-2,-50],[-51,-67],[-106,-39]],[[2806,888],[10,93],[-43,122],[-58,-22],[-91,19],[-21,56],[-10,83],[-93,295],[-64,128],[-69,35]],[[2367,1697],[22,68],[33,49],[30,1],[37,34],[51,-59],[59,-18],[90,16],[71,-34],[60,-6],[27,-38],[35,-9],[13,-85],[43,-39],[138,-14]],[[2953,2235],[80,-22],[49,-35],[41,8],[23,-80],[-15,-112],[41,-35],[4,-60],[-13,-51]],[[2367,1697],[-52,98],[6,25]],[[5200,2326],[-49,-28],[-37,-83],[-92,23],[-68,-54],[-95,-44],[-39,19],[-29,-19],[-45,28],[-117,-248]],[[4629,1920],[-46,45]],[[4556,2037],[87,194],[-478,296]],[[4165,2527],[-55,-23]],[[4110,2504],[-15,-5],[-84,51]],[[4011,2550],[-4,29],[-252,6],[1,142],[46,3]],[[3802,2730],[0,-6],[293,-7],[39,9],[39,-98],[58,93],[84,45],[35,59],[20,84],[29,15],[14,118],[16,49],[258,-213],[81,-25],[20,39],[75,26],[32,-6],[64,5],[22,21],[50,-2],[67,-43],[30,-5],[37,-46],[40,-214],[-4,-290],[-1,-12]],[[3590,2055],[-43,87],[24,34],[3,80],[-31,68],[49,-3],[70,132],[-2,21]],[[3660,2474],[49,-41],[-14,-50],[15,-50],[86,85],[58,15],[50,-31],[14,-37],[90,-48],[8,34],[68,7],[36,-32],[42,68],[3,133]],[[4110,2504],[5,-30],[-111,48],[7,28]],[[2521,2998],[22,-32],[112,-42],[321,9],[86,13],[113,-25],[83,20],[-17,-56],[25,-24],[63,3],[51,16],[57,24],[46,35],[45,-49],[92,61],[63,5],[1,36],[123,-77],[-5,-185]],[[3660,2474],[-42,-19],[-61,2],[-56,59],[31,72],[-531,11]],[[5200,2326],[56,-95],[120,-2],[111,-248],[44,63],[44,-91],[-18,-66],[50,0],[38,-79],[182,1],[38,-4],[3,-106],[33,-130],[44,-226],[-140,-77],[-54,0],[-43,61],[-29,-8],[-53,32],[-152,-6],[-49,53],[-8,56],[-47,42],[-46,104],[-44,18],[-45,50],[-33,-15],[-43,26],[-13,95],[-29,56],[-51,25],[-45,55],[-42,-4],[-33,27],[-14,-45],[-58,19],[-65,5],[-41,-27],[-84,29],[-55,6]],[[3819,643],[-31,-59]],[[3788,584],[-99,12],[-101,-52],[-18,13],[-90,4],[-47,-17],[-44,-37],[-57,5]],[[3332,512],[-107,-1],[-34,11]],[[3191,522],[-56,31],[-88,104],[-46,-22],[-79,0],[-17,38],[-45,32],[-50,2],[-52,28],[-10,33]],[[2748,768],[32,28],[11,79],[15,13]],[[3010,1103],[251,-231],[69,-56],[68,91],[47,-25],[73,5],[19,-38],[35,0],[90,-51],[-1,-59],[24,-52],[67,-4],[17,-26],[50,-14]],[[4088,1003],[-9,-102],[-19,-41],[-116,-120],[-32,-42],[-93,-55]],[[3788,584],[10,-36],[-17,-58],[19,-192],[22,-102],[-20,-65],[-32,-52],[-27,5],[-64,-34],[-8,-33],[-41,4],[-28,28],[-53,-18]],[[3549,31],[1,66],[-23,62],[-41,31],[-91,106],[-33,2],[-41,61],[19,63],[-14,39],[6,51]],[[3549,31],[-22,-20],[-76,-11],[-112,40],[-28,-8],[-21,75],[-35,-15],[-46,8],[14,89],[-41,21],[-99,-38],[-31,-51],[-15,23],[-69,2],[-109,37],[-120,-4],[-30,18]],[[2709,197],[69,46],[139,36],[-2,78],[41,18],[25,49],[210,98]],[[2709,197],[-77,20],[-13,62],[9,58],[-27,35],[-52,82],[-81,16],[-48,43],[-50,106],[34,58],[-57,69],[-75,40],[19,22],[92,162],[37,-13],[29,-108],[87,-130],[58,-68],[91,42],[63,75]]],"transform":{"scale":[0.00015672613205668003,0.00013301352535445102],"translate":[34.41201662574625,-0.41734240753857677]},"objects":{"wards.042.final":{"type":"GeometryCollection","geometries":[{"arcs":[[0,1,2,3,4,5,6]],"type":"Polygon","properties":{"code":"1185","name":"Kajulu","constituency_code":"238","county_code":"042"}},{"arcs":[[-3,7,8,9,10,11,12,13]],"type":"Polygon","properties":{"code":"1186","name":"Kolwa Central","constituency_code":"238","county_code":"042"}},{"arcs":[[-9,14,15,16,17]],"type":"Polygon","properties":{"code":"1187","name":"Kolwa East","constituency_code":"238","county_code":"042"}},{"arcs":[[-13,18,19,20,21]],"type":"Polygon","properties":{"code":"1188","name":"Manyatta B","constituency_code":"238","county_code":"042"}},{"arcs":[[-7,22,23]],"type":"Polygon","properties":{"code":"1189","name":"Terik","constituency_code":"238","county_code":"042"}},{"arcs":[[24,25,26,27,28]],"type":"Polygon","properties":{"code":"1190","name":"Central Kisumu","constituency_code":"239","county_code":"042"}},{"arcs":[[29,-23,-6,30,-29,31]],"type":"Polygon","properties":{"code":"1191","name":"North Kisumu","constituency_code":"239","county_code":"042"}},{"arcs":[[32,33,34]],"type":"Polygon","properties":{"code":"1192","name":"North West Kisumu","constituency_code":"239","county_code":"042"}},{"arcs":[[-27,35,36,37]],"type":"Polygon","properties":{"code":"1193","name":"South West Kisumu","constituency_code":"239","county_code":"042"}},{"arcs":[[38,-32,-28,-38,39,-33]],"type":"Polygon","properties":{"code":"1194","name":"West Kisumu","constituency_code":"239","county_code":"042"}},{"arcs":[[-21,40,41,42]],"type":"Polygon","properties":{"code":"1195","name":"Kondele","constituency_code":"240","county_code":"042"}},{"arcs":[[43,44,45,46,47]],"type":"Polygon","properties":{"code":"1196","name":"Market Milimani","constituency_code":"240","county_code":"042"}},{"arcs":[[-4,-14,-22,-43,48]],"type":"Polygon","properties":{"code":"1197","name":"Migosi","constituency_code":"240","county_code":"042"}},{"arcs":[[-12,49,-44,50,-19]],"type":"Polygon","properties":{"code":"1198","name":"Nyalenda A","constituency_code":"240","county_code":"042"}},{"arcs":[[-11,51,-45,-50]],"type":"Polygon","properties":{"code":"1199","name":"Nyalenda B","constituency_code":"240","county_code":"042"}},{"arcs":[[-5,-49,-42,52,-47,53,-25,-31]],"type":"Polygon","properties":{"code":"1200","name":"Railways","constituency_code":"240","county_code":"042"}},{"arcs":[[-20,-51,-48,-53,-41]],"type":"Polygon","properties":{"code":"1201","name":"Shauri Moyo Kaloleni","constituency_code":"240","county_code":"042"}},{"arcs":[[54,55,56,57,58]],"type":"Polygon","properties":{"code":"1202","name":"Central Seme","constituency_code":"241","county_code":"042"}},{"arcs":[[59,-34,-40,-37,60,-57,61]],"type":"Polygon","properties":{"code":"1203","name":"East Seme","constituency_code":"241","county_code":"042"}},{"arcs":[[-62,-56,62]],"type":"Polygon","properties":{"code":"1204","name":"North Seme","constituency_code":"241","county_code":"042"}},{"arcs":[[-59,63]],"type":"Polygon","properties":{"code":"1205","name":"West Seme","constituency_code":"241","county_code":"042"}},{"arcs":[[64,65,66,67,68,69,70,71]],"type":"Polygon","properties":{"code":"1206","name":"Ahero","constituency_code":"242","county_code":"042"}},{"arcs":[[72,73,-71,74,75]],"type":"Polygon","properties":{"code":"1207","name":"Awasi/onjiko","constituency_code":"242","county_code":"042"}},{"arcs":[[76,77,-72,-74]],"type":"Polygon","properties":{"code":"1208","name":"East Kano/wawidhi","constituency_code":"242","county_code":"042"}},{"arcs":[[-67,78,79,80]],"type":"Polygon","properties":{"code":"1209","name":"Kabonyo Kanyagwal","constituency_code":"242","county_code":"042"}},{"arcs":[[-17,81,-68,-81,82]],"type":"Polygon","properties":{"code":"1210","name":"Kobura","constituency_code":"242","county_code":"042"}},{"arcs":[[83,84,-76,85,86,87,88,89]],"type":"Polygon","properties":{"code":"1211","name":"Chemelil","constituency_code":"243","county_code":"042"}},{"arcs":[[[-70,90,91,-86,-75]],[[-88,92]]],"type":"MultiPolygon","properties":{"code":"1212","name":"Masogo/nyang'oma","constituency_code":"243","county_code":"042"}},{"arcs":[[93,-89,-93,-87,-92,94,-15,-8,-2]],"type":"Polygon","properties":{"code":"1213","name":"Miwani","constituency_code":"243","county_code":"042"}},{"arcs":[[-84,95]],"type":"Polygon","properties":{"code":"1214","name":"Muhoroni Koru","constituency_code":"243","county_code":"042"}},{"arcs":[[-16,-95,-91,-69,-82]],"type":"Polygon","properties":{"code":"1215","name":"Ombeyi","constituency_code":"243","county_code":"042"}},{"arcs":[[96,97,98,99,100,-79,-66,101]],"type":"Polygon","properties":{"code":"1216","name":"Central Nyakach","constituency_code":"244","county_code":"042"}},{"arcs":[[-102,-65,-78,102]],"type":"Polygon","properties":{"code":"1217","name":"North Nyakach","constituency_code":"244","county_code":"042"}},{"arcs":[[103,104,-98]],"type":"Polygon","properties":{"code":"1218","name":"South East Nyakach","constituency_code":"244","county_code":"042"}},{"arcs":[[-99,-105,105,106]],"type":"Polygon","properties":{"code":"1219","name":"South West Nyakach","constituency_code":"244","county_code":"042"}},{"arcs":[[-100,-107,107]],"type":"Polygon","properties":{"code":"1220","name":"West Nyakach","constituency_code":"244","county_code":"042"}}]}}}