{"type":"Topology","arcs":[[[4808,2614],[71,-22],[7,-66],[50,-16],[66,-57],[21,-51],[55,-22],[26,-46],[93,-120],[117,-77],[-1,-73]],[[5313,2064],[-86,7],[-9,-87],[-45,-30],[-89,-127],[-39,-50],[-161,-14],[-5,-2]],[[4879,1761],[-100,129]],[[4779,1890],[32,70],[-34,26],[-12,57],[-37,75],[-44,59],[26,62],[-1,57],[-40,47],[40,78],[-18,40],[39,48],[-10,41]],[[4720,2550],[44,72],[44,-8]],[[4808,2614],[58,83]],[[4866,2697],[5,-40],[49,-70],[116,-86],[49,0],[66,-28]],[[5151,2473],[35,-54],[65,-6],[23,-26],[60,-20],[80,44],[44,-51],[91,10],[26,-93],[29,-34],[-50,-64],[5,-58]],[[5559,2121],[-88,-64],[-109,35],[-49,-28]],[[4866,2697],[25,38],[-14,48],[45,30],[49,54]],[[4971,2867],[105,131],[5,71]],[[5081,3069],[110,2],[54,-20],[47,10],[129,-43]],[[5421,3018],[19,-38],[60,-71],[-16,-80],[-24,-52],[25,-47]],[[5485,2730],[-43,-57],[20,-76],[-64,-15],[-11,71],[-36,-38],[-37,15],[-60,-31],[14,-58],[-51,-37],[-57,14],[-9,-45]],[[5421,3018],[58,-2]],[[5479,3016],[74,-28],[55,-35],[92,-138],[45,-28],[11,-102],[51,-143],[-35,-42],[-22,-65],[-24,-28],[30,-100],[41,-52]],[[5797,2255],[-78,-41]],[[5719,2214],[-27,63],[-95,33],[12,73],[-10,47],[-40,39],[-30,87],[4,47],[-18,25],[-30,102]],[[5719,2214],[-8,-3],[-122,-62],[-30,-28]],[[6811,2713],[-82,39],[-40,-6],[-75,13],[-45,24],[11,34],[-55,16],[-25,-33],[-58,33],[-28,46],[-2,58],[26,70],[35,-19],[39,34],[-47,62],[-13,52]],[[6452,3136],[33,46],[107,34],[43,-19],[-14,-79],[49,-7],[37,13],[23,-67],[31,7],[120,-36],[81,10],[24,18],[57,16],[31,-25],[44,-3],[7,29],[69,30],[29,-4],[35,47],[22,57],[52,-44],[24,-52],[-11,-52],[-137,-112],[-226,-88],[-171,-142]],[[6811,2713],[-88,-47],[-155,-76],[-182,-46]],[[6386,2544],[-48,161],[-54,31],[-26,48],[-57,37]],[[6201,2821],[-76,25],[-57,72],[-85,2],[-89,78],[-74,135],[-3,83]],[[5817,3216],[40,68],[81,69],[28,7]],[[5966,3360],[29,-31],[-9,-52],[14,-55],[83,-17],[33,-17],[128,4],[118,-34],[74,-1],[16,-21]],[[5479,3016],[-5,37],[61,81],[47,-6],[41,38],[72,2],[74,55],[48,-7]],[[6201,2821],[-14,-45],[-30,-9],[-19,-93],[-75,-39],[-76,2],[-17,-36],[42,-28],[-23,-51],[-39,-10],[-14,-31],[-41,-8],[25,-43],[-44,-29],[-10,-53],[41,-39]],[[5907,2309],[-110,-54]],[[6386,2544],[-130,-92],[-86,-64],[-178,-53],[-85,-26]],[[3965,2997],[-8,-102],[-32,-77],[-27,-23],[35,-67]],[[3933,2728],[-86,-27]],[[3847,2701],[-164,113],[-10,24],[-89,63],[-21,50],[-102,83],[-29,120],[-1,102],[27,34],[57,162],[102,53],[84,5],[104,51]],[[3805,3561],[22,-70],[25,-29],[1,-104],[-21,-36],[83,-75],[-4,-23],[-57,2],[-1,-41],[56,-59],[3,-43],[39,-22],[14,-64]],[[3805,3561],[63,8],[32,39],[78,7],[42,22],[57,6],[123,-5],[43,-17],[32,-35],[53,-30]],[[4328,3556],[-2,-63],[23,-42],[-40,-42],[-17,-108],[-53,-99]],[[4239,3202],[-70,-12],[-20,-18],[-78,-22],[-38,-68],[-42,-34],[-26,-51]],[[4328,3556],[34,-27],[153,-28],[46,52],[98,6],[32,-63],[26,-6]],[[4717,3490],[-14,-33],[-24,-121],[-3,-50],[20,-75],[91,-94],[102,-134],[50,-21],[40,-58],[-18,-18]],[[4961,2886],[-47,9],[-30,25],[-57,84],[-67,54],[-68,28],[-46,-29],[-40,4],[-74,-25],[-176,1]],[[4356,3037],[-34,57],[-1,31],[-82,77]],[[4720,2550],[-84,25],[-25,36],[-42,-11],[-54,21],[-82,59],[-29,67],[-63,-21]],[[4341,2726],[44,98],[-42,101],[13,112]],[[4961,2886],[10,-19]],[[4779,1890],[-44,64],[-140,27],[-96,121],[-113,7],[37,28],[-53,42]],[[4370,2179],[-82,43],[-8,69],[-43,85],[13,49],[-95,95],[32,73],[-39,96]],[[4148,2689],[91,8],[69,35],[33,-6]],[[3933,2728],[74,11],[49,-29],[41,7],[22,-38],[29,10]],[[4370,2179],[-100,-5],[-41,-12],[-28,-88],[34,-37]],[[4235,2037],[-98,-19],[-40,15],[-21,-46],[-40,-33]],[[4036,1954],[-33,26],[-80,103],[-37,101],[19,38],[-37,60],[-9,63],[-75,84],[3,111]],[[3787,2540],[34,13],[47,76],[2,41],[-23,31]],[[3901,1362],[-56,0],[-69,-37],[-60,-1]],[[3716,1324],[-6,79],[-22,148],[-35,93],[15,48],[-17,90],[-23,56],[-31,5]],[[3597,1843],[-48,46]],[[3549,1889],[84,59],[-60,95],[-39,25],[-4,67],[48,34],[-34,44],[-66,-8],[-14,85],[-23,26]],[[3441,2316],[81,28],[101,59]],[[3623,2403],[43,-82],[-18,-57],[-2,-71],[19,-102],[37,-55],[-28,-96],[22,-85],[75,-116],[48,-116],[46,-47],[20,-136],[-3,-58],[19,-20]],[[3716,1324],[-76,19],[-37,44],[-62,51]],[[3541,1438],[20,30],[0,93],[44,96],[-39,97],[4,46],[27,43]],[[3549,1889],[-26,58],[23,47],[-59,76],[-79,35],[-22,-25],[-71,74],[-135,51]],[[3180,2205],[46,62]],[[3226,2267],[33,-35],[69,50],[113,34]],[[4036,1954],[-4,-52],[75,-72],[-6,-48],[-38,-36],[71,-36],[10,-56],[34,-43],[-7,-60],[12,-68],[60,-25],[-8,-51],[18,-30]],[[4253,1377],[-60,-16],[-30,-25]],[[4163,1336],[-78,63],[-50,-26],[-134,-11]],[[3623,2403],[54,17],[41,51],[11,42],[58,27]],[[2643,85],[-74,-35],[0,-47],[-18,3],[-66,68],[-85,118],[-72,54],[-20,29],[-63,19],[-22,21],[-50,39],[-113,31],[-55,68],[-65,119],[-34,16],[-52,53],[-42,21],[-27,65],[-42,41]],[[1743,768],[-10,50],[-36,55],[163,94]],[[1860,967],[322,221]],[[2182,1188],[117,-131],[70,-29],[50,-89]],[[2419,939],[-40,-26],[92,-132],[67,-43],[-40,-25],[21,-128],[-5,-42],[30,-48],[28,-124],[21,-55],[50,-231]],[[2900,142],[-22,-62],[-110,34],[-125,-29]],[[2419,939],[122,-36],[66,-28],[84,-1],[34,13],[105,-18],[24,-18]],[[2854,851],[-58,-38],[-36,-63],[34,-34],[45,-11],[30,-40],[66,-36],[-5,-75],[-86,15],[-47,-24],[25,-36],[50,1],[-3,-49],[-33,-47],[-6,-38],[57,-142],[13,-92]],[[3024,349],[-16,-50],[30,-35],[-68,-132],[-22,17],[-48,-7]],[[2854,851],[110,-85],[107,-50],[1,-85],[-28,-28]],[[3044,603],[-23,-54],[-57,-37],[69,-93],[-9,-70]],[[3711,553],[-71,72],[12,24],[-26,44],[122,57],[59,82],[-129,91],[-51,-34],[-35,-43],[-70,-46],[-128,-45],[-15,35],[-88,-9],[-18,-150],[9,-60],[-38,-39]],[[3244,532],[-42,79],[-60,30],[26,57],[-32,65],[-11,144],[60,66]],[[3185,973],[47,38],[124,130],[92,111],[-20,98],[-26,68],[0,61],[20,43],[27,1]],[[3449,1523],[23,-34],[69,-51]],[[4163,1336],[-3,-4],[18,-30],[-68,-101],[-50,-42],[-12,-55],[-16,-139],[1,-43],[-1,-26],[-43,-101],[-47,-63],[-46,2],[-65,-15],[3,-50],[-28,-40],[-70,-68],[-25,-8]],[[3711,553],[-33,-20],[12,-40],[-38,-6],[92,-66],[17,-42],[-50,-40],[-42,-56],[-49,-37],[-13,-55],[7,-65],[-73,-126],[-41,23],[-62,59],[-77,39],[-58,40],[-49,63],[-230,125]],[[3044,603],[97,-76],[79,27],[24,-22]],[[2182,1188],[201,137],[306,153]],[[2689,1478],[39,34],[62,111]],[[2790,1623],[36,-7],[63,-83],[59,-23],[22,-50],[66,-106],[48,-28],[46,-150],[33,-145],[22,-58]],[[1015,2684],[12,-6],[-117,-105],[4,83],[101,28]],[[550,2992],[39,-30],[88,-110],[72,-41],[40,-113],[35,-40],[-65,-83],[-141,-49],[-25,2],[-97,-29],[-53,-7],[-104,11],[-24,38],[-61,57],[-29,-6],[-78,46],[-50,-18],[-20,44],[-29,-13],[-48,21],[56,35],[-21,101],[48,-16],[7,51],[39,33],[44,-19],[33,-48],[49,10],[17,30],[72,35],[93,11],[82,87],[31,10]],[[1752,3024],[-1,-2]],[[1751,3022],[-85,2],[-51,-21],[-37,-58],[-81,-41],[-29,-46],[-51,58],[-83,55],[-24,2],[-44,-69],[-25,-1],[-75,77],[-8,28],[12,70],[117,-20],[29,12],[44,82],[45,-4],[46,38],[7,69],[-25,46],[21,17],[86,-20],[44,-45],[106,-34],[31,-54],[55,32],[25,97],[-10,89],[64,40],[22,45],[37,-41],[-28,-46],[-47,-126],[-14,-137],[-65,-65],[-8,-29]],[[1657,3507],[22,-48],[-30,-60],[-28,11],[17,97],[19,0]],[[1752,3024],[28,-25],[18,-75],[52,-27],[52,21],[65,-38],[69,23],[64,4],[0,-41],[35,-11],[7,-40],[90,-48],[84,-106],[42,0]],[[2358,2661],[-8,-49],[-23,-25],[-72,-21],[-25,-20],[-100,-14],[-73,-23],[-20,-28],[-74,-16],[-121,-57],[-55,-52]],[[1787,2356],[-6,84],[-108,5],[-83,104],[-32,25],[-76,26]],[[1482,2600],[100,111],[92,65],[32,81],[41,77],[4,88]],[[5081,3069],[69,57],[-12,88],[-25,41],[-132,151],[-10,40]],[[4971,3446],[54,1],[29,39],[87,-21],[66,25],[51,-27],[125,-3],[18,17],[93,7],[48,-10],[34,32],[23,104],[-5,42],[-96,49],[-14,94],[37,71],[43,-12],[42,10],[68,-45],[-42,-32],[1,-38],[-20,-20],[81,-35],[61,-62],[-37,-52],[54,-94],[52,-38],[87,-14],[55,-74]],[[4717,3490],[52,0],[64,-17],[34,-22],[65,17],[39,-22]],[[4235,2037],[76,-28],[-14,-130],[18,-58],[69,-52],[0,-97],[101,-56],[32,-45],[108,63],[62,-61],[72,2]],[[4759,1575],[-44,-200],[-66,42],[-71,24],[-134,23],[-74,-6],[-9,-52],[-108,-29]],[[4879,1761],[-120,-186]],[[3449,1523],[-37,73],[-42,109],[12,17],[-18,82],[-90,69],[-52,116],[-100,88]],[[3122,2077],[58,128]],[[2790,1623],[33,64],[18,118],[86,39],[135,114],[60,119]],[[2358,2661],[32,-3],[73,-35],[17,42],[-56,26],[145,98],[-2,-41],[40,-56],[50,-19],[4,-128],[87,-60],[23,23],[3,87],[103,35],[0,93],[-38,30],[12,35],[64,12],[23,-20],[99,-20],[79,13],[3,-68]],[[3119,2705],[-80,-69],[-87,-47],[-46,-40],[-57,-115],[-29,-36],[-116,-8],[-22,11],[-105,-63],[-45,13],[-185,-107]],[[2347,2244],[-156,-96],[-64,-4],[-64,-20],[-56,46],[-1,39],[-66,75],[-140,56]],[[1800,2340],[-13,16]],[[2689,1478],[-182,460],[-44,21],[-27,36],[0,44],[-49,75],[-38,35],[13,27],[-15,68]],[[3119,2705],[35,-15],[-20,-51],[45,-48],[34,-10],[-1,-45],[19,-46],[69,37],[32,-9],[23,-50],[-26,-38],[-60,2],[-48,-65],[-17,-84],[22,-16]],[[789,947],[52,65],[76,59],[36,9],[111,-14],[45,19],[16,31],[159,77],[38,42],[22,65],[-13,398],[100,-5],[60,13]],[[1491,1706],[103,-12],[81,3],[77,34]],[[1752,1731],[57,-17],[73,-44],[72,-70],[99,-44],[-393,-419],[200,-170]],[[1743,768],[-27,-15],[-41,-62],[-30,-4],[-80,34],[-23,-63],[-46,-22],[-89,42],[-28,-7],[-44,-71],[-156,-32],[-23,26],[-72,-32],[-68,-8],[-103,-103],[-34,-15],[-31,62],[39,78],[31,17],[-15,74],[-36,13],[-9,124],[10,53],[-31,53],[-48,37]],[[789,947],[-31,12],[-42,-35],[-50,0],[-32,-57],[-51,9],[40,53],[62,44],[25,2],[51,46],[-8,35],[-41,16],[2,65],[-19,51],[30,35],[-20,38],[33,21],[-4,47],[-36,42],[36,67],[-18,53],[35,91],[28,-3],[76,29],[66,51],[43,82],[44,31],[-2,23]],[[1006,1795],[84,36],[20,42],[65,42],[28,-12],[37,25],[57,3],[65,-24],[67,10],[53,-81],[9,-130]],[[592,813],[-15,-52],[-44,37],[59,15]],[[1800,2340],[-36,-53],[-76,-54],[-24,-1],[-50,-56],[-76,-22],[84,-28],[31,-47],[105,-44],[99,-89],[-41,-87],[-64,-49],[0,-79]],[[1006,1795],[-13,39],[-127,10],[25,41],[-19,35],[-54,4],[2,53],[-42,44],[48,20],[28,30],[77,-58],[67,7],[28,41],[71,33],[6,114],[57,24],[19,-83],[99,-12],[45,46],[76,20],[39,-14],[26,35],[5,83],[-6,98],[-14,66],[26,42],[-6,62],[13,25]],[[956,2349],[48,-60],[-4,-29],[-63,-6],[-14,88],[33,7]]],"transform":{"scale":[0.00014576308576000766,0.00014910807043859396],"translate":[33.94992246785948,-0.8688907830956606]},"objects":{"wards.043.final":{"type":"GeometryCollection","geometries":[{"arcs":[[0,1,2,3,4]],"type":"Polygon","properties":{"code":"1221","name":"West Kasipul","constituency_code":"245","county_code":"043"}},{"arcs":[[-1,5,6,7,8]],"type":"Polygon","properties":{"code":"1222","name":"South Kasipul","constituency_code":"245","county_code":"043"}},{"arcs":[[-7,9,10,11,12,13]],"type":"Polygon","properties":{"code":"1223","name":"Central Kasipul","constituency_code":"245","county_code":"043"}},{"arcs":[[-13,14,15,16,17]],"type":"Polygon","properties":{"code":"1224","name":"East Kamagak","constituency_code":"245","county_code":"043"}},{"arcs":[[-8,-14,-18,18]],"type":"Polygon","properties":{"code":"1225","name":"West Kamagak","constituency_code":"245","county_code":"043"}},{"arcs":[[19,20]],"type":"Polygon","properties":{"code":"1226","name":"Kabondo East","constituency_code":"246","county_code":"043"}},{"arcs":[[-20,21,22,23,24,25]],"type":"Polygon","properties":{"code":"1227","name":"Kabondo West","constituency_code":"246","county_code":"043"}},{"arcs":[[-16,26,-24,27,28]],"type":"Polygon","properties":{"code":"1228","name":"Kokwanyo/kakelo","constituency_code":"246","county_code":"043"}},{"arcs":[[-23,29,-28]],"type":"Polygon","properties":{"code":"1229","name":"Kojwach","constituency_code":"246","county_code":"043"}},{"arcs":[[30,31,32,33]],"type":"Polygon","properties":{"code":"1230","name":"West Karachuonyo","constituency_code":"247","county_code":"043"}},{"arcs":[[-34,34,35,36]],"type":"Polygon","properties":{"code":"1231","name":"North Karachuonyo","constituency_code":"247","county_code":"043"}},{"arcs":[[-36,37,38,39,40]],"type":"Polygon","properties":{"code":"1232","name":"Central","constituency_code":"247","county_code":"043"}},{"arcs":[[-5,41,42,-40,43,-10,-6]],"type":"Polygon","properties":{"code":"1233","name":"Kanyaluo","constituency_code":"247","county_code":"043"}},{"arcs":[[-4,44,45,46,-42]],"type":"Polygon","properties":{"code":"1239","name":"Kagan","constituency_code":"248","county_code":"043"}},{"arcs":[[-32,47,-46,48,49,50,51]],"type":"Polygon","properties":{"code":"1240","name":"Kochia","constituency_code":"248","county_code":"043"}},{"arcs":[[52,53,54,55,56,57]],"type":"Polygon","properties":{"code":"1241","name":"Homa Bay Central","constituency_code":"249","county_code":"043"}},{"arcs":[[[-54,58,59]],[[-56,60,61,62]]],"type":"MultiPolygon","properties":{"code":"1242","name":"Homa Bay Arujo","constituency_code":"249","county_code":"043"}},{"arcs":[[-51,63,64,65,-58,66]],"type":"Polygon","properties":{"code":"1244","name":"Homa Bay East","constituency_code":"249","county_code":"043"}},{"arcs":[[67,68,69,70,71]],"type":"Polygon","properties":{"code":"1245","name":"Kwabwai","constituency_code":"250","county_code":"043"}},{"arcs":[[72,-72,73,74]],"type":"Polygon","properties":{"code":"1246","name":"Kanyadoto","constituency_code":"250","county_code":"043"}},{"arcs":[[75,-75,76,77]],"type":"Polygon","properties":{"code":"1247","name":"Kanyikela","constituency_code":"250","county_code":"043"}},{"arcs":[[78,79,80,81,-59,-53,-66,82]],"type":"Polygon","properties":{"code":"1248","name":"Kabuoch North","constituency_code":"250","county_code":"043"}},{"arcs":[[83,-78,84,-79]],"type":"Polygon","properties":{"code":"1249","name":"Kabuoch South/pala","constituency_code":"250","county_code":"043"}},{"arcs":[[-71,85,86,87,-80,-85,-77,-74]],"type":"Polygon","properties":{"code":"1251","name":"Kanyamwa Kosewe","constituency_code":"250","county_code":"043"}},{"arcs":[[[88]],[[89]]],"type":"MultiPolygon","properties":{"code":"1252","name":"Mfangano Island","constituency_code":"251","county_code":"043"}},{"arcs":[[[90,91]],[[92]]],"type":"MultiPolygon","properties":{"code":"1253","name":"Rusinga Island","constituency_code":"251","county_code":"043"}},{"arcs":[[-91,93,94,95,96]],"type":"Polygon","properties":{"code":"1254","name":"Kasgunga","constituency_code":"251","county_code":"043"}},{"arcs":[[-31,-37,-41,-43,-47,-48]],"type":"Polygon","properties":{"code":"1234","name":"Kibiri","constituency_code":"247","county_code":"043"}},{"arcs":[[-12,97,98,-25,-27,-15]],"type":"Polygon","properties":{"code":"1235","name":"Wangchieng","constituency_code":"247","county_code":"043"}},{"arcs":[[-11,-44,-39,99,-98]],"type":"Polygon","properties":{"code":"1236","name":"Kendu Bay Town","constituency_code":"247","county_code":"043"}},{"arcs":[[-64,-50,100,101]],"type":"Polygon","properties":{"code":"1237","name":"West Gem","constituency_code":"248","county_code":"043"}},{"arcs":[[-3,102,-101,-49,-45]],"type":"Polygon","properties":{"code":"1238","name":"East Gem","constituency_code":"248","county_code":"043"}},{"arcs":[[-55,-60,-82,103,104,-61]],"type":"Polygon","properties":{"code":"1243","name":"Homa Bay West","constituency_code":"249","county_code":"043"}},{"arcs":[[-81,-88,105,-104]],"type":"Polygon","properties":{"code":"1250","name":"Kanyamwa Kologi","constituency_code":"250","county_code":"043"}},{"arcs":[[-95,106,107,108,109]],"type":"Polygon","properties":{"code":"1255","name":"Gembe","constituency_code":"251","county_code":"043"}},{"arcs":[[-62,-105,-106,-87,110,-108,111]],"type":"Polygon","properties":{"code":"1256","name":"Lambwe","constituency_code":"251","county_code":"043"}},{"arcs":[[112,113,114,-69,115]],"type":"Polygon","properties":{"code":"1257","name":"Gwassi South","constituency_code":"252","county_code":"043"}},{"arcs":[[[-113,116,117]],[[118]]],"type":"MultiPolygon","properties":{"code":"1258","name":"Gwassi North","constituency_code":"252","county_code":"043"}},{"arcs":[[[-96,-110,119,-114,-118,120]],[[121]]],"type":"MultiPolygon","properties":{"code":"1259","name":"Kaksingri West","constituency_code":"252","county_code":"043"}},{"arcs":[[-70,-115,-120,-109,-111,-86]],"type":"Polygon","properties":{"code":"1260","name":"Ruma-Kaksingri","constituency_code":"252","county_code":"043"}}]}}}