{"type":"Topology","arcs":[[[3981,3976],[-18,-111],[-16,-192]],[[3947,3673],[-32,0],[-60,32],[-101,-23],[-6,19]],[[3748,3701],[9,50],[-41,10],[-32,91],[-38,24],[-15,100],[5,66],[68,-13],[73,32],[110,-14],[94,-71]],[[3686,4498],[-6,-96],[-82,-32],[34,-72],[20,-95],[34,-11],[97,-55],[42,6],[49,-35],[120,-40]],[[3994,4068],[-13,-92]],[[3748,3701],[-28,-22],[4,-44],[-42,-15],[48,-114],[11,-54],[-42,-36]],[[3699,3416],[-71,57],[-37,66],[2,35],[-57,52],[73,91],[-25,69],[1,94],[-47,44],[-61,2],[-60,27],[-31,33],[-27,68]],[[3359,4054],[-1,39],[15,127],[13,52],[50,38],[67,93],[-17,27],[2,4],[30,23],[60,15],[108,26]],[[3686,4498],[9,48],[74,6],[133,-21],[70,-22],[67,-39],[-8,-41],[44,-220],[-81,-141]],[[3941,2468],[-49,94],[-52,14],[16,46],[-34,24],[-67,152],[16,56],[-23,116],[-41,43],[6,122],[-39,30],[10,77],[-11,92],[-21,33]],[[3652,3367],[47,49]],[[3947,3673],[-19,-309],[-24,-14],[-43,-87],[48,-86],[-19,-57],[-1,-48],[20,-23],[4,-60],[70,-287],[1,-101],[35,9],[55,-23],[-133,-119]],[[3517,3290],[-33,-50],[0,-96],[-106,-74],[-60,-81],[-10,-42],[-56,-98]],[[3252,2849],[-48,70],[-44,5]],[[3160,2924],[-56,59],[-2,33]],[[3102,3016],[-1,31],[56,45],[26,127],[76,20],[46,46],[-23,20],[8,52],[-6,89],[66,26],[37,26],[3,48],[-14,68],[21,48]],[[3397,3662],[68,-21],[10,-78],[25,-7],[-8,-55],[25,-211]],[[3652,3367],[-55,-36],[6,-62],[27,-39],[-11,-59],[-27,1],[-75,118]],[[3397,3662],[-32,58],[-46,-15],[-61,18],[-30,-58],[-7,-50],[-60,3],[-58,-29],[-32,4]],[[3071,3593],[-92,61],[38,5],[-12,37],[33,18],[25,8],[69,62],[28,37],[-3,46],[65,14],[46,-2],[47,58],[43,93],[1,24]],[[3941,2468],[-218,-187]],[[3723,2281],[-13,57],[-71,14],[-65,-23],[-41,70],[-27,71],[-36,50]],[[3470,2520],[-20,42],[-90,144],[-56,64],[-52,79]],[[2868,3206],[74,116],[-8,59],[13,51],[49,34],[41,52],[50,36],[-16,39]],[[3102,3016],[-95,74],[-37,38],[-102,78]],[[3421,2122],[80,-33],[67,-12],[-23,-73]],[[3545,2004],[-3,-81],[-38,-20],[-52,-50],[-12,-39]],[[3440,1814],[-69,26],[-75,-35],[-56,22],[-80,7],[6,32],[-23,48],[-102,41],[63,68],[-27,25],[-75,9],[24,56]],[[3026,2113],[76,11],[54,23],[-22,111]],[[3134,2258],[209,-121],[78,-15]],[[3026,2113],[-30,20],[-61,13],[-24,-21],[8,-53],[-59,-17]],[[2860,2055],[-41,-6],[-108,45],[-28,-168]],[[2683,1926],[-100,29],[-53,-13],[-34,-24],[-67,67],[-143,95]],[[2286,2080],[10,96],[-22,39],[38,69],[3,32],[-44,0],[-114,32],[-91,-9],[-52,53],[-50,9]],[[1964,2401],[44,40],[86,36],[29,32],[5,35]],[[2128,2544],[66,-41],[43,-49],[55,-23],[11,18],[142,-94],[31,18],[-11,37],[125,12],[68,-7],[97,-27],[32,-22],[67,12]],[[2854,2378],[-11,-26],[256,-62],[35,-32]],[[3773,2070],[22,-36],[117,-109],[-25,-75],[34,-51],[23,-70],[-4,-34],[54,-66],[17,-92],[-46,-100],[-3,-1]],[[3962,1436],[-26,-17],[-71,61],[-20,-4]],[[3845,1476],[-27,44]],[[3818,1520],[-33,46],[33,78],[-8,98],[-12,32],[-43,-10],[-139,-13],[-66,4],[-13,16],[-100,-18]],[[3437,1753],[3,61]],[[3545,2004],[47,9],[67,-51],[124,0],[9,20],[-23,60],[4,28]],[[3437,1753],[-68,-33],[-83,22],[-20,-10],[-77,17],[-8,-29],[-62,9]],[[3119,1729],[-48,22],[-50,5],[-38,41],[-53,6],[-31,36],[25,41],[-23,49],[14,50],[-50,31],[-5,45]],[[3119,1729],[-5,-48],[-71,-33],[-97,-68]],[[2946,1580],[-8,41],[-85,-6],[-80,7],[-32,-12]],[[2741,1610],[-33,19]],[[2708,1629],[87,49],[-9,84],[17,51],[-32,3],[-88,110]],[[2708,1629],[-51,-14],[-74,40],[-89,-26],[-76,-58]],[[2418,1571],[-73,-2],[-49,12],[-45,63],[-20,132]],[[2231,1776],[-3,45],[27,37],[13,61],[-17,143],[35,18]],[[2418,1571],[10,-14],[-60,-58],[-26,-65],[-37,-38],[-56,-151]],[[2249,1245],[-3,-9],[-391,198],[-398,206]],[[1457,1640],[-1,92],[85,91],[-12,34],[24,67]],[[1553,1924],[69,-20],[17,-29],[82,3],[10,-29],[108,-25],[24,-49],[44,10],[78,-29],[93,-16],[115,38],[38,-2]],[[1553,1924],[-9,18],[34,66],[48,167]],[[1626,2175],[26,87]],[[1652,2262],[37,8],[51,-15],[63,52],[49,0],[35,65],[77,29]],[[3042,2887],[77,-55],[48,-21],[18,-74],[32,-21],[-1,-38],[-74,-6],[-27,-80],[16,-22],[-27,-60],[-34,20],[-156,47]],[[2914,2577],[-94,116],[-26,3],[-86,52],[-78,15],[-65,54],[-56,12],[-24,64],[-60,35],[-47,-20],[-38,2],[-56,-30],[-47,46],[13,36]],[[2250,2962],[42,39],[56,-21],[36,2],[24,32],[69,8],[69,-39],[61,0],[77,-43],[117,-13],[28,-24],[45,16],[110,-10],[58,-22]],[[3723,2281],[19,-156],[31,-55]],[[3421,2122],[3,21],[-24,95],[14,196],[51,51],[5,35]],[[3160,2924],[-51,5],[-67,-42]],[[2250,2962],[-85,36],[-130,118],[-14,6]],[[2021,3122],[-56,25],[-65,41],[0,20]],[[1900,3208],[0,43],[73,33],[125,26],[110,-30],[21,56],[48,7],[22,-16],[68,122],[-29,31],[16,47],[228,-116],[49,-57],[58,-37],[77,-36],[61,-54],[41,-21]],[[2854,2378],[60,199]],[[2128,2544],[-46,50],[-40,24],[-56,64],[41,90],[-31,130]],[[1996,2902],[56,27],[33,44],[-58,79],[-6,70]],[[1626,2175],[-68,-36],[-91,-130],[-90,104],[-54,34],[-39,-39],[-42,7],[-26,-26],[-90,53],[-67,25],[-49,-17],[2,-89],[-12,-76],[-47,-88]],[[953,1897],[-54,27]],[[899,1924],[-10,66],[-56,98],[-47,38],[-58,114],[5,34],[-63,74],[-38,4]],[[632,2352],[-27,81],[-27,13],[-49,67],[45,37],[39,7],[13,49],[-54,58],[4,41],[50,66],[16,75],[-5,42]],[[637,2888],[36,-25],[40,5],[24,-35],[5,-56],[53,-4],[12,-37],[75,0]],[[882,2736],[6,-34],[-13,-97],[12,-57],[56,-44],[9,-28],[-22,-56],[45,-54],[-37,-37],[75,-77],[19,-34],[76,-56],[40,6],[39,50],[78,16],[49,-4],[82,69],[96,40],[23,28],[67,-20],[51,-80],[19,-5]],[[877,3811],[16,-43],[-24,-107],[76,-13],[17,-19],[46,19],[21,-23],[-50,-89],[-61,-70],[11,-60],[-55,-45]],[[874,3361],[-142,-11],[-22,54],[-54,13],[-107,88],[-54,16],[-12,30],[-50,49],[-36,-1],[-48,-29],[-52,51],[-47,-1],[102,95],[68,8],[72,29],[23,-24],[156,29],[43,66],[29,6],[88,-39],[46,21]],[[1457,1640],[-504,257]],[[1555,3496],[-58,-168],[-69,-21],[-34,-56],[-208,-12],[-90,-18],[-80,-7],[-25,12]],[[991,3226],[-33,55],[12,27],[-62,14],[-34,39]],[[877,3811],[23,57],[79,-31],[30,4],[41,57],[27,13],[42,-37],[27,-59],[41,-20],[53,-49],[33,-14],[65,-110],[55,-62],[112,-28],[50,-36]],[[882,2736],[49,32],[25,52],[43,-21],[49,-4],[-1,-35],[73,-62],[29,-66],[-27,-42],[48,-32],[3,-34],[42,-42],[34,-4],[84,-33],[41,30],[64,9],[36,100],[44,7],[2,54],[34,8],[0,45],[31,29],[-7,42],[24,56],[81,-10],[8,-33],[102,31],[42,1],[47,20],[16,37],[98,31]],[[899,1924],[-522,266],[-56,27],[84,19],[26,50],[-17,39],[-46,55],[-85,-15],[-54,9],[-26,-31],[-66,-46],[-57,1],[-27,-68],[-34,17],[29,33],[0,38],[-48,23],[7,40],[90,3],[56,15],[79,1],[21,38],[-25,54],[6,53],[88,-45],[71,-89],[49,17],[101,-91],[63,-13],[26,28]],[[1555,3496],[22,-20],[63,-17],[20,-27],[72,-50],[84,-108],[66,-63],[18,-3]],[[637,2888],[83,77],[73,86],[112,45],[59,-47],[26,25],[15,69],[1,68],[-15,15]],[[3845,1476],[-23,-36],[3,-32],[-44,-89],[-13,-154],[-41,-51],[11,-47],[6,-124],[14,-29]],[[3758,914],[-66,16],[-44,35],[-259,70],[-33,-26],[-3,-47],[-45,-55]],[[3308,907],[-39,58],[11,49],[-25,74],[-16,16],[6,75],[-23,42]],[[3222,1221],[8,22]],[[3230,1243],[38,74],[22,20],[81,25],[92,82],[5,-67],[20,-31],[18,-107],[-5,-48],[62,29],[-5,26],[42,60],[68,45],[75,84],[38,29],[37,56]],[[3962,1436],[41,-52],[37,-4]],[[4040,1380],[12,-52],[-41,-66],[5,-87],[-29,-56],[-82,-87],[-18,-61],[-88,-173]],[[3799,798],[-43,52],[17,27],[-15,37]],[[3021,844],[-207,104]],[[2814,948],[147,50]],[[2961,998],[40,-9],[43,-37],[-23,-108]],[[3230,1243],[-23,55],[10,75],[-66,77],[-54,-63],[-91,91],[-77,62],[17,40]],[[3308,907],[-15,-87],[-50,-66],[5,-26]],[[3248,728],[-227,116]],[[2961,998],[13,67]],[[2974,1065],[54,43],[-11,22],[60,27],[30,-1],[43,42],[72,23]],[[2741,1610],[-23,-58],[-3,-60],[-27,-76],[-98,-108],[92,-46],[87,-8],[65,-36],[77,-59],[22,-43],[34,-18],[7,-33]],[[2814,948],[-568,289],[3,8]],[[3799,798],[-14,-78],[-33,5],[-21,-109],[-67,-101]],[[3664,515],[-416,213]],[[4472,738],[21,-55],[35,-132],[-9,-55],[21,-40],[46,-176]],[[4586,280],[-17,10],[-73,-66],[-38,41],[4,38],[-24,60],[-81,-17],[-35,109],[-50,46]],[[4272,501],[100,77],[33,17],[59,98],[8,45]],[[4586,280],[93,-280],[-410,207],[-214,110]],[[4055,317],[29,24],[27,78]],[[4111,419],[28,20],[133,62]],[[4111,419],[-23,49],[0,52],[-20,20],[11,43],[-12,48],[12,44],[-15,19],[14,47],[-58,37],[-33,60],[22,39],[47,-34],[42,-10],[66,98],[23,76],[-8,41],[43,23],[26,74],[0,32]],[[4248,1177],[31,-18],[6,-73],[50,-14],[51,6],[55,-235],[31,-105]],[[4040,1380],[24,-5],[81,-72],[6,-68],[52,-16],[45,-42]],[[4055,317],[-391,198]]],"transform":{"scale":[0.00014629173123396514,0.0001621972092260159],"translate":[34.046426445606805,-1.388859648665862]},"objects":{"wards.044.final":{"type":"GeometryCollection","geometries":[{"arcs":[[0,1,2]],"type":"Polygon","properties":{"code":"1261","name":"Central Kamagambo","constituency_code":"253","county_code":"044"}},{"arcs":[[3,4,-3,5,6,7]],"type":"Polygon","properties":{"code":"1262","name":"East Kamagambo","constituency_code":"253","county_code":"044"}},{"arcs":[[8,-4]],"type":"Polygon","properties":{"code":"1263","name":"North Kamagambo","constituency_code":"253","county_code":"044"}},{"arcs":[[9,10,-6,-2,11]],"type":"Polygon","properties":{"code":"1264","name":"South Kamagambo","constituency_code":"253","county_code":"044"}},{"arcs":[[12,13,14,15,16]],"type":"Polygon","properties":{"code":"1265","name":"Central Sakwa","constituency_code":"254","county_code":"044"}},{"arcs":[[-7,-11,17,-17,18,19]],"type":"Polygon","properties":{"code":"1266","name":"North Sakwa","constituency_code":"254","county_code":"044"}},{"arcs":[[20,21,22,-13,-18,-10]],"type":"Polygon","properties":{"code":"1267","name":"South Sakwa","constituency_code":"254","county_code":"044"}},{"arcs":[[23,-19,-16,24]],"type":"Polygon","properties":{"code":"1268","name":"West Sakwa","constituency_code":"254","county_code":"044"}},{"arcs":[[25,26,27,28,29]],"type":"Polygon","properties":{"code":"1269","name":"God Jope","constituency_code":"255","county_code":"044"}},{"arcs":[[-29,30,31,32,33,34,35,36]],"type":"Polygon","properties":{"code":"1270","name":"Kakrao","constituency_code":"255","county_code":"044"}},{"arcs":[[37,38,39,40,41,-27,42]],"type":"Polygon","properties":{"code":"1271","name":"Kwa","constituency_code":"255","county_code":"044"}},{"arcs":[[-28,-42,43,44,-31]],"type":"Polygon","properties":{"code":"1272","name":"Suna Central","constituency_code":"255","county_code":"044"}},{"arcs":[[-32,-45,45,46,47,48]],"type":"Polygon","properties":{"code":"1273","name":"Ragana-Oruba","constituency_code":"256","county_code":"044"}},{"arcs":[[-33,-49,49,50,51]],"type":"Polygon","properties":{"code":"1274","name":"Waseweta Ii","constituency_code":"256","county_code":"044"}},{"arcs":[[-51,52,53,54,55]],"type":"Polygon","properties":{"code":"1275","name":"Wasimbete","constituency_code":"256","county_code":"044"}},{"arcs":[[-34,-52,-56,56,57,58]],"type":"Polygon","properties":{"code":"1276","name":"Wiga","constituency_code":"256","county_code":"044"}},{"arcs":[[59,60,61]],"type":"Polygon","properties":{"code":"1277","name":"Central Kanyamkago","constituency_code":"257","county_code":"044"}},{"arcs":[[62,-43,-26,63,-22]],"type":"Polygon","properties":{"code":"1278","name":"East Kanyamkago","constituency_code":"257","county_code":"044"}},{"arcs":[[-25,-15,64,-62,65,66,67]],"type":"Polygon","properties":{"code":"1279","name":"North  Kanyamkago","constituency_code":"257","county_code":"044"}},{"arcs":[[-14,-23,-64,-30,-37,68,-60,-65]],"type":"Polygon","properties":{"code":"1280","name":"South Kanyamkago","constituency_code":"257","county_code":"044"}},{"arcs":[[-36,69,70,-66,-61,-69]],"type":"Polygon","properties":{"code":"1281","name":"West Kanyamkago","constituency_code":"257","county_code":"044"}},{"arcs":[[-58,71,72,73,74,75,76]],"type":"Polygon","properties":{"code":"1282","name":"Got Kachola","constituency_code":"258","county_code":"044"}},{"arcs":[[77,78]],"type":"Polygon","properties":{"code":"1283","name":"Kachieng'","constituency_code":"258","county_code":"044"}},{"arcs":[[-55,79,-72,-57]],"type":"Polygon","properties":{"code":"1284","name":"Kaler","constituency_code":"258","county_code":"044"}},{"arcs":[[80,81,-78,82]],"type":"Polygon","properties":{"code":"1285","name":"Kanyasa","constituency_code":"258","county_code":"044"}},{"arcs":[[-35,-59,-77,83,-70]],"type":"Polygon","properties":{"code":"1286","name":"Macalder/kanyarwanda","constituency_code":"258","county_code":"044"}},{"arcs":[[-74,84]],"type":"Polygon","properties":{"code":"1287","name":"Muhuru","constituency_code":"258","county_code":"044"}},{"arcs":[[85,-67,-71,-84,-76,86,-81]],"type":"Polygon","properties":{"code":"1288","name":"North Kadem","constituency_code":"258","county_code":"044"}},{"arcs":[[-40,87,88,89,90,91]],"type":"Polygon","properties":{"code":"1289","name":"Bukira Central/ikerege","constituency_code":"259","county_code":"044"}},{"arcs":[[92,93,94,-88,-39]],"type":"Polygon","properties":{"code":"1290","name":"Bukira East","constituency_code":"259","county_code":"044"}},{"arcs":[[95,96,97]],"type":"Polygon","properties":{"code":"1291","name":"Isibania","constituency_code":"259","county_code":"044"}},{"arcs":[[-41,-92,98,-46,-44]],"type":"Polygon","properties":{"code":"1292","name":"Masaba","constituency_code":"259","county_code":"044"}},{"arcs":[[-90,99,100,-98,101,102]],"type":"Polygon","properties":{"code":"1293","name":"Mokerero","constituency_code":"259","county_code":"044"}},{"arcs":[[-48,103,-102,-97,104,-53,-50]],"type":"Polygon","properties":{"code":"1294","name":"Nyamosense/komosoko","constituency_code":"259","county_code":"044"}},{"arcs":[[-47,-99,-91,-103,-104]],"type":"Polygon","properties":{"code":"1295","name":"Tagare","constituency_code":"259","county_code":"044"}},{"arcs":[[-89,-95,105,106,-100]],"type":"Polygon","properties":{"code":"1296","name":"Gokeharaka/getambwega","constituency_code":"260","county_code":"044"}},{"arcs":[[107,108,109]],"type":"Polygon","properties":{"code":"1297","name":"Ntimaru East","constituency_code":"260","county_code":"044"}},{"arcs":[[110,111,112,-109]],"type":"Polygon","properties":{"code":"1298","name":"Ntimaru West","constituency_code":"260","county_code":"044"}},{"arcs":[[-110,-113,113,114]],"type":"Polygon","properties":{"code":"1299","name":"Nyabasi East","constituency_code":"260","county_code":"044"}},{"arcs":[[115,-114,-112,116,-106,-94]],"type":"Polygon","properties":{"code":"1300","name":"Nyabasi West","constituency_code":"260","county_code":"044"}}]}}}