{"type":"Topology","arcs":[[[899,2083],[42,-46],[53,-99]],[[994,1938],[27,-38],[-78,-77],[1,-46]],[[944,1777],[-38,15],[-91,68],[-40,42],[-21,51],[-132,40],[-48,60]],[[574,2053],[-21,40]],[[553,2093],[40,6],[74,-16],[78,3],[68,107]],[[813,2193],[86,-110]],[[353,2427],[164,14],[40,49]],[[557,2490],[164,-182],[19,-15]],[[740,2293],[45,-64]],[[785,2229],[28,-36]],[[553,2093],[-75,16],[11,39],[-48,99],[-24,29],[-3,57],[-61,94]],[[944,1777],[-2,-20]],[[942,1757],[-54,-38],[-80,-3],[-88,-43]],[[720,1673],[-85,-34],[-68,31]],[[567,1670],[-5,118],[-64,124],[-12,40],[-42,46],[130,55]],[[567,1670],[-47,27]],[[520,1697],[-49,11],[-129,-3],[-74,14],[-49,47]],[[219,1766],[-45,236],[8,44],[44,196],[122,183],[5,2]],[[105,1399],[70,-41],[49,22],[37,-3],[83,19],[75,-41],[37,-4],[27,-30],[-30,-43],[64,-46]],[[517,1232],[36,-60]],[[553,1172],[-139,14],[-95,-58],[-35,-32],[-35,-86],[-102,-42],[-25,-103]],[[122,865],[-53,-3]],[[69,862],[19,331],[17,206]],[[553,1172],[64,-80],[-16,-28]],[[601,1064],[-3,-26],[-71,-40],[-67,-86]],[[460,912],[-70,-40],[-21,-59],[-50,-10]],[[319,803],[-67,-12],[-69,30],[-21,37],[-40,7]],[[714,56],[-261,-56],[-32,10]],[[421,10],[37,25],[11,32],[46,27],[-21,61],[-43,24],[-89,119],[-4,65],[-20,88],[-31,20],[-12,43],[-50,40]],[[245,554],[72,64],[10,50],[44,19],[-52,116]],[[460,912],[30,-21],[31,-59],[-22,-135],[11,-62],[-10,-55],[5,-83]],[[505,497],[10,-100],[51,-83],[26,-16],[20,-70],[48,-45],[54,-127]],[[421,10],[-46,-8],[-56,31],[-52,13]],[[267,46],[16,92],[-65,57],[-6,47],[-30,18],[5,37],[76,70],[-20,54],[2,133]],[[267,46],[-49,-14],[-57,24],[-35,-10],[-1,108],[-72,308],[-4,63],[-21,26],[2,51],[19,60],[-49,93],[44,93],[25,14]],[[105,1399],[17,119],[14,97],[83,151]],[[520,1697],[-34,-54],[-7,-82],[-31,-69],[21,-65],[34,-56],[-1,-87]],[[502,1284],[15,-52]],[[1295,193],[-305,-73]],[[990,120],[-50,93],[-69,40],[51,20],[46,-45],[18,22],[3,61],[-43,-10],[-31,33],[-61,-4],[-34,50],[-18,75],[-31,41]],[[771,496],[43,65],[15,141],[21,13],[49,75]],[[899,790],[74,-44]],[[973,746],[18,-42],[-30,-51],[-5,-87],[37,9],[40,-49],[53,-99],[69,-102],[51,-12],[49,-53],[40,-67]],[[1359,208],[-64,-15]],[[973,746],[29,24],[50,1]],[[1052,771],[-1,-19],[76,-40]],[[1127,712],[47,-60]],[[1174,652],[5,-50],[83,-73],[29,-43],[24,-107],[-28,-37],[66,-100],[6,-34]],[[1535,250],[-176,-42]],[[1174,652],[56,-25],[50,-49],[62,-14],[53,6],[42,-76],[11,-54],[5,-126],[16,-33],[66,-31]],[[505,497],[29,13],[101,-13],[75,16],[61,-17]],[[990,120],[-54,-13],[-222,-51]],[[1571,1144],[101,-70],[21,-28]],[[1693,1046],[98,-94],[42,-63]],[[1833,889],[-54,20],[-11,-115],[50,-12],[-11,-42],[-43,-30],[-105,19],[-70,-58]],[[1589,671],[-93,50]],[[1496,721],[26,16],[-17,62],[-32,47],[-9,54],[-52,67]],[[1412,967],[51,73],[-13,25],[2,82],[119,-3]],[[1802,313],[-168,-40],[-99,-23]],[[1127,712],[19,19],[49,-43],[116,-21],[40,24],[46,-18],[-10,162]],[[1387,835],[109,-114]],[[1589,671],[89,-98],[29,-94],[58,-43],[8,-62],[29,-61]],[[1412,967],[-64,26],[-57,55],[-30,-6],[-100,41],[-95,70]],[[1066,1153],[63,28],[32,-29],[35,2],[83,43],[55,72],[-79,47],[-56,16],[-88,-21],[-46,31],[30,39]],[[1095,1381],[60,7],[-5,33],[28,40]],[[1178,1461],[93,-54],[109,-91]],[[1380,1316],[193,-164],[-2,-8]],[[942,1757],[14,-74],[26,-16],[74,-90]],[[1056,1577],[122,-116]],[[1095,1381],[-39,1],[-37,38],[-45,-2],[-25,56],[-48,-28],[-57,0],[-37,-33]],[[807,1413],[-66,75],[38,94],[-47,11],[-12,80]],[[1387,835],[-40,-28],[-99,1],[-4,32],[-34,45],[-106,51],[-24,58],[-14,74],[-60,48],[-10,40]],[[996,1156],[46,-16],[24,13]],[[1052,771],[-30,77],[-40,41],[-4,29],[-65,36],[-38,59],[-11,86],[7,34]],[[871,1133],[125,23]],[[2143,393],[-341,-80]],[[1833,889],[58,-87],[68,-60],[23,-80],[21,-19],[42,-86],[1,-27],[97,-137]],[[871,1133],[-11,14],[4,83],[-24,77]],[[840,1307],[-4,64],[-29,42]],[[502,1284],[43,33],[86,6],[149,-16],[60,0]],[[899,790],[21,53],[-112,67],[-36,119],[-25,24],[-66,13],[-80,-2]],[[2394,454],[-251,-61]],[[1693,1046],[52,47],[50,2]],[[1795,1095],[34,-63],[33,0],[56,-91],[26,-1],[67,-41],[-8,-36],[111,-68]],[[2114,795],[-23,-9],[97,-132],[77,-55],[5,-34],[57,-34],[67,-77]],[[2409,1192],[-37,-12],[-22,-50],[-60,-12],[-11,-50],[12,-54]],[[2291,1014],[-48,-1],[-98,60],[-39,3],[-71,32],[-23,-6],[-67,66],[-74,41]],[[1871,1209],[2,9]],[[1873,1218],[6,47],[82,3],[12,47],[40,-10],[32,29],[87,27],[17,49]],[[2149,1410],[63,-37],[71,-12],[42,-39],[50,-75],[34,-55]],[[1795,1095],[77,87],[-1,27]],[[2291,1014],[4,-97]],[[2295,917],[-45,-41],[-102,-26],[-34,-55]],[[2295,917],[42,-4],[44,34],[26,-23],[17,-54],[74,-19],[-53,-53],[-23,-53],[47,-28],[39,19],[3,46],[61,9],[4,-44],[26,-56],[-54,-11],[-2,-34],[27,-40],[48,14],[45,-30],[19,-67]],[[2685,523],[-34,-9],[-257,-60]],[[2409,1192],[98,-156],[304,-483],[0,-4],[-126,-26]],[[1873,1218],[-87,80],[-189,106],[3,42]],[[1600,1446],[129,-11],[81,25],[-10,113]],[[1800,1573],[98,-47],[52,-12],[46,-10],[62,-61],[49,-32],[42,-1]],[[1280,1911],[48,-45],[57,18],[76,-37],[23,-30],[3,-47],[36,1],[46,-25],[62,-57]],[[1631,1689],[-22,-46],[-77,-56],[-24,36],[-59,5],[-28,-75]],[[1421,1553],[-27,-19]],[[1394,1534],[-73,28],[-38,29],[-40,57],[-66,24]],[[1177,1672],[-22,19],[45,98],[-32,61],[-12,86]],[[1156,1936],[15,24],[109,-49]],[[1380,1316],[36,69],[-2,40],[-26,40],[6,69]],[[1421,1553],[64,-25],[115,-82]],[[1631,1689],[104,-66],[65,-50]],[[1056,1577],[110,68],[11,27]],[[994,1938],[79,7],[35,23],[48,-32]],[[1481,2990],[182,52],[88,63],[52,-25],[2,-88]],[[1805,2992],[-15,-41],[-57,-43],[-19,-59],[-62,-66],[-74,-36],[-36,5],[-90,-70]],[[1452,2682],[-33,73],[25,34],[19,108],[22,47],[-4,46]],[[951,2716],[90,63],[31,28],[123,61]],[[1195,2868],[21,-17],[7,-78],[27,-78],[47,21],[3,-66],[66,-56],[59,-74],[-46,-65],[-57,-48]],[[1322,2407],[-39,37],[-31,-42],[-52,48]],[[1200,2450],[-30,45],[-77,11],[-47,-23]],[[1046,2483],[-21,104],[-30,40],[2,37],[-46,52]],[[1805,2992],[21,-104],[37,-98],[6,-74],[-39,-97],[61,-78],[8,-39],[52,-58],[-16,-61],[-6,-15],[-101,43],[-73,-7],[-66,80],[-65,-22]],[[1624,2462],[-58,76],[-30,20],[-24,49],[-73,-51],[20,80],[-7,46]],[[1624,2462],[-73,-37],[-11,-62],[-83,-72],[-12,-35]],[[1445,2256],[-86,89]],[[1359,2345],[-56,43],[19,19]],[[1195,2868],[9,3],[79,40],[112,53],[86,26]],[[740,2293],[51,42],[27,62],[-4,41],[59,20],[80,5],[26,56],[41,-40],[26,4]],[[1200,2450],[-110,-81],[-3,-24],[-50,-19],[-120,19],[-55,-12],[-77,-104]],[[557,2490],[90,125],[47,30],[9,85],[87,-7],[51,28],[110,-35]],[[899,2083],[4,89],[96,-20],[32,18],[38,-31]],[[1069,2139],[54,-5],[63,-64],[52,-4],[30,-42]],[[1268,2024],[-22,-64],[34,-49]],[[1359,2345],[-45,-50],[-46,12],[-13,-47],[-46,-22],[-79,22],[21,-41],[-42,-23],[-40,-57]],[[1445,2256],[-9,-18],[-63,-120],[15,-102],[-74,16],[-46,-8]]],"transform":{"scale":[0.0001431253852379779,0.00015163390276938258],"translate":[34.61124986273456,-0.9740483904043841]},"objects":{"wards.045.final":{"type":"GeometryCollection","geometries":[{"arcs":[[0,1,2,3,4,5]],"type":"Polygon","properties":{"code":"1301","name":"Bogiakumu","constituency_code":"261","county_code":"045"}},{"arcs":[[6,7,8,9,-5,10]],"type":"Polygon","properties":{"code":"1302","name":"Bomariba","constituency_code":"261","county_code":"045"}},{"arcs":[[-3,11,12,13,14]],"type":"Polygon","properties":{"code":"1303","name":"Bomorenda","constituency_code":"261","county_code":"045"}},{"arcs":[[-11,-4,-15,15,16,17]],"type":"Polygon","properties":{"code":"1304","name":"Riana","constituency_code":"261","county_code":"045"}},{"arcs":[[18,19,20,21,22]],"type":"Polygon","properties":{"code":"1305","name":"Bogetenga","constituency_code":"262","county_code":"045"}},{"arcs":[[-21,23,24,25,26]],"type":"Polygon","properties":{"code":"1306","name":"Boikanga","constituency_code":"262","county_code":"045"}},{"arcs":[[27,28,29,-26,30,31]],"type":"Polygon","properties":{"code":"1307","name":"Borabu Chitago","constituency_code":"262","county_code":"045"}},{"arcs":[[32,33,-29]],"type":"Polygon","properties":{"code":"1308","name":"Getenga","constituency_code":"262","county_code":"045"}},{"arcs":[[34,-22,-27,-30,-34]],"type":"Polygon","properties":{"code":"1309","name":"Moticho","constituency_code":"262","county_code":"045"}},{"arcs":[[35,-17,36,37,-19]],"type":"Polygon","properties":{"code":"1310","name":"Tabaka","constituency_code":"262","county_code":"045"}},{"arcs":[[38,39,40,41,42]],"type":"Polygon","properties":{"code":"1311","name":"Bokimonge","constituency_code":"263","county_code":"045"}},{"arcs":[[43,-43,44,45,46,47]],"type":"Polygon","properties":{"code":"1312","name":"Bombaba Borabu","constituency_code":"263","county_code":"045"}},{"arcs":[[48,-48,49]],"type":"Polygon","properties":{"code":"1313","name":"Boochi Borabu","constituency_code":"263","county_code":"045"}},{"arcs":[[-32,50,-40,51]],"type":"Polygon","properties":{"code":"1314","name":"Magenche","constituency_code":"263","county_code":"045"}},{"arcs":[[52,53,54,55,56,57]],"type":"Polygon","properties":{"code":"1315","name":"Basi Central","constituency_code":"264","county_code":"045"}},{"arcs":[[58,-50,-47,59,60,-56,61]],"type":"Polygon","properties":{"code":"1316","name":"Bassi Bogetaorio","constituency_code":"264","county_code":"045"}},{"arcs":[[-58,62,63,64,65,66]],"type":"Polygon","properties":{"code":"1317","name":"Bobasi Boitangare","constituency_code":"264","county_code":"045"}},{"arcs":[[-13,67,68,-65,69,70]],"type":"Polygon","properties":{"code":"1318","name":"Bobasi Chache","constituency_code":"264","county_code":"045"}},{"arcs":[[-57,-61,71,72,-63]],"type":"Polygon","properties":{"code":"1319","name":"Masige East","constituency_code":"264","county_code":"045"}},{"arcs":[[-46,73,74,-72,-60]],"type":"Polygon","properties":{"code":"1320","name":"Masige West","constituency_code":"264","county_code":"045"}},{"arcs":[[75,-62,-55,76]],"type":"Polygon","properties":{"code":"1321","name":"Nyacheki","constituency_code":"264","county_code":"045"}},{"arcs":[[-64,-73,-75,77,78,-70]],"type":"Polygon","properties":{"code":"1322","name":"Sameta Mokwerero","constituency_code":"264","county_code":"045"}},{"arcs":[[-20,-38,79,-78,-74,-45,-42,80,-24]],"type":"Polygon","properties":{"code":"1323","name":"Boochi Tendere","constituency_code":"265","county_code":"045"}},{"arcs":[[-25,-81,-41,-51,-31]],"type":"Polygon","properties":{"code":"1324","name":"Bosoti Sengera","constituency_code":"265","county_code":"045"}},{"arcs":[[-14,-71,-79,-80,-37,-16]],"type":"Polygon","properties":{"code":"1325","name":"Majoge Basi","constituency_code":"265","county_code":"045"}},{"arcs":[[81,-77,-54,82,83,84]],"type":"Polygon","properties":{"code":"1326","name":"Gesusu","constituency_code":"266","county_code":"045"}},{"arcs":[[85,86,87,88,89]],"type":"Polygon","properties":{"code":"1327","name":"Ichuni","constituency_code":"266","county_code":"045"}},{"arcs":[[-84,90,-87,91,92]],"type":"Polygon","properties":{"code":"1328","name":"Kiamokama","constituency_code":"266","county_code":"045"}},{"arcs":[[-85,-93,93,94]],"type":"Polygon","properties":{"code":"1329","name":"Masimba","constituency_code":"266","county_code":"045"}},{"arcs":[[-94,-92,-86,95]],"type":"Polygon","properties":{"code":"1330","name":"Nyamasibi","constituency_code":"266","county_code":"045"}},{"arcs":[[-89,96,97,98]],"type":"Polygon","properties":{"code":"1331","name":"Birongo","constituency_code":"267","county_code":"045"}},{"arcs":[[99,100,101,102,103,104]],"type":"Polygon","properties":{"code":"1332","name":"Bobaracho","constituency_code":"267","county_code":"045"}},{"arcs":[[-53,-67,105,-102,106,-97,-88,-91,-83]],"type":"Polygon","properties":{"code":"1333","name":"Ibeno","constituency_code":"267","county_code":"045"}},{"arcs":[[-98,-107,-101,107]],"type":"Polygon","properties":{"code":"1334","name":"Keumbu","constituency_code":"267","county_code":"045"}},{"arcs":[[-66,-69,108,-103,-106]],"type":"Polygon","properties":{"code":"1335","name":"Kiogoro","constituency_code":"267","county_code":"045"}},{"arcs":[[-2,109,-104,-109,-68,-12]],"type":"Polygon","properties":{"code":"1336","name":"Kisii Central","constituency_code":"267","county_code":"045"}},{"arcs":[[110,111,112]],"type":"Polygon","properties":{"code":"1337","name":"Kegogi","constituency_code":"268","county_code":"045"}},{"arcs":[[113,114,115,116,117]],"type":"Polygon","properties":{"code":"1338","name":"Marani","constituency_code":"268","county_code":"045"}},{"arcs":[[-112,118,119]],"type":"Polygon","properties":{"code":"1339","name":"Monyerero","constituency_code":"268","county_code":"045"}},{"arcs":[[-113,-120,120,121,122,-115,123]],"type":"Polygon","properties":{"code":"1340","name":"Sensi","constituency_code":"268","county_code":"045"}},{"arcs":[[-9,124,-117,125]],"type":"Polygon","properties":{"code":"1341","name":"Bogeka","constituency_code":"269","county_code":"045"}},{"arcs":[[-118,-125,-8,126]],"type":"Polygon","properties":{"code":"1342","name":"Bogusero","constituency_code":"269","county_code":"045"}},{"arcs":[[-1,127,128,129,-105,-110]],"type":"Polygon","properties":{"code":"1343","name":"Kisii Central","constituency_code":"269","county_code":"045"}},{"arcs":[[-6,-10,-126,-116,-123,130,-128]],"type":"Polygon","properties":{"code":"1344","name":"Nyakoe","constituency_code":"269","county_code":"045"}},{"arcs":[[-122,131,-129,-131]],"type":"Polygon","properties":{"code":"1345","name":"Nyatieko","constituency_code":"269","county_code":"045"}}]}}}