{"type":"Topology","arcs":[[[1310,864],[-44,-96],[32,-14],[-202,-117]],[[1096,637],[-48,70],[-42,36],[-69,11],[-60,34],[-42,1],[-47,29],[-60,56],[-45,9]],[[683,883],[24,73],[66,91],[29,53],[57,-61],[53,-12],[22,23],[-4,46],[-42,43],[19,20]],[[907,1159],[97,-83],[123,-88],[78,-89],[105,-35]],[[683,883],[-51,11],[-94,44],[-64,46],[-100,60],[-60,52]],[[314,1096],[58,30],[100,-14],[30,68],[2,32],[-36,67],[6,56]],[[474,1335],[74,-2],[13,-43],[36,-36],[39,-7],[34,29],[42,-41],[35,37],[76,-71],[33,-6]],[[856,1195],[51,-36]],[[184,1549],[56,-33],[82,-71],[43,-26],[72,-21],[69,6]],[[506,1404],[-32,-69]],[[314,1096],[-45,24],[-35,-1],[-3,43],[-22,28],[-74,34],[-56,-17],[-46,42],[-33,44],[21,59],[45,8],[71,-15],[-14,93],[61,111]],[[506,1404],[35,-23],[97,-36],[35,6],[54,-19],[25,19],[-7,51],[-52,3],[22,51],[-74,15],[-15,36],[21,51],[-13,38],[36,82]],[[670,1678],[82,-42],[17,-32],[-4,-77],[45,-58],[42,-20],[117,-82],[71,-36]],[[1040,1331],[-43,-85],[-70,-46],[-71,-5]],[[184,1549],[9,16],[12,32],[81,68],[10,56],[71,34],[63,20],[64,-73],[71,6],[98,-40],[6,14]],[[669,1682],[1,-4]],[[1040,1331],[39,20],[31,-25],[91,-18],[30,-24],[79,11],[82,0],[127,-17],[33,12]],[[1552,1290],[14,-38],[-27,-55],[-14,-85]],[[1525,1112],[-48,-23],[-70,-95],[-73,-67],[-24,-63]],[[951,2540],[51,-29]],[[1002,2511],[-3,-60],[-38,-171],[-17,-113],[15,-63]],[[959,2104],[-69,-8],[17,-64],[-29,-31]],[[878,2001],[-6,34],[-51,44],[-21,38],[-56,4],[-60,99],[-45,2],[-98,101]],[[541,2323],[-51,23],[128,83],[180,42],[153,69]],[[878,2001],[38,-82],[-7,-53]],[[909,1866],[-5,-38],[39,-106],[53,-89],[60,-64],[72,-20],[33,-54],[104,18],[78,-43],[117,9]],[[1460,1479],[48,-59],[49,-39]],[[1557,1381],[-49,-37],[-100,39],[-80,49],[-139,-3],[-66,47],[-87,14],[-56,104],[-99,96],[-36,48],[8,49],[-71,60],[-147,2],[-9,-21]],[[626,1828],[-59,72],[38,88],[-6,69],[-36,90],[-21,96],[-1,80]],[[669,1682],[15,56],[-50,54],[-8,36]],[[1557,1381],[8,-51],[-13,-40]],[[909,1866],[83,-33],[37,-33],[50,-21],[16,52],[-27,69],[1,39]],[[1069,1939],[28,-63],[62,-103],[101,-77],[5,-39],[61,-20],[75,-46],[29,-29],[29,-74]],[[1459,1488],[1,-9]],[[959,2104],[71,-8],[9,-50]],[[1039,2046],[30,-72],[0,-35]],[[1654,2024],[-2,-252]],[[1652,1772],[-99,30],[-76,14],[-29,50],[-103,1],[-1,50],[-39,30],[-48,61]],[[1257,2008],[74,166],[51,6],[79,-37],[39,10],[48,34],[15,-26],[-13,-50],[26,-9],[38,-54],[40,-24]],[[1002,2511],[57,-39],[13,-23],[101,-9],[20,-24]],[[1193,2416],[-6,-104],[33,-30],[-53,-128]],[[1167,2154],[19,-57],[-54,-48],[-53,22],[-40,-25]],[[1673,2813],[-53,-75],[-41,-41],[-6,-71],[-129,-50],[-5,-71],[-55,-14],[-40,-60]],[[1344,2431],[-40,3],[-111,-18]],[[951,2540],[87,42],[169,128],[224,80],[135,101],[58,-22],[49,-56]],[[1787,2355],[-129,0],[-4,-105]],[[1654,2250],[-28,8],[-24,82],[-42,-13],[-14,26],[-40,0],[-32,28],[-72,20],[-58,30]],[[1673,2813],[23,-34],[-1,-45],[44,-49],[5,-47],[-27,-17],[4,-52],[-21,-112],[-42,-6],[-4,-71],[65,-21],[66,-1],[2,-3]],[[1257,2008],[-45,43],[15,28],[-60,75]],[[1654,2250],[0,-226]],[[1787,2355],[29,-39],[-27,-33],[-4,-39],[-30,-34],[27,-23],[8,-45],[-26,-20],[24,-33],[-20,-19],[7,-102],[-22,-43],[24,-82],[36,-66],[38,-40],[5,-31],[-36,-43],[-2,-30],[48,-57],[-5,-29],[-33,-23],[-21,-48],[-4,-65],[12,-43],[44,-45],[-7,-27],[48,-51],[19,-48],[-26,-25],[-41,1],[-86,-43],[-3,-42]],[[1763,1088],[-28,-18],[-108,31],[-102,11]],[[1459,1488],[56,63],[135,6],[2,215]],[[1763,1088],[70,-139]],[[1833,949],[-167,-102],[-25,-55],[-64,-46],[41,-35],[-15,-180],[13,-25],[-168,2],[-56,-38],[-42,26],[-126,-53]],[[1224,443],[-96,144],[-32,50]],[[1833,949],[218,-422],[-317,-314],[-86,47],[-73,-17],[30,-79],[-4,-81],[-43,22],[-41,-49],[2,-56],[-295,443]]],"transform":{"scale":[0.00014745110431677974,0.0001648945245009104],"translate":[34.789599040752734,-0.8901324823119768]},"objects":{"wards.046.final":{"type":"GeometryCollection","geometries":[{"arcs":[[0,1,2,3]],"type":"Polygon","properties":{"code":"1346","name":"Rigoma","constituency_code":"270","county_code":"046"}},{"arcs":[[-3,4,5,6,7]],"type":"Polygon","properties":{"code":"1347","name":"Gachuba","constituency_code":"270","county_code":"046"}},{"arcs":[[8,9,-6,10]],"type":"Polygon","properties":{"code":"1348","name":"Kemera","constituency_code":"270","county_code":"046"}},{"arcs":[[-7,-10,11,12,13]],"type":"Polygon","properties":{"code":"1349","name":"Magombo","constituency_code":"270","county_code":"046"}},{"arcs":[[-9,14,15,-12]],"type":"Polygon","properties":{"code":"1350","name":"Manga","constituency_code":"270","county_code":"046"}},{"arcs":[[-4,-8,-14,16,17,18]],"type":"Polygon","properties":{"code":"1351","name":"Gesima","constituency_code":"270","county_code":"046"}},{"arcs":[[19,20,21,22,23]],"type":"Polygon","properties":{"code":"1352","name":"Nyamaiya","constituency_code":"271","county_code":"046"}},{"arcs":[[-23,24,25,26,27,28]],"type":"Polygon","properties":{"code":"1353","name":"Bogichora","constituency_code":"271","county_code":"046"}},{"arcs":[[-13,-16,29,-28,30,-17]],"type":"Polygon","properties":{"code":"1354","name":"Bosamaro","constituency_code":"271","county_code":"046"}},{"arcs":[[-26,31,32,33]],"type":"Polygon","properties":{"code":"1355","name":"Bonyamatuta","constituency_code":"271","county_code":"046"}},{"arcs":[[-22,34,35,-32,-25]],"type":"Polygon","properties":{"code":"1356","name":"Township","constituency_code":"271","county_code":"046"}},{"arcs":[[36,37,38]],"type":"Polygon","properties":{"code":"1357","name":"Itibo","constituency_code":"272","county_code":"046"}},{"arcs":[[-21,39,40,41,-35]],"type":"Polygon","properties":{"code":"1358","name":"Bomwagamo","constituency_code":"272","county_code":"046"}},{"arcs":[[42,43,-40,-20,44]],"type":"Polygon","properties":{"code":"1359","name":"Bokeira","constituency_code":"272","county_code":"046"}},{"arcs":[[45,46,-43,47]],"type":"Polygon","properties":{"code":"1360","name":"Magwagwa","constituency_code":"272","county_code":"046"}},{"arcs":[[-39,48,-41,-44,-47,49]],"type":"Polygon","properties":{"code":"1361","name":"Ekerenyo","constituency_code":"272","county_code":"046"}},{"arcs":[[50,51,-18,-31,-27,-34,52,-37,-50,-46]],"type":"Polygon","properties":{"code":"1362","name":"Mekenene","constituency_code":"273","county_code":"046"}},{"arcs":[[-33,-36,-42,-49,-38,-53]],"type":"Polygon","properties":{"code":"1363","name":"Kiabonyoru","constituency_code":"273","county_code":"046"}},{"arcs":[[-1,-19,-52,53,54,55]],"type":"Polygon","properties":{"code":"1364","name":"Nyansiongo","constituency_code":"273","county_code":"046"}},{"arcs":[[-55,56]],"type":"Polygon","properties":{"code":"1365","name":"Esise","constituency_code":"273","county_code":"046"}}]}}}