{"type":"Topology","arcs":[[[655,1670],[103,-51]],[[758,1619],[-57,-5]],[[701,1614],[-65,-46]],[[636,1568],[-12,58],[-58,2],[-25,39]],[[541,1667],[114,3]],[[1244,2136],[3,-54],[56,-109],[8,-97],[20,-62],[-36,-103]],[[1295,1711],[-24,-33]],[[1271,1678],[-35,-34]],[[1236,1644],[-101,-19]],[[1135,1625],[49,99],[-51,61],[-67,-13],[-36,45],[-83,30]],[[947,1847],[-32,53],[-104,58],[-41,-12],[-61,19],[-61,67]],[[648,2032],[1,4],[21,47],[9,20],[100,-73],[58,-5],[45,107],[34,64],[-32,27],[32,113],[56,-2],[272,-198]],[[947,1847],[-7,-40],[-61,13],[-10,-70],[-61,18],[2,-52]],[[810,1716],[-81,-35],[-74,-11]],[[541,1667],[-81,9],[-45,-17]],[[415,1659],[-4,7]],[[411,1666],[9,68],[33,73],[-17,40],[27,1],[10,108],[130,-26],[45,102]],[[636,1568],[-15,-1]],[[621,1567],[-72,-35],[-31,14]],[[518,1546],[-11,12]],[[507,1558],[-92,101]],[[1135,1625],[-56,-53]],[[1079,1572],[0,-6]],[[1079,1566],[-4,6]],[[1075,1572],[-88,116],[-145,34],[-32,-6]],[[701,1614],[-4,-140],[-51,-82]],[[646,1392],[-12,5]],[[634,1397],[6,101]],[[640,1498],[-19,69]],[[634,1397],[-80,57]],[[554,1454],[21,42],[65,2]],[[554,1454],[-36,92]],[[1075,1572],[-90,-10],[-28,-53],[-91,-44],[-41,-51],[-45,9],[-3,47],[52,18],[-3,63],[34,100],[-102,-32]],[[1079,1566],[57,-170]],[[1136,1396],[-178,-62],[-183,-12],[-66,15]],[[709,1337],[-60,52]],[[649,1389],[-3,3]],[[125,1332],[19,89],[36,65]],[[180,1486],[44,-20],[60,26]],[[284,1492],[-4,-76],[49,-37],[29,9],[71,-82]],[[429,1306],[4,-5]],[[433,1301],[-109,50],[-8,-65],[-147,72],[-44,-26]],[[709,1337],[-99,-46]],[[610,1291],[-116,-45],[-9,60],[-52,-5]],[[429,1306],[18,42]],[[447,1348],[49,15],[47,-31],[106,57]],[[447,1348],[13,221]],[[460,1569],[47,-11]],[[460,1569],[-117,-36],[-59,-41]],[[180,1486],[54,134],[-19,44],[68,59],[96,-20],[32,-37]],[[610,1291],[40,-32],[25,-54],[72,18],[35,-17]],[[782,1206],[12,-33],[-58,-38],[9,-218],[-36,-115],[6,-51],[35,-69],[27,-181],[-18,-28]],[[759,473],[-26,32],[-122,12],[-30,29],[-84,32],[-102,105],[-40,65],[-72,74],[-66,-11],[-32,39],[-72,192],[-113,92],[15,48],[32,83],[34,-13],[44,80]],[[782,1206],[-1,28]],[[781,1234],[29,-65],[52,-8],[43,26]],[[905,1187],[43,-45],[49,21]],[[997,1163],[60,22]],[[1057,1185],[-17,-71],[-72,-18],[12,-99],[193,36]],[[1173,1033],[143,27],[61,-28],[215,-183],[73,-107],[22,15],[92,-132],[40,-3]],[[1819,622],[51,-120],[18,-85],[38,1],[101,-88],[27,-86],[11,-95],[64,-76],[30,-73],[-71,3],[-51,46],[-86,8],[-301,175],[-70,77],[-63,-15],[-63,34],[-46,51],[-52,19],[-37,49],[-2,41],[-118,-2],[-58,42],[-38,13],[-60,-60],[-85,3],[-24,21],[-64,-34],[-41,26],[-70,-24]],[[1057,1185],[-26,30]],[[1031,1215],[10,32],[88,23],[34,58]],[[1163,1328],[34,-94]],[[1197,1234],[7,-18]],[[1204,1216],[-50,-79],[19,-104]],[[966,1175],[-56,53]],[[910,1228],[25,8]],[[935,1236],[44,-25]],[[979,1211],[-3,-7],[-10,-29]],[[905,1187],[-39,13]],[[866,1200],[44,28]],[[966,1175],[31,-12]],[[866,1200],[-49,62]],[[817,1262],[84,10],[34,-36]],[[979,1211],[52,4]],[[781,1234],[36,28]],[[1136,1396],[11,-23]],[[1147,1373],[16,-45]],[[1853,2270],[-15,-24],[-26,-34]],[[1812,2212],[-2,-3]],[[1810,2209],[-87,49],[7,60]],[[1730,2318],[123,-48]],[[1870,2294],[-1,-1],[-16,-23]],[[1730,2318],[-2,8]],[[1728,2326],[0,1],[-5,8],[-43,106],[-7,17]],[[1673,2458],[112,-45],[38,-44],[18,-77],[29,2]],[[1673,2458],[-38,75],[71,121],[45,10],[112,-23],[55,-62],[85,-31],[28,-30],[-80,-113],[-20,-27],[-61,-84]],[[1244,2136],[-16,47],[66,1],[58,-26]],[[1352,2158],[85,15],[62,81],[102,12],[75,-43],[-25,-111]],[[1651,2112],[-33,-62],[-103,-103],[-15,-31]],[[1500,1916],[-23,-62]],[[1477,1854],[-71,-93],[-44,-35]],[[1362,1726],[-67,-15]],[[1352,2158],[23,99],[65,57],[12,66],[100,-84],[71,30],[105,0]],[[1810,2209],[-69,-40]],[[1741,2169],[-90,-57]],[[1812,2212],[71,-102],[69,-43]],[[1952,2067],[-51,-105],[-76,11],[-56,62],[-1,-86]],[[1768,1949],[-13,10]],[[1755,1959],[-1,126],[-13,84]],[[1755,1959],[-97,-44],[-34,11]],[[1624,1926],[-83,-31],[-41,21]],[[2498,1936],[-26,-19],[-45,-87],[-61,-11],[-100,32],[-43,-18],[-113,26]],[[2110,1859],[-82,1],[-38,32],[-119,-2]],[[1871,1890],[-52,26]],[[1819,1916],[-12,4]],[[1807,1920],[-39,29]],[[1952,2067],[6,5],[38,-2],[135,-66],[37,15],[58,-17],[110,57],[51,-17],[27,-72],[84,-34]],[[2110,1859],[-60,-40]],[[2050,1819],[-1,-70],[-57,-95],[-24,3]],[[1968,1657],[-3,2]],[[1965,1659],[-26,88],[-57,-11]],[[1882,1736],[-76,-22]],[[1806,1714],[-79,24]],[[1727,1738],[24,44]],[[1751,1782],[120,108]],[[2261,1427],[-100,345],[-111,47]],[[2498,1936],[35,-2],[46,93],[50,3],[103,134],[44,1],[61,54],[31,-24],[40,39],[127,-308],[58,37],[62,-124],[-68,-31],[-2,-39],[95,-19],[19,-42],[-1,-75],[-34,-50],[-77,-39],[-28,-57],[-52,-25],[-28,-79],[-1,-62],[-39,-8],[-295,91],[-178,-83],[-53,184],[-152,-78]],[[1624,1926],[26,-71]],[[1650,1855],[-31,-44]],[[1619,1811],[-62,1]],[[1557,1812],[-80,42]],[[1650,1855],[68,24]],[[1718,1879],[-28,-14],[-23,-83]],[[1667,1782],[-45,-35],[-33,-56]],[[1589,1691],[32,76],[-2,44]],[[1807,1920],[-61,-9],[-23,-28]],[[1723,1883],[-5,-4]],[[1516,1769],[-34,-26]],[[1482,1743],[-28,-16]],[[1454,1727],[-1,0]],[[1453,1727],[30,61],[73,24]],[[1556,1812],[-40,-43]],[[1557,1812],[-1,0]],[[1453,1727],[-33,-40]],[[1420,1687],[-58,39]],[[1583,1226],[-1,-1]],[[1582,1225],[-30,-60],[52,-18]],[[1604,1147],[57,-94]],[[1661,1053],[-31,-30]],[[1630,1023],[-49,30],[-80,-14]],[[1501,1039],[1,58],[-65,76]],[[1437,1173],[146,53]],[[1604,1147],[6,41]],[[1610,1188],[55,-98]],[[1665,1090],[-4,-37]],[[1582,1225],[28,-37]],[[1583,1226],[37,30]],[[1620,1256],[45,-112],[0,-54]],[[1197,1234],[21,33],[166,-93]],[[1384,1174],[53,-1]],[[1501,1039],[-98,-6],[-174,138],[-25,45]],[[1835,746],[-53,-54],[37,-70]],[[1630,1023],[103,-129],[102,-148]],[[1667,1782],[1,-54]],[[1668,1728],[-79,-37]],[[1727,1738],[-59,-10]],[[1723,1883],[5,-50]],[[1728,1833],[23,-51]],[[1728,1833],[91,83]],[[1589,1691],[-22,-22]],[[1567,1669],[-4,18]],[[1563,1687],[-6,125]],[[1886,1604],[-27,-59]],[[1859,1545],[-63,41]],[[1796,1586],[37,63]],[[1833,1649],[53,-45]],[[1833,1649],[52,69]],[[1885,1718],[20,-74]],[[1905,1644],[-19,-40]],[[1859,1545],[-8,-53]],[[1851,1492],[-77,45]],[[1774,1537],[22,49]],[[1965,1659],[-60,-15]],[[1885,1718],[-3,18]],[[1851,1492],[-18,-63],[-51,-28]],[[1782,1401],[-47,89]],[[1735,1490],[39,47]],[[2260,1426],[69,-239],[-143,-32],[-75,-77],[-78,-30],[-10,-49],[-54,-44],[-105,-125]],[[1864,830],[-151,274]],[[1713,1104],[77,45],[-65,142],[-22,23]],[[1703,1314],[79,87]],[[1968,1657],[92,-336],[82,57],[118,48]],[[1703,1314],[-65,-47]],[[1638,1267],[-17,82]],[[1621,1349],[-4,25]],[[1617,1374],[118,116]],[[2261,1427],[-1,-1]],[[1864,830],[21,-36],[-50,-48]],[[1620,1256],[18,11]],[[1638,1267],[75,-163]],[[1727,1738],[-64,-28],[-14,-59],[-65,-76]],[[1584,1575],[-17,94]],[[1735,1490],[-18,46]],[[1717,1536],[-20,52]],[[1697,1588],[66,92],[43,34]],[[1697,1588],[-107,-55]],[[1590,1533],[-6,42]],[[1717,1536],[-41,4],[-30,-91],[-47,22]],[[1599,1471],[-9,62]],[[1617,1374],[-18,97]],[[1286,1406],[81,-25]],[[1367,1381],[123,-34]],[[1490,1347],[-98,-22]],[[1392,1325],[-66,-11],[-58,89]],[[1268,1403],[18,3]],[[1367,1381],[1,46]],[[1368,1427],[99,60]],[[1467,1487],[16,-94],[55,13],[60,-46]],[[1598,1360],[-108,-13]],[[1384,1174],[17,60],[-9,91]],[[1598,1360],[23,-11]],[[1567,1669],[-35,-51]],[[1532,1618],[-67,-114],[-94,-15],[-7,41]],[[1364,1530],[-19,121]],[[1345,1651],[44,3]],[[1389,1654],[79,33]],[[1468,1687],[34,9]],[[1502,1696],[24,-5]],[[1526,1691],[37,-4]],[[1368,1429],[-24,1],[-19,89]],[[1325,1519],[29,8]],[[1354,1527],[14,-98]],[[1364,1530],[-10,-3]],[[1325,1519],[-19,121]],[[1306,1640],[39,11]],[[1368,1427],[0,2]],[[1532,1618],[-30,-101],[-35,-30]],[[1286,1406],[-63,60]],[[1223,1466],[40,-9],[49,62]],[[1312,1519],[13,0]],[[1147,1373],[87,58],[34,-28]],[[1079,1572],[144,-62]],[[1223,1510],[0,-44]],[[1236,1644],[20,-32],[-19,-63]],[[1237,1549],[-14,-39]],[[1271,1678],[30,-5]],[[1301,1673],[5,-33]],[[1312,1519],[-75,30]],[[1420,1687],[-33,-13]],[[1387,1674],[-86,-1]],[[1482,1743],[20,-47]],[[1468,1687],[-14,40]],[[1526,1691],[-10,78]],[[1389,1654],[-2,20]]],"transform":{"scale":[0.00013722266327170394,0.00010427627698341501],"translate":[36.664529022649845,-1.4383749642063979]},"objects":{"wards.047.final":{"type":"GeometryCollection","geometries":[{"arcs":[[0,1,2,3,4]],"type":"Polygon","properties":{"code":"1366","name":"Kangemi","constituency_code":"274","county_code":"047"}},{"arcs":[[5,6,7,8,9,10,11]],"type":"Polygon","properties":{"code":"1367","name":"Karura","constituency_code":"274","county_code":"047"}},{"arcs":[[-11,12,13,-5,14,15,16]],"type":"Polygon","properties":{"code":"1368","name":"Kitisuru","constituency_code":"274","county_code":"047"}},{"arcs":[[-4,17,18,19,20,-15]],"type":"Polygon","properties":{"code":"1369","name":"Mountain View","constituency_code":"274","county_code":"047"}},{"arcs":[[-10,21,22,23,24,-13]],"type":"Polygon","properties":{"code":"1370","name":"Parklands/highridge","constituency_code":"274","county_code":"047"}},{"arcs":[[-3,25,26,27,28,-18]],"type":"Polygon","properties":{"code":"1371","name":"Gatina","constituency_code":"275","county_code":"047"}},{"arcs":[[-28,29,30]],"type":"Polygon","properties":{"code":"1372","name":"Kabiro","constituency_code":"275","county_code":"047"}},{"arcs":[[-19,-29,-31,31]],"type":"Polygon","properties":{"code":"1373","name":"Kawangware","constituency_code":"275","county_code":"047"}},{"arcs":[[-1,-14,-25,32]],"type":"Polygon","properties":{"code":"1374","name":"Kileleshwa","constituency_code":"275","county_code":"047"}},{"arcs":[[-2,-33,-24,33,34,35,36,-26]],"type":"Polygon","properties":{"code":"1375","name":"Kilimani","constituency_code":"275","county_code":"047"}},{"arcs":[[37,38,39,40,41]],"type":"Polygon","properties":{"code":"1376","name":"Mutu-Ini","constituency_code":"276","county_code":"047"}},{"arcs":[[-36,42,43,-41,44,45]],"type":"Polygon","properties":{"code":"1377","name":"Ngando","constituency_code":"276","county_code":"047"}},{"arcs":[[-20,-32,-30,-27,-37,-46,46,47]],"type":"Polygon","properties":{"code":"1378","name":"Riruta","constituency_code":"276","county_code":"047"}},{"arcs":[[-16,-21,-48,48,-39,49]],"type":"Polygon","properties":{"code":"1379","name":"Uthiru/ruthimitu","constituency_code":"276","county_code":"047"}},{"arcs":[[-40,-49,-47,-45]],"type":"Polygon","properties":{"code":"1380","name":"Waithaka","constituency_code":"276","county_code":"047"}},{"arcs":[[-42,-44,50,51,52]],"type":"Polygon","properties":{"code":"1381","name":"Karen","constituency_code":"277","county_code":"047"}},{"arcs":[[-52,53,54,55,56,57,58,59]],"type":"Polygon","properties":{"code":"1382","name":"Mugumo-Ini","constituency_code":"277","county_code":"047"}},{"arcs":[[-58,60,61,62,63,64]],"type":"Polygon","properties":{"code":"1383","name":"Nairobi West","constituency_code":"277","county_code":"047"}},{"arcs":[[65,66,67,68]],"type":"Polygon","properties":{"code":"1384","name":"Laini Saba","constituency_code":"278","county_code":"047"}},{"arcs":[[-56,69,70,-66,71]],"type":"Polygon","properties":{"code":"1385","name":"Lindi","constituency_code":"278","county_code":"047"}},{"arcs":[[-67,-71,72,73]],"type":"Polygon","properties":{"code":"1386","name":"Makina","constituency_code":"278","county_code":"047"}},{"arcs":[[-57,-72,-69,74,-61]],"type":"Polygon","properties":{"code":"1387","name":"Nyayo Highrise","constituency_code":"278","county_code":"047"}},{"arcs":[[-55,75,-73,-70]],"type":"Polygon","properties":{"code":"1388","name":"Sarang'ombe","constituency_code":"278","county_code":"047"}},{"arcs":[[-35,76,77,-62,-75,-68,-74,-76,-54,-51,-43]],"type":"Polygon","properties":{"code":"1389","name":"Woodley/kenyatta Golf Course","constituency_code":"278","county_code":"047"}},{"arcs":[[78,79,80,81]],"type":"Polygon","properties":{"code":"1390","name":"Githurai","constituency_code":"279","county_code":"047"}},{"arcs":[[82,-82,83,84,85]],"type":"Polygon","properties":{"code":"1391","name":"Kahawa","constituency_code":"279","county_code":"047"}},{"arcs":[[-86,86]],"type":"Polygon","properties":{"code":"1392","name":"Kahawa West","constituency_code":"279","county_code":"047"}},{"arcs":[[87,88,89,90,91,92,-6]],"type":"Polygon","properties":{"code":"1393","name":"Roysambu","constituency_code":"279","county_code":"047"}},{"arcs":[[93,-84,-81,94,95,-89]],"type":"Polygon","properties":{"code":"1394","name":"Zimmerman","constituency_code":"279","county_code":"047"}},{"arcs":[[96,97,98,99,-95,-80]],"type":"Polygon","properties":{"code":"1395","name":"Clay City","constituency_code":"280","county_code":"047"}},{"arcs":[[-90,-96,-100,100,101]],"type":"Polygon","properties":{"code":"1396","name":"Kasarani","constituency_code":"280","county_code":"047"}},{"arcs":[[102,103,104,105,106,-98,107]],"type":"Polygon","properties":{"code":"1397","name":"Mwiki","constituency_code":"280","county_code":"047"}},{"arcs":[[-104,108,109,110,111,112,113,114,115]],"type":"Polygon","properties":{"code":"1398","name":"Njiru","constituency_code":"280","county_code":"047"}},{"arcs":[[116,-109,-103,117]],"type":"Polygon","properties":{"code":"1399","name":"Ruai","constituency_code":"280","county_code":"047"}},{"arcs":[[-91,-102,118,119,120,121]],"type":"Polygon","properties":{"code":"1400","name":"Babandogo","constituency_code":"281","county_code":"047"}},{"arcs":[[-120,122,123,124,125]],"type":"Polygon","properties":{"code":"1401","name":"Korogocho","constituency_code":"281","county_code":"047"}},{"arcs":[[-99,-107,126,127,-123,-119,-101]],"type":"Polygon","properties":{"code":"1402","name":"Lucky Summer","constituency_code":"281","county_code":"047"}},{"arcs":[[128,129,130,131,132]],"type":"Polygon","properties":{"code":"1403","name":"Mathare North","constituency_code":"281","county_code":"047"}},{"arcs":[[-92,-122,133,-132,134,135]],"type":"Polygon","properties":{"code":"1404","name":"Utalii","constituency_code":"281","county_code":"047"}},{"arcs":[[136,137,138,139,140,141,142]],"type":"Polygon","properties":{"code":"1405","name":"Imara Daima","constituency_code":"282","county_code":"047"}},{"arcs":[[-139,143,144,145]],"type":"Polygon","properties":{"code":"1406","name":"Kwa Njenga","constituency_code":"282","county_code":"047"}},{"arcs":[[-138,146,-144]],"type":"Polygon","properties":{"code":"1407","name":"Kwa Reuben","constituency_code":"282","county_code":"047"}},{"arcs":[[-137,147,148,-145,-147]],"type":"Polygon","properties":{"code":"1408","name":"Kware","constituency_code":"282","county_code":"047"}},{"arcs":[[-64,149,150,-142,151]],"type":"Polygon","properties":{"code":"1409","name":"Nairobi South","constituency_code":"282","county_code":"047"}},{"arcs":[[152,-59,-65,-152,-141,153]],"type":"Polygon","properties":{"code":"1410","name":"South C","constituency_code":"282","county_code":"047"}},{"arcs":[[-125,154,155]],"type":"Polygon","properties":{"code":"1411","name":"Dandora Area I","constituency_code":"283","county_code":"047"}},{"arcs":[[-115,156,-155,-124,-128,157,158]],"type":"Polygon","properties":{"code":"1412","name":"Dandora Area Ii","constituency_code":"283","county_code":"047"}},{"arcs":[[-105,-116,-159,159]],"type":"Polygon","properties":{"code":"1413","name":"Dandora Area Iii","constituency_code":"283","county_code":"047"}},{"arcs":[[-106,-160,-158,-127]],"type":"Polygon","properties":{"code":"1414","name":"Dandora Area Iv","constituency_code":"283","county_code":"047"}},{"arcs":[[-121,-126,160,161,162]],"type":"Polygon","properties":{"code":"1415","name":"Kariobangi North","constituency_code":"283","county_code":"047"}},{"arcs":[[163,164,165,166]],"type":"Polygon","properties":{"code":"1416","name":"Kayole Central","constituency_code":"284","county_code":"047"}},{"arcs":[[-167,167,168,169]],"type":"Polygon","properties":{"code":"1417","name":"Kayole North","constituency_code":"284","county_code":"047"}},{"arcs":[[-165,170,171,172]],"type":"Polygon","properties":{"code":"1418","name":"Kayole South","constituency_code":"284","county_code":"047"}},{"arcs":[[-112,173,-169,174]],"type":"Polygon","properties":{"code":"1419","name":"Matopeni/spring Valley","constituency_code":"284","county_code":"047"}},{"arcs":[[-172,175,176,177]],"type":"Polygon","properties":{"code":"1420","name":"Upper Savanna","constituency_code":"284","county_code":"047"}},{"arcs":[[178,179,180,181,-176,-171,-164,-170,-174,-111,182]],"type":"Polygon","properties":{"code":"1421","name":"Embakasi","constituency_code":"285","county_code":"047"}},{"arcs":[[-177,-182,183,184,185,186]],"type":"Polygon","properties":{"code":"1422","name":"Lower Savanna","constituency_code":"285","county_code":"047"}},{"arcs":[[187,-183,-110,-117]],"type":"Polygon","properties":{"code":"1423","name":"Mihango","constituency_code":"285","county_code":"047"}},{"arcs":[[188,-154,-140,-146,-149,189,190,-180]],"type":"Polygon","properties":{"code":"1424","name":"Pipeline","constituency_code":"285","county_code":"047"}},{"arcs":[[-181,-191,-184]],"type":"Polygon","properties":{"code":"1425","name":"Utawala","constituency_code":"285","county_code":"047"}},{"arcs":[[191,192,-161,-156,-157]],"type":"Polygon","properties":{"code":"1426","name":"Kariobangi South","constituency_code":"286","county_code":"047"}},{"arcs":[[-113,-175,-168,-166,-173,-178,193,194,195]],"type":"Polygon","properties":{"code":"1427","name":"Komarock","constituency_code":"286","county_code":"047"}},{"arcs":[[-114,-196,196,197,-192]],"type":"Polygon","properties":{"code":"1428","name":"Mowlem","constituency_code":"286","county_code":"047"}},{"arcs":[[-195,198,199,-197]],"type":"Polygon","properties":{"code":"1429","name":"Umoja I","constituency_code":"286","county_code":"047"}},{"arcs":[[-187,200,-199,-194]],"type":"Polygon","properties":{"code":"1430","name":"Umoja Ii","constituency_code":"286","county_code":"047"}},{"arcs":[[201,202,203,204,205]],"type":"Polygon","properties":{"code":"1431","name":"Makongeni","constituency_code":"287","county_code":"047"}},{"arcs":[[-203,206,207,208,209]],"type":"Polygon","properties":{"code":"1432","name":"Maringo/hamza","constituency_code":"287","county_code":"047"}},{"arcs":[[-143,-151,210,-204,-210,211,-185,-190,-148]],"type":"Polygon","properties":{"code":"1433","name":"Viwandani","constituency_code":"287","county_code":"047"}},{"arcs":[[-162,212,213,214,215,216,217,218,219]],"type":"Polygon","properties":{"code":"1434","name":"Airbase","constituency_code":"288","county_code":"047"}},{"arcs":[[220,221,222]],"type":"Polygon","properties":{"code":"1435","name":"California","constituency_code":"288","county_code":"047"}},{"arcs":[[-215,223,-222,224,225]],"type":"Polygon","properties":{"code":"1436","name":"Eastleigh North","constituency_code":"288","county_code":"047"}},{"arcs":[[-208,226,-223,-224,-214,227]],"type":"Polygon","properties":{"code":"1437","name":"Eastleigh South","constituency_code":"288","county_code":"047"}},{"arcs":[[-193,-198,-200,-201,-186,-212,-209,-228,-213]],"type":"Polygon","properties":{"code":"1438","name":"Harambee","constituency_code":"288","county_code":"047"}},{"arcs":[[-202,228,229,230,-221,-227,-207]],"type":"Polygon","properties":{"code":"1439","name":"Pumwani","constituency_code":"288","county_code":"047"}},{"arcs":[[-63,-78,231,-205,-211,-150]],"type":"Polygon","properties":{"code":"1440","name":"Landimawe","constituency_code":"289","county_code":"047"}},{"arcs":[[-23,232,233,-229,-206,-232,-77,-34]],"type":"Polygon","properties":{"code":"1441","name":"Nairobi Central","constituency_code":"289","county_code":"047"}},{"arcs":[[-9,234,235,-233,-22]],"type":"Polygon","properties":{"code":"1442","name":"Ngara Ward","constituency_code":"289","county_code":"047"}},{"arcs":[[-8,236,237,-225,-231,238,-235]],"type":"Polygon","properties":{"code":"1443","name":"Pangani","constituency_code":"289","county_code":"047"}},{"arcs":[[-230,-234,-236,-239]],"type":"Polygon","properties":{"code":"1444","name":"Ziwani/kariokor","constituency_code":"289","county_code":"047"}},{"arcs":[[-7,-93,-136,239,240,-237]],"type":"Polygon","properties":{"code":"1445","name":"Hospital","constituency_code":"290","county_code":"047"}},{"arcs":[[-130,241,-218,242]],"type":"Polygon","properties":{"code":"1446","name":"Huruma","constituency_code":"290","county_code":"047"}},{"arcs":[[-163,-220,243,-133,-134]],"type":"Polygon","properties":{"code":"1447","name":"Kiamaiko","constituency_code":"290","county_code":"047"}},{"arcs":[[-131,-243,-217,244,-240,-135]],"type":"Polygon","properties":{"code":"1448","name":"Mabatini","constituency_code":"290","county_code":"047"}},{"arcs":[[-216,-226,-238,-241,-245]],"type":"Polygon","properties":{"code":"1449","name":"Mlango Kubwa","constituency_code":"290","county_code":"047"}},{"arcs":[[-129,-244,-219,-242]],"type":"Polygon","properties":{"code":"1450","name":"Ngei","constituency_code":"290","county_code":"047"}}]}}}