{"type":"Topology","arcs":[[[29042,3177],[12,75]],[[29054,3252],[1,1],[82,115],[60,54],[36,10],[23,-18],[49,-3],[53,-26],[62,29],[35,-10]],[[29455,3404],[45,-13],[-1,-61],[34,-68],[-9,-8],[-63,22],[-2,31],[-53,24],[-36,-35],[-18,2],[-60,35],[-2,33],[-40,42],[-20,-26],[21,-24],[5,-43],[40,-49],[48,-20],[45,14],[11,-84],[18,-28],[0,-34],[16,-30],[32,-17],[-36,0],[-36,-18],[15,-28],[-48,-5],[-24,-13],[-30,13],[-20,7],[-59,-9],[-77,-4],[-27,9],[17,49],[-13,22],[-51,10],[-31,17],[-12,29],[8,31]],[[29469,3413],[-23,22],[17,38],[-3,42],[-37,31],[10,20],[145,25],[82,-24],[22,12]],[[29682,3579],[30,-18],[-8,-40],[13,-39],[38,-28],[-36,-9],[-6,11],[-24,3],[22,-20],[23,1],[11,11],[27,-7],[15,1],[22,-9],[56,-8],[45,24],[47,-31],[86,-9],[10,-15],[-48,-28],[-28,-41],[-61,-61],[-29,-41],[3,-27],[-25,-17],[20,-42],[-34,-34],[-36,-54],[-17,-10],[-20,-40],[-38,-53],[-27,-18],[-65,-10],[-29,98],[-32,1],[22,23],[-29,26],[-12,35],[-49,21],[-1,32],[54,26],[-23,42],[15,31],[-8,48],[-39,24],[16,53],[-64,32]],[[29534,2675],[-95,-8],[-57,-12],[-30,43],[-79,77],[-37,-34],[-80,-3],[-8,40],[-16,7],[11,64],[25,18],[4,38]],[[29172,2905],[50,17],[33,2],[30,-18],[31,33],[34,-17],[52,23],[18,-7],[4,-39],[38,-37],[-29,-48],[4,4],[34,49],[13,3],[46,-36],[57,-5],[5,-50],[-30,-57],[-30,-37],[2,-10]],[[29553,2848],[-68,73],[-28,11],[-8,51],[-27,31],[9,31],[28,-5],[19,19],[40,22],[31,-2],[48,-36],[-24,-24],[27,-17],[-5,-38],[26,-24],[11,-57],[-34,-13],[-13,-20],[-32,-2]],[[29042,3177],[-19,-26],[-5,-29],[23,-21],[60,-34],[9,-24],[-8,-42],[-1,-92],[71,-4]],[[29534,2675],[-41,-65],[-16,-49],[-93,-150],[-18,-39],[-42,-50],[-39,-56],[-28,-89],[-28,-76],[-17,-87],[-15,-25],[-1,-52],[-46,-98],[-59,-115],[-42,-92],[-12,-39],[-27,-92],[-40,-80],[-25,-62],[-20,-79],[-15,-88],[-16,-45],[-30,-5],[17,72],[-23,72],[-57,20],[-39,-2],[-25,-15],[10,-37],[-21,-17],[17,-57],[-8,-67],[-19,-26],[-21,23],[-20,-48],[4,-58],[-28,-17],[-60,-52],[-43,-86],[-30,-76],[-13,-76],[-31,64],[-24,10],[-33,36],[-56,-51],[-58,14],[17,-44],[0,-38],[-72,-8],[-10,-63],[-58,-6],[-44,-18],[-58,51],[-24,-13],[-9,-50],[51,-19],[24,-56],[4,-31],[-13,-44],[41,-1],[-22,-35],[8,-62],[24,-43],[2,-30],[19,-25],[18,-50],[-3,-23],[-45,-15],[-58,-3],[-93,23],[-36,21],[-72,8],[-66,-17],[-41,3],[-22,33],[-42,-12],[-23,25],[12,54],[40,3],[26,40],[-19,30],[2,29],[-20,31],[2,42],[29,58],[70,12],[-12,31],[-23,-10],[-30,8],[-38,-43],[-29,9],[-77,-1],[-27,18],[-10,-41],[-41,-50],[-52,25],[-42,-19],[-47,31],[-9,30],[-45,0],[1,-36],[41,-28],[15,-44],[50,-20],[-40,-20],[-34,-40],[-36,-18],[-67,-7],[-5,-40],[-25,-46],[-35,-16],[-10,-44],[-23,-15],[29,-25],[29,5],[-10,-42],[-46,4],[25,-40],[21,-10],[2,-31],[-35,11],[-34,-10],[-34,35],[-31,6],[-16,47],[-70,43],[-565,364],[-235,150],[-429,275],[-572,369],[-400,256],[0,13],[-1578,997],[8,2]],[[23251,2558],[34,12],[456,149],[339,109],[665,217],[157,53],[300,98],[202,69],[67,18],[270,91],[89,24],[5,2],[249,539],[121,275],[74,158],[-514,285],[78,119],[112,172],[103,-55],[341,-188],[82,281],[76,275]],[[26557,5261],[52,-4],[126,-2],[331,0],[261,2],[82,-3],[259,2],[21,13],[79,-4],[-13,-33],[34,-46],[40,-30],[14,3],[60,-37],[9,-22],[-15,-36],[6,-23],[-16,-99],[34,-11],[24,-42],[8,-42],[-14,-26],[8,-37],[-13,-32],[3,-65],[-26,-11],[-9,-33],[14,-39],[30,-40],[9,-53],[30,-36],[33,-8],[36,-25],[80,16],[1,-68],[14,-18],[-9,-56],[-43,-7],[6,-34],[22,0],[-2,-38],[-26,-4],[-40,-44],[23,-17],[-13,-41],[56,-58],[19,-4],[27,-35],[27,20],[29,-16],[20,20],[32,0],[82,-58],[5,-25],[64,-56],[12,-18],[44,-7],[42,-21],[32,-45],[63,-59],[40,-13],[37,-82],[31,-7],[19,-21],[46,-20],[13,-74],[30,-9],[16,-22],[-12,-53],[18,-30],[42,-24],[27,1],[16,-45],[-42,-111],[27,-6],[28,29],[27,5],[70,-35]],[[28475,681],[24,-16],[-6,-69],[-34,-32],[2,-61],[-56,-58],[-15,-31],[-25,10],[-26,157],[68,-19],[4,54],[30,66],[34,-1]],[[27993,108],[127,-25],[55,17],[27,-52],[-10,-16],[-107,26],[-69,0],[-23,50]],[[27695,505],[33,-20],[-15,-38],[-41,-38],[-30,59],[29,37],[24,0]],[[26557,5261],[278,952],[68,232],[39,148],[134,468],[130,452],[40,124]],[[27246,7637],[43,32],[207,218],[-2,37],[41,24],[441,455],[85,86],[298,307],[329,332],[211,218],[534,552],[182,194],[235,244],[321,339],[284,292],[264,282],[379,-494],[58,-76],[91,-121],[378,-496],[366,-475],[221,-291]],[[32212,9296],[-88,-12],[9,-54],[-7,-57],[39,-14],[-9,-31],[9,-39],[-52,12],[7,-43],[20,-26],[-13,-31],[-38,5],[14,-35],[-20,-29],[39,-32],[29,6],[57,-99],[-17,-7],[3,-58],[-23,-43],[10,-19],[-27,-60],[-14,-12],[-18,-57],[-31,-16],[-28,21],[-4,-74],[-27,-12],[-6,-47],[17,-7],[18,26],[51,11],[6,-74],[-67,5],[-1,-52],[43,19],[-10,-72],[4,-30],[-32,1],[-4,-177],[-18,-60],[20,-64],[74,1],[-2,-15],[-66,-2],[26,-79],[0,-33],[47,8],[10,31],[23,1],[31,31],[38,89],[32,-3],[41,27],[40,-21],[41,-2],[46,23],[0,20],[31,29],[38,13],[15,-52],[-18,-36],[-25,18],[-59,-51],[-85,-20],[-22,-23],[-22,-46],[0,-44],[-78,-28],[-29,-26],[-22,-48],[17,-54],[1,-39],[-48,-20],[-34,-29],[-11,-39],[23,-42],[0,-44],[16,-69],[1,-52],[-71,-85],[-30,-63],[-22,-28],[-34,-33],[-40,-51],[-27,-61],[3,-42],[43,-69],[-9,-25],[-7,-88],[32,-31],[-23,-63],[-20,-18],[8,-32],[-17,-43],[-38,-40],[-115,-83],[-97,-32],[-93,-78],[-75,-35],[-25,19],[-64,-28],[-21,-50],[-68,-19],[-59,-64],[-113,-72],[-19,5],[5,55],[61,41],[18,-11],[32,36],[-14,24],[11,24],[-129,-20],[-2,29],[-58,43],[-6,-19],[-63,-8],[-24,-23],[1,-48],[16,-25],[-33,-16],[25,-23],[27,5],[29,-24],[20,-34],[80,-24],[12,-62],[-54,-104],[-8,-30],[-47,-94],[-38,-63],[-32,-76],[-35,-55],[-5,-22],[3,-13],[-21,-70],[-39,-89],[-27,-75],[-48,-108],[-22,-32],[-52,-111],[-49,-74],[-30,-63],[-33,-22],[-74,15],[-46,-1],[-16,28],[-36,22],[-22,-1],[-43,67],[-27,-57],[12,-51],[-53,-14],[-76,31],[19,-49],[75,-39],[50,4],[15,19],[64,50],[28,-28],[47,7],[66,-20],[30,-52],[12,-68],[-19,-52],[19,-38],[3,-73],[-45,-71],[5,-13],[-26,-44],[-12,-60],[-37,-60],[-24,-61],[-4,-43],[-37,-106],[-32,-68],[-15,-79],[-72,-134],[-3,-15],[-165,-293],[-34,-83],[-53,-64],[-41,-6],[-33,-23],[-51,14],[-10,17],[-45,11],[-32,-20],[-61,13],[-25,30],[4,36],[-30,20],[-12,40],[50,52],[-44,8],[-44,-9],[-8,28],[-3,-81]],[[29469,3413],[-14,-9]],[[31081,6244],[-11,-22],[-26,-4],[-35,34],[72,-8]],[[32208,9288],[1,-65],[-27,1],[1,34],[25,30]],[[27246,7637],[-6,9],[-66,-2],[-38,23],[-80,-9],[-24,28],[-19,-1],[-25,-39],[-30,3],[-5,28],[-57,68],[-34,-18],[-25,33],[-24,-5],[-22,62],[-6,41],[-36,3],[-53,-20],[-53,-62],[-68,-24],[-10,-48],[-36,9],[-13,44],[-74,1]],[[26442,7761],[10,11],[-61,106],[-278,365],[-661,833],[-316,399],[-312,393],[-322,403],[-331,419],[44,3],[11,-23],[52,-8],[99,2],[121,25],[61,24],[32,34],[50,24],[20,28],[83,55],[5,37],[19,26],[98,15],[25,24],[38,12],[79,-1],[17,10],[8,38],[43,21],[240,425],[450,799],[5,2],[185,422],[8,-1],[201,371],[31,57],[-154,525],[-138,469],[30,29],[81,41],[32,-8],[39,22],[29,35],[-15,210],[-42,506],[-32,651],[-29,581],[-3,40],[-20,4],[-6,96],[-42,760],[-11,145],[-155,299],[-378,727],[-24,46],[-9,9],[-216,416],[-324,505],[-391,601],[-69,123],[-436,680],[-48,69],[-157,243],[-37,61],[-116,177],[-362,567],[-79,122]],[[23114,21862],[2,4]],[[23116,21866],[41,-17],[56,7],[68,-55],[31,-1],[120,42],[24,20],[11,48],[70,-13],[36,17],[61,-11],[58,40],[-8,47],[58,14],[5,53],[35,57],[101,-7],[65,-28],[43,-9],[44,-29],[45,20],[23,-1],[65,-44],[74,-72],[46,6],[44,31],[139,-44],[21,20],[-2,36],[25,6],[21,-32],[108,-66],[58,-8]],[[24702,21893],[60,-38],[31,6],[70,-20],[48,19],[21,-3],[75,-49],[38,-1],[39,-19],[50,-10],[104,-40],[29,7],[59,-13],[54,21],[47,-16],[60,-6],[72,2],[59,15],[66,43],[44,-58],[47,-20],[19,-1],[39,37],[61,20],[41,34],[59,30],[-1,53],[81,54],[44,8],[38,-16],[31,23],[21,44],[13,3],[36,-22],[22,-28],[51,-15],[29,14],[73,15],[42,-18],[13,-40],[59,-44],[29,-50],[53,-34],[21,-41],[33,-39],[73,-43],[-8,-41],[60,12],[16,-18],[-17,-32],[11,-27],[46,-9],[19,30],[34,19],[76,-8],[40,-37],[36,4],[56,-29],[90,3],[16,39],[26,19],[26,-26],[62,-33],[37,6],[75,-23],[67,8],[32,17],[40,4],[47,-17],[17,24],[23,1],[38,-26],[38,25],[10,-20],[44,-31],[11,-22],[-7,-41],[49,0],[29,-38],[27,37],[29,12],[65,-55],[31,-40],[33,-25],[20,-33],[42,-13],[28,32],[57,-32],[52,25],[42,-4],[13,-16],[44,-43],[39,-52],[60,5],[10,-40],[57,-14],[25,-86],[18,-19],[51,3],[14,-27],[35,5],[38,-48],[5,-40],[30,-21],[-4,-41],[38,-5],[-26,-42],[-9,-33],[16,-14],[40,24],[17,35],[54,-42],[31,25],[43,-51],[10,-53],[-5,-43],[29,-2],[11,-35],[46,-7],[54,-39],[5,-34],[22,0],[24,-33],[30,-2],[-10,-54],[10,-67],[27,-19],[-11,-24],[8,-34],[40,-10],[-15,-31],[13,-25],[41,-16],[-20,-20],[9,-58],[-18,-54],[13,-15],[40,3],[1,-51],[40,15],[4,-24],[32,-19],[-34,-45],[11,-43],[-9,-35],[9,-29],[23,-21],[31,0],[6,-26],[-26,-27],[35,-19],[155,62],[62,33],[40,1],[43,-38],[33,-58],[57,-36],[38,-61],[-4,-52],[15,-8],[101,14],[58,-21],[76,-61],[179,-98],[46,-51],[17,-37],[4,-49],[-9,-38],[7,-43],[8,-20],[61,-52],[27,-42],[11,-18],[9,-77],[29,-51],[32,-39],[10,-39],[3,-94],[35,-41],[20,-51],[-2,-28],[-25,-78],[7,-16],[69,-87],[32,-61],[32,-104],[60,-81],[10,-61],[-2,-67],[12,-103],[-13,-44],[9,-33],[41,-35],[33,-49],[45,-133],[30,-43],[19,-50],[7,-45],[-4,-61],[-17,-59],[0,-28],[56,-76],[52,-97],[31,-70],[178,-307],[25,-81],[26,-35],[54,-94],[102,-158],[10,-26],[56,-149],[12,-74],[29,-1],[-4,-108],[-26,-87],[-12,-63],[3,-54],[57,-101],[13,-86],[40,-162],[48,-183],[25,-108],[12,-120],[13,-37],[59,-89],[12,-28],[14,-40],[16,-99],[25,-78],[38,-90],[29,-57],[24,-88],[65,-162],[58,-104],[-8,-81],[7,-62],[23,-57],[37,-67],[13,-40],[-8,-44],[-31,-53],[-22,-65],[-2,-55],[17,-165],[3,-77],[16,-43],[69,-79],[37,-70],[9,-51],[-6,-106],[1,-50],[19,-115],[-5,-52],[-18,-78],[67,-116],[-13,-80],[39,-48],[46,-116]],[[32371,12548],[34,-174],[122,-640],[29,-143],[6,-69],[1,-158],[1,-533],[97,-2],[413,-6],[-5,-30],[35,-37],[65,-21],[33,-28],[39,9],[25,-27],[19,3],[45,8],[42,-26],[15,20],[118,39],[59,43],[8,30],[-15,13],[843,-232],[10,-3],[310,-85],[378,56],[35,-15]],[[35133,10540],[-51,-17],[-166,-94],[-117,-81],[-38,-44],[-20,4],[-94,-111],[-49,-41],[-159,-95],[-59,8],[-21,14],[-116,20],[-50,38],[-138,41],[-88,48],[-61,22],[35,15],[26,-8],[18,21],[5,54],[-28,21],[-35,-16],[-73,43],[-4,-54],[-22,-3],[-12,50],[-108,-47],[-33,-1],[-33,-50],[-19,-62],[-30,2],[-31,-34],[31,-36],[17,-1],[78,29],[30,0],[92,48],[11,17],[64,-21],[27,6],[35,-42],[-80,-2],[-78,-8],[-124,-27],[-130,-42],[-4,12],[-214,-86],[-113,-51],[-97,-58],[-4,9],[101,55],[6,34],[57,4],[24,26],[-91,60],[-21,52],[37,23],[-71,-30],[-3,-41],[-83,-6],[-3,-60],[-19,-26],[49,-38],[-16,-43],[-53,-47],[-50,-21],[1,-26],[-153,-97],[-61,-49],[-161,-140],[-37,-6],[-28,-21],[-102,-110],[-111,-151],[-33,-67],[-70,91]],[[32371,12548],[178,80],[105,43],[88,27],[20,7],[383,169],[642,276],[120,51],[0,0],[515,217],[590,256],[653,284],[282,124],[366,30],[956,79],[207,17],[394,37],[381,26],[309,26],[782,65]],[[39342,14362],[27,-15],[-18,-37],[-93,-65],[-6,-15],[-63,-45],[-75,-79],[-11,-23],[-45,-49],[-42,-70],[0,-16],[-83,-41],[-31,-46],[-48,-32],[-29,-42],[-51,-39],[-42,-57],[-62,-27],[-20,-29],[2,-46],[-89,-77],[-32,-36],[-36,-20],[5,-31],[-49,-53],[-22,36],[-45,0],[31,-46],[42,0],[7,-17],[-46,-21],[-111,-100],[-31,-76],[-40,-5],[-34,-24],[-34,-53],[-41,-38],[-6,-46],[-46,-29],[-47,-11],[-35,-21],[0,-16],[-84,22],[9,24],[-20,71],[-38,-4],[-56,20],[-40,-20],[-36,-45],[-37,-10],[-16,52],[72,40],[14,27],[-12,32],[-61,12],[14,38],[-29,22],[-31,4],[-28,-13],[0,39],[-21,23],[-61,-36],[-32,4],[-25,-52],[-25,-4],[-23,-34],[-75,-34],[-5,-24],[-48,-8],[9,-31],[-58,-48],[-83,-51],[-16,-18],[-62,11],[-17,-43],[-79,30],[-6,-23],[-38,-12],[-27,5],[-45,-33],[-26,0],[-52,-34],[-24,-31],[-12,-49],[-64,-38],[-1,-34],[-36,-13],[-50,-73],[-1,-30],[-35,-24],[-19,20],[-30,-41],[-45,4],[11,47],[-15,14],[-87,-12],[-6,50],[-36,23],[30,68],[-18,59],[19,44],[22,9],[-11,40],[7,26],[-6,62],[-31,35],[3,18],[36,27],[57,67],[7,21],[41,21],[4,35],[104,46],[83,55],[23,27],[-1,30],[-25,15],[-4,29],[-30,6],[-15,-18],[2,-33],[-52,-32],[-34,-43],[-69,-17],[-11,20],[-56,-85],[-51,-10],[17,-68],[-25,-7],[-29,17],[-80,-84],[12,-86],[35,-12],[-30,-34],[-2,-41],[20,-28],[-21,-19],[-21,-40],[3,-45],[-35,-30],[-23,-43],[-4,-58],[22,-6],[24,-55],[-12,-22],[8,-80],[-2,-31],[-47,15],[1,-40],[-35,1],[-35,48],[8,28],[22,9],[-10,33],[-30,42],[-55,29],[-21,21],[3,23],[30,5],[3,24],[48,14],[1,38],[-32,-8],[-51,11],[11,39],[-30,53],[-46,13],[-44,-8],[-22,14],[-59,-11],[-20,7],[-26,40],[0,85],[-24,36],[-16,-28],[8,-28],[-30,-18],[-49,8],[16,46],[-28,32],[-9,30],[-48,8],[30,-70],[-70,-1],[-69,33],[-19,26],[-24,-28],[-27,9],[-3,26],[-63,2],[-95,17],[14,-21],[76,-31],[3,-18],[57,-40],[50,-19],[34,-36],[31,1],[33,-24],[37,15],[25,-4],[79,-57],[45,-21],[11,-15],[39,-4],[2,-38],[-79,-8],[-27,-14],[-64,-3],[-68,-38],[44,-9],[36,18],[75,-19],[12,30],[58,3],[32,-13],[66,31],[45,-17],[-12,-60],[-4,-100],[-39,20],[-29,31],[-22,-28],[6,-28],[36,-20],[-52,-19],[-30,-38],[-49,-24],[19,-19],[85,43],[11,-47],[62,11],[19,-33],[53,-61],[-11,-31],[9,-61],[-10,-38],[2,-61],[12,-69],[19,-10],[-4,-47],[11,-27],[-16,-57],[-2,-52],[20,-65],[3,-61],[10,-42],[-83,41],[-15,48],[-31,0],[-45,24],[4,39],[-26,-1],[-19,-33],[-38,-8],[-11,-22],[43,-13],[-1,-38],[-72,16],[-16,-19],[67,-24],[-1,-25],[-40,-14],[-46,-55],[-47,19],[-34,-6],[-62,-34],[3,47],[-46,25],[-27,-5],[-76,-42],[-3,26],[-36,-5],[26,-61],[-24,-26],[-42,-26],[-31,20],[-51,14],[-5,-33],[-73,8],[-25,10],[-19,36],[-74,38],[-23,52],[-33,10],[-10,33],[-42,19],[-49,55],[43,-70],[30,-11],[43,-57],[16,-64],[-3,-25],[86,5],[34,-43],[-29,-7],[-5,-64],[-15,-61],[32,-8],[26,-30],[2,-22],[29,-23],[2,-34],[91,-57],[37,0],[91,40],[27,-12],[21,-104],[-62,18],[-58,26],[-78,-53],[-39,17],[4,-41],[42,-36],[-1,-37],[37,-33],[-29,-8],[-26,-35],[7,-37],[57,29],[25,54],[21,23],[-2,35],[37,22],[59,-29],[37,0],[44,-73],[-14,-104],[-41,-21],[-63,-51],[-69,-44],[-63,-54],[-25,-37],[-8,-62],[-16,-16],[-89,8],[-16,-12]],[[37292,12815],[-27,-26],[-29,48],[59,-8],[-3,-14]],[[37304,12920],[44,-3],[-26,-42],[-63,-11],[-60,16],[19,27],[37,20],[49,-7]],[[36314,11768],[-17,9],[-13,44],[35,-7],[-5,-46]],[[36688,11992],[29,-4],[28,-37],[-42,-23],[-38,15],[-12,30],[35,19]],[[36359,12035],[29,-28],[-54,-31],[-4,49],[29,10]],[[37117,12266],[6,-52],[25,-17],[27,15],[33,-8],[13,-39],[-59,-12],[-69,27],[0,41],[24,45]],[[37010,12455],[71,7],[59,-18],[-25,-33],[19,-28],[28,23],[27,-12],[-5,-22],[78,-26],[10,-27],[-38,-58],[-29,2],[-29,-18],[-20,8],[-20,48],[-67,21],[-54,3],[-83,-85],[5,-27],[28,-6],[29,-56],[-25,-37],[40,-18],[-13,-42],[-71,-18],[-38,18],[-27,42],[-1,49],[-31,19],[-2,-69],[-111,-37],[-2,66],[-11,44],[-23,10],[-56,1],[-49,-35],[-34,-12],[-12,-21],[-41,3],[-15,-20],[46,-31],[-8,-21],[-83,-6],[-3,13],[-60,24],[0,36],[-15,26],[-61,18],[0,24],[31,29],[68,21],[33,-4],[9,-35],[38,-39],[-10,65],[12,23],[70,-19],[18,20],[99,54],[54,-5],[31,-14],[45,47],[33,5],[40,59],[-11,26],[7,26],[43,9],[31,-8],[24,19],[11,31],[42,-10],[4,-22]],[[37515,11840],[-70,-64],[-23,8],[46,43],[19,37],[39,27],[14,29],[94,87],[16,-15],[-74,-67],[-18,-35],[-43,-50]],[[37487,12676],[18,-3],[23,-41],[-46,8],[5,36]],[[37485,12696],[5,46],[42,-45],[-47,-1]],[[37874,12699],[-4,48],[50,37],[37,44],[16,6],[30,43],[15,-20],[-22,-29],[-34,-20],[-43,-64],[-45,-45]],[[38727,13503],[-31,-38],[-41,-17],[-19,-27],[-78,-61],[-18,-20],[-24,16],[68,58],[2,16],[40,24],[61,26],[16,29],[24,-6]],[[35353,11398],[-25,-70],[-28,21],[53,49]],[[35873,11308],[-91,-14],[-82,-36],[-87,-51],[-47,-47],[-54,-42],[-30,0],[3,53],[-4,135],[19,16],[8,38],[51,24],[22,-15],[52,-1],[-8,32],[-44,9],[-38,27],[30,18],[48,-3],[15,15],[64,9],[48,-8],[48,15],[18,-5],[51,61],[29,-24],[11,-31],[33,-29],[24,-61],[52,-75],[-32,-34],[-20,18],[-89,6]],[[36138,11312],[47,-21],[17,15],[44,-18],[-8,-30],[-45,-40],[-94,-36],[-41,-2],[-46,21],[-15,38],[47,49],[32,4],[30,28],[32,-8]],[[36295,11650],[16,-9],[10,-55],[45,-67],[11,-43],[-7,-24],[-40,-40],[-28,-41],[-31,6],[-50,-41],[-53,31],[-45,-11],[-46,13],[-49,75],[-51,64],[-37,76],[3,67],[68,-18],[42,-21],[31,-31],[42,-6],[-25,-26],[-6,-66],[41,28],[18,57],[25,21],[38,13],[46,-51],[-25,-14],[-11,-29],[12,-34],[30,6],[11,30],[28,14],[-25,52],[20,14],[-15,28],[7,32]],[[23251,2558],[-207,131],[-462,298],[-576,372],[-574,369],[-510,331],[-414,267],[-671,432],[-123,285],[-45,197],[-18,54],[-8,84],[-20,10],[-86,17],[-42,43],[-123,12],[-38,34],[-26,36],[-22,-1],[-32,39],[-55,0],[-102,-66],[-35,0],[-34,-17],[-44,-4],[-19,-13],[-65,14],[-18,16],[21,47],[-7,20],[36,17],[55,10],[33,36],[8,26],[30,14],[-7,92],[-32,30],[-47,-10],[-54,22],[-61,-17],[6,106],[160,176],[109,105],[109,104],[80,9],[21,26],[3,134],[64,24],[65,26],[-51,337],[-47,281]],[[19376,7113],[489,34],[5,-3],[23,-6],[40,26],[35,-2],[91,-55],[26,-35],[82,15],[25,63],[1,80],[1,350],[85,7],[23,183],[74,514],[29,220],[118,79],[37,159],[67,302]],[[20627,9044],[186,-76],[31,13],[241,120],[66,35],[147,68],[162,80],[84,38],[18,38],[23,4],[29,27],[69,2],[42,-8],[37,26],[7,39],[45,-44],[85,-39],[335,-221],[46,-39],[110,-121],[108,-147],[96,-92],[96,-145],[124,-160],[130,-116],[45,-24],[56,5],[15,-9],[58,-80],[54,-58],[70,-53],[26,-27],[33,-68],[22,-18],[39,34],[47,-2],[61,39],[22,-31],[39,5]],[[23531,8039],[2,-15],[55,-2],[34,38],[58,-2],[36,9],[33,-24],[83,-35],[112,-5],[54,-45],[24,-10],[65,18],[-9,-38],[18,-16],[97,-23],[67,-1],[27,-17],[30,-39],[40,-26],[18,-44],[23,6],[141,14],[49,13],[103,-26],[59,-31],[80,-11],[111,4],[46,-16],[50,-3],[43,-30],[-12,-37],[50,-22],[53,8],[49,28],[42,6],[22,24],[21,-1],[25,-27],[65,8],[78,47],[89,48],[27,0],[71,-25],[41,0],[58,12],[27,26],[99,-21],[62,-5],[72,11],[43,58],[26,11],[52,-5],[115,23],[25,-12],[55,3],[10,-40],[38,-9],[36,-35],[23,5]],[[24702,21893],[33,156],[-28,57],[20,57],[3,38],[25,29],[11,45],[-43,115],[6,24],[-13,34],[-7,59],[6,69],[-7,38],[16,22],[-6,65],[2,72],[11,47],[1,50],[17,39],[100,107],[1,43],[-11,81],[-109,406],[-35,110],[-90,322],[-5,13],[-67,226],[-26,115],[-61,136],[-11,87],[-18,19],[-36,7],[-26,27],[9,16],[83,-10],[40,9],[50,0],[39,-12],[36,23],[63,4],[-7,41],[18,12],[45,-20],[90,22],[18,-9],[9,-32],[59,-21],[15,16],[69,35],[53,77],[39,19],[47,56],[6,29],[36,33],[2,14],[50,44],[53,18],[22,23],[44,18],[58,36],[50,2],[21,-32],[81,-1],[15,15],[35,-5],[57,15],[47,21],[30,27],[49,83],[82,2],[64,-19],[62,-6],[44,21],[72,-9],[62,10],[1,64],[50,18],[-2,53],[22,53],[32,0],[77,63],[19,32],[79,-12],[17,-15],[77,-19],[22,14],[42,0],[21,49],[93,9],[77,-11],[49,15],[7,41],[39,37],[103,60],[7,39],[-26,52],[26,18],[5,29],[50,29],[57,112],[50,71],[54,43],[64,83],[44,97],[85,93],[58,45],[69,63],[32,37],[61,54],[85,88],[29,20],[110,55],[80,54],[217,87],[115,35],[100,37],[100,29],[26,21]],[[28495,26915],[37,-38],[48,-19],[51,-57],[34,-67],[10,-66],[26,-79],[42,-78],[47,-75],[56,-129],[104,-279],[24,-126],[23,-27],[7,-102],[18,-26],[37,-25],[31,-55],[83,-79],[25,-10],[5,-24],[80,-109],[54,-38],[14,-30],[40,-16],[57,-46],[40,-114],[39,-53],[15,-36],[58,-63],[24,-46],[33,-18],[25,-41],[34,-22],[10,-25],[88,-85],[26,-19],[53,-76],[2,-26],[43,-6],[31,-25],[56,-28],[69,-45],[21,-32],[46,-25],[44,-11],[41,-25],[108,-9],[35,-15],[49,5],[78,-18],[20,-27],[46,-22],[41,-31],[31,-1],[44,20],[35,-9],[54,5],[60,-48],[106,-83],[143,-91],[104,-45],[107,-33],[82,-13],[143,-6],[67,-22],[102,-64],[132,-90],[85,-62],[96,-53],[82,-31],[87,-72],[73,-69],[120,-129],[92,-75],[127,-76],[111,-41],[121,-54],[69,-38],[73,-51],[83,-9],[151,-8],[60,-18],[42,-29],[54,-19],[33,3],[55,23],[38,7],[92,-21],[163,4],[30,8],[55,44],[16,2],[43,-26],[23,18],[18,64],[36,27],[25,38],[82,35],[93,-40],[42,-28],[50,7],[49,-14],[50,51],[44,-3],[38,33],[62,-2],[57,7],[42,-8],[37,7],[150,101],[26,30],[5,54],[56,31],[56,96],[30,87],[39,26],[75,15],[35,24],[31,40],[48,38],[93,41],[71,13],[204,47],[-4,8],[51,0],[68,15],[119,52],[59,32],[94,75],[69,68],[64,43],[101,37],[96,57],[62,16],[75,56]],[[36405,24401],[4,4],[-2,-625],[-2,-1573],[-5,5],[1,-573],[-11,-5],[12,-684],[-5,-537],[6,-682],[12,-1291],[-11,-5],[-1,-178],[250,-312],[172,-210],[338,-419],[131,-165],[211,-260],[69,-89],[268,-328],[243,-303],[104,-127],[66,-85],[72,-86],[483,-599],[438,-546],[95,-116],[-1,-250]],[[28495,26915],[11,14],[-14,10],[-68,151],[-36,96],[-32,55],[-84,211],[-196,461],[-28,62],[-163,388],[-207,491],[-141,341],[118,45],[300,97],[49,20],[398,115],[-5,19],[-97,60],[-13,23],[-47,29],[-42,-8],[-37,24],[-20,50],[-38,1],[-6,35],[-42,24],[-61,95],[-25,16],[-44,71],[-30,18],[-8,25],[-29,3],[-32,34],[-44,7],[-33,52],[-26,-12],[-22,47],[-76,18],[-47,28],[-2,19],[-62,36],[-43,-4],[-31,25],[-69,42],[-53,6],[-23,25],[-56,4],[-45,21],[-64,93],[-2,24],[-80,104],[-24,41],[1,35],[-40,110],[-28,36],[-18,43],[-42,25],[-16,21],[-12,60],[-24,21],[0,80],[-18,7],[-46,70],[-6,19],[-43,38],[-135,75],[-144,115],[-18,23],[-8,42],[-34,17],[-107,137],[-8,28],[-50,43],[-34,16],[-45,57],[-59,53],[-20,72],[15,58],[-14,34],[-29,29],[5,73],[-6,18],[-120,128],[-7,-4]],[[25914,32146],[-25,24],[-63,151],[-34,112],[-2,76],[10,196],[-15,109],[-25,79],[-18,154],[40,135],[-12,68],[-2,47],[-2,77],[9,22],[3,57],[-16,30],[-6,87],[-14,80],[-71,128],[-5,54],[-59,127],[-9,63],[-20,46],[-12,55],[-4,94],[-22,44],[131,31],[325,78],[20,13],[91,147],[15,32],[184,416],[64,57],[4,58],[18,56],[43,41],[26,165],[18,185],[-12,236],[-1,101],[166,1],[65,3],[14,104],[13,52],[40,85],[59,17],[46,62],[34,20],[215,8],[47,61],[79,46],[35,5],[73,28],[47,4],[9,41],[73,74],[96,83],[27,34],[173,80],[95,62],[26,30],[-2,128],[0,191],[-10,58],[-1,54],[-7,177],[-2,183],[-6,85],[-13,90],[-12,25],[-37,29],[-8,23],[-13,120],[-25,152],[-40,275],[-59,101],[-9,76],[43,80],[38,39],[39,27],[15,123],[6,4]],[[27795,38817],[38,-4],[10,-63],[-10,-78],[12,-19],[117,-2],[101,4],[133,-14],[25,22],[35,-31],[30,-7],[33,15],[50,-31],[48,9],[63,-17],[71,27],[59,-6],[47,30],[32,-20],[19,-72],[59,-168],[50,-37],[59,-16],[92,0],[37,30],[-2,31],[145,343],[12,15],[89,53],[146,139],[363,339],[93,89],[68,54],[47,55],[79,73],[46,37],[28,36],[48,86]],[[30167,39719],[17,-399],[-8,-82],[3,-199],[-6,-74],[7,-38],[7,-483],[-2,-40],[-17,-48],[6,-158],[-2,-170],[89,-38],[35,-21],[35,-4],[180,-66],[22,-16],[38,-6],[272,-99],[18,-15],[99,-28],[208,-76],[68,-30],[187,-64],[27,-31],[60,-30],[88,-94],[174,-169],[7,2],[339,-339],[175,-192],[131,-140],[225,-255],[16,-24],[133,-55],[435,-185],[8,6],[583,-251],[21,-81],[-2,-113],[18,-56],[-27,-85],[36,-9],[11,-52],[38,-10],[36,-26],[9,-112],[3,-56],[-31,-18],[-15,-43],[-55,-41],[-1,-14],[45,-45],[-2,-13],[52,-53],[20,-76],[19,-38],[0,-36],[24,-21],[28,-51],[1,-25],[35,-55],[6,-52],[21,-34],[2,-60],[16,-38],[42,-28],[-13,-36],[12,-25],[60,-74],[42,-38],[-5,-68],[18,-48],[68,-60],[-30,-44],[18,-27],[44,-28],[2,-40],[54,-89],[41,-47],[41,-29],[23,-34],[22,-1],[17,-30],[45,-7],[46,-20],[28,-42],[12,-73],[0,-67],[49,-42],[2,-34],[29,-28],[50,-18],[44,-52],[46,-29],[18,-25],[10,-32],[32,-46],[54,-43],[48,-19],[86,1],[130,-54],[70,-65],[61,5],[43,12],[47,1],[45,-23],[50,-48],[13,10],[76,-70],[18,-32],[35,-98],[20,-41],[51,-57],[88,-70],[85,-57],[138,-63],[125,-4],[47,13],[56,2],[19,-9]],[[36404,32525],[-5,-452],[-1,-343],[2,-19],[-8,-465],[9,-519],[9,-474],[-1,0],[0,-255],[-5,-154],[7,-123],[-4,-82],[1,-166],[-4,-229],[7,-128],[-5,-50],[4,-254],[-2,-223],[2,-84],[-4,-198],[5,-321],[-3,-205],[1,-182],[-1,-573],[3,-44],[0,-359],[2,-103],[-3,-39],[1,-371],[-2,-249],[2,-35],[0,-291],[-3,-43],[2,-67],[-4,-99],[-1,-190],[5,-21],[-3,-206],[1,-320],[-3,-188]],[[30167,39719],[45,93],[243,476],[12,33],[106,205],[37,38],[141,65],[244,117],[325,159],[181,83],[127,64],[228,107],[183,82],[50,11],[54,57],[185,62],[102,42],[168,63],[208,77],[446,168],[63,-2],[43,43],[132,50],[51,20],[524,197],[266,100],[301,109],[232,87],[35,29],[55,21],[13,-9],[74,12],[38,35],[51,17],[52,72],[30,26],[49,-15],[55,1],[39,-56],[74,-19],[22,-21],[33,-9],[34,-25],[58,-26],[37,14],[43,-18],[16,-27],[-4,-28],[27,-38],[73,-6],[58,-44],[27,-37],[-8,-18],[12,-64],[70,-52],[17,-87],[26,-34],[46,-2],[33,-26],[63,-11],[25,3],[86,-28],[15,-29],[31,-25],[40,-10],[29,-35],[7,-41],[84,-3],[47,-35],[7,-27],[54,-47],[62,-18],[43,-29],[49,-80],[35,-38],[44,-25],[36,-85],[14,-21],[54,-11],[23,-47],[90,-36],[-16,-54],[92,-55],[40,-17],[55,-43],[14,-20],[102,-48],[33,-38],[26,-23],[40,6],[49,-15],[39,-26],[56,-1],[6,73],[43,6],[1,28],[59,-7],[14,-20],[35,30],[36,-43],[19,21],[27,-8],[45,15],[69,-25],[-2,-23],[63,16],[42,-6],[17,21],[35,-28],[31,7],[35,-9],[31,-22],[39,18],[33,2],[25,20],[40,-2],[20,57],[33,-2],[12,-23],[33,2],[35,-18],[53,34],[54,21],[115,-71],[83,6],[22,38],[57,-12],[22,17],[42,2],[22,-20],[36,13],[37,-12],[7,33],[66,3],[26,25],[30,-24],[2,-41],[38,2],[31,24],[30,65],[42,10],[66,39],[47,-18],[38,-46],[43,1],[54,10],[57,-12],[30,21],[85,-6],[41,41],[44,10],[24,-7],[42,-49],[30,-3],[18,-28],[29,9],[57,-9],[32,-25],[33,70],[100,50],[44,-3],[26,41],[18,-29],[76,-17],[26,12],[73,-27],[-1,-37],[61,9],[43,-8],[21,32],[41,-14],[31,21],[6,-43],[34,-77],[41,12],[12,-11],[53,1],[-11,-28],[85,0],[41,10],[18,-27],[33,4],[1,46],[15,10],[55,-2],[49,26],[28,-3],[10,32],[83,40],[32,-19],[-21,-42],[-165,-216],[-197,-257],[-33,-48],[-102,-132],[-50,-58],[-65,-89],[-104,-130],[-172,-228],[-72,-91],[-75,-100],[-152,-200],[-107,-136],[-299,-394],[-169,-217],[-114,-153],[-115,-147],[-164,-216],[-277,-362],[-91,-122],[-60,-71],[-37,-52],[-162,-209],[-23,-35],[-158,-203],[-202,-183],[-46,-38],[-191,-174],[-311,-279],[-663,-600],[-251,-227],[-63,-61],[-2,-48],[-2,-318],[2,-759],[-1,-654],[-1,-564],[0,-556],[-3,-177]],[[25914,32146],[-13,-7],[3,-6],[-159,-84],[-1127,-596],[-854,-451],[-826,-437],[-3,-5],[-43,-161],[-23,-61],[-7,-56],[-61,-246],[-19,-61],[-72,-287],[-54,-42],[-556,-406],[-19,-12],[-88,-66],[-1311,-953],[-12,1]],[[20670,28210],[-1,22],[19,302],[2,134],[7,120],[-72,43],[-447,301],[-35,-138],[-37,-35],[-46,-18],[-59,5],[-38,-15],[-48,1],[-29,-19],[-65,26],[-13,-32],[-92,7],[-75,-14],[-47,-25],[-78,-8],[-27,13],[-44,-4],[-90,-24],[-34,-16],[-36,18],[-94,-28],[-43,21],[-120,-82],[-30,-1],[-24,-29],[-38,-13],[-24,8],[-34,71],[-16,-35],[-36,-31],[-10,-51],[-71,68],[-16,37],[-37,6],[-48,45],[-164,278],[-72,124],[-96,153],[-174,274],[9,5],[-46,64],[-189,270],[-26,26],[4,1],[-252,367],[-280,106],[-160,562],[-201,6],[-30,28],[-46,63],[-227,148],[-56,71],[-13,38],[-5,95],[-95,1],[-106,9],[-19,9],[-126,24],[-89,39],[-342,10],[-49,44],[-34,25],[-38,5],[-142,93],[-60,32],[-40,1],[-86,-41],[-40,7],[12,76],[4,90],[10,29],[-17,130],[10,56],[-35,21],[5,115],[-56,124],[-13,43],[-12,89],[-15,50],[-33,47],[-125,248],[-109,93],[-209,534],[-32,93],[-63,149],[-149,380],[-124,-25],[-158,-1]],[[14245,34118],[-17,32],[2,34],[-36,61],[0,92],[50,99],[-19,87],[8,76],[-19,128],[-25,73],[18,54],[-12,81],[-20,15],[-7,36],[25,24],[-29,31],[6,49],[60,-10],[36,42],[2,37],[-22,69],[17,49],[-8,16],[2,99],[-32,6],[-8,28],[23,9],[11,28],[-19,27],[-6,50],[-24,53],[22,21],[30,-8],[16,51],[-6,55],[-20,19],[-10,62],[-31,14],[-67,84],[-36,0],[-34,13],[-12,24],[-55,4],[-126,-26],[-15,-9],[-52,13],[-77,-9],[-37,-16],[-43,30],[-53,7],[-18,33],[-58,-1],[-28,-19],[-18,15],[-28,-16],[-39,6],[-37,-16],[-53,6],[12,36],[-6,29],[-42,41],[-76,27],[-20,37],[-33,4],[-84,70],[-53,8],[-14,38],[-29,24],[-59,0],[9,37],[-26,64],[-29,-13],[-35,21],[-26,38],[-114,139],[-29,16],[3,214],[-26,96],[-21,56],[-29,40],[-5,54],[-44,67],[-102,104],[-61,93],[-35,22],[-20,43],[-39,2],[-110,-32],[-21,54],[2,34],[-14,29],[9,121],[-50,59],[-2,34],[-17,36],[-77,55],[-6,26],[-36,14],[-61,47],[-31,47],[-59,29],[-16,29],[-59,30],[-20,28],[41,20],[40,38],[29,11],[81,-8],[14,20],[4,57],[-14,65],[24,36],[-10,69],[-20,56],[-18,22],[-55,25],[-8,48],[-37,38],[22,34],[-20,45],[8,15],[-16,54],[-38,18],[-15,40],[25,15],[-25,40],[21,42],[-29,70],[0,22],[-34,34],[-35,51],[19,18],[-8,26],[14,25],[0,51],[16,24],[-14,72],[16,20],[-16,24],[8,53],[7,57],[30,29],[13,36],[-7,103],[-14,20],[12,100],[35,18],[26,-18],[47,0],[40,35],[15,25],[36,18],[-26,64],[0,58],[40,20],[43,9],[26,38],[8,45],[17,18],[14,42],[-25,18],[-10,35],[6,32],[-56,32],[-54,-16],[19,46],[-22,42],[-33,36],[2,94],[-18,20],[-30,85],[-2,33],[30,53],[-77,103],[-18,78],[-67,73],[-45,41],[-44,51],[6,25],[-22,37],[-49,16],[75,18],[21,18],[65,103],[-38,50],[18,21],[1,38],[-13,15],[31,47],[19,93],[23,43],[12,77],[-17,47],[-8,51],[56,31],[-10,60],[39,39],[31,83],[56,92],[-13,81],[6,24],[-20,27],[1,48],[-24,11],[-66,-3],[-22,11],[-42,51],[-22,14],[7,37],[-10,21],[35,53],[8,38],[22,11],[8,60],[-20,68],[19,37],[-5,83],[-29,34],[-45,28],[-23,34],[-45,43],[-20,45],[-36,55],[23,13],[56,73],[-7,26],[68,17],[43,37],[-2,59],[-40,70],[16,61],[-4,82],[-56,-83],[-22,-7],[-50,6],[-40,65],[7,67],[-21,54],[-36,10],[-9,18],[325,-5],[75,38],[32,-13],[45,8],[63,-31],[55,-2],[96,-44],[25,-1],[40,21],[72,-10],[48,26],[203,-6],[179,-1],[254,-7],[232,-4],[201,-6],[158,15],[245,35],[97,-8],[94,-56],[291,9],[643,33],[193,-89],[148,-32],[258,-98],[-2,-29],[90,3],[133,-82],[536,-321],[484,-290],[867,-520],[866,-520],[265,-157],[440,-281],[549,-353],[349,-208],[299,-178],[68,-46],[397,-204],[34,-9],[87,-68],[46,-72],[142,-126],[92,-63],[25,-24],[94,-66],[99,-79],[63,-64],[27,-17],[34,22],[62,5],[156,35],[85,3],[477,-28],[410,-28],[81,-3],[340,-24],[265,89],[11,6],[103,16],[-9,46],[6,33],[-25,39],[13,14],[101,7],[23,-35],[34,-20],[51,-129],[102,-47],[144,3],[11,17],[56,-34],[64,0],[46,-14],[153,-30],[18,68],[-3,54],[23,21],[38,1],[18,-14],[36,-73],[82,-114],[15,-45],[32,-14],[193,-53],[397,-110],[87,-21],[183,-55],[89,-30],[99,1],[183,12],[0,39],[27,30],[37,-9],[42,2],[9,-22],[95,-18],[32,6],[19,-33],[60,-23],[19,61],[60,3],[20,21],[78,-3],[30,22],[0,0],[82,26],[23,-4],[42,16],[15,-23],[70,-63],[114,-50],[92,-2],[33,-15],[-6,-34],[27,-1],[39,-24],[69,-33],[56,14],[12,-7],[13,-60],[181,13],[26,-14],[63,-11],[54,0],[59,-22],[69,33],[26,5],[96,-4],[44,44],[38,61],[34,4]],[[23116,21866],[-47,31],[13,50],[-38,51],[-5,69],[-25,15],[1,50],[-28,10],[-20,25],[-67,26],[0,20],[-40,10],[-10,26],[-60,41],[-18,56],[22,29],[-74,39],[27,53],[-12,20],[-52,43],[-43,8],[-25,29],[25,84],[-36,10],[-17,47],[-43,4],[-25,64],[8,38],[-36,123],[-17,20],[-45,21],[-4,19],[-54,38],[-15,-2],[-44,34],[-10,41],[-85,56],[-37,11],[-19,29],[-32,20],[-29,-4],[-60,34],[-80,28],[-22,27],[15,304],[11,112],[-107,42],[-69,181],[-82,212],[-116,307],[-150,395],[-74,226],[-96,293],[-345,-146],[-50,-20],[-247,-105],[-198,-82],[-378,-159],[-261,-84],[-252,-78],[-61,-17],[-81,-25],[-129,-42],[-177,-58],[-164,-50],[-111,-35],[-5,-48],[-21,-30],[-7,-98],[3,-124],[19,-73],[46,1],[25,0],[32,-231],[-79,-88],[-40,-32],[-46,2],[-2,-1],[-90,-2],[-24,-33],[-21,-51],[15,-22],[-1,-34],[2,-17],[-21,-47],[13,-17],[-25,-42],[-31,-25],[-6,-21],[-171,46],[-182,45],[-195,70],[-150,-8],[-3,-52],[-106,-68],[-7,0]],[[17738,23480],[35,27],[13,46],[31,26],[-9,28],[18,19],[-12,26],[3,54],[-15,41],[4,131],[-44,17],[-23,27],[-8,30],[10,40],[-50,31],[-2,58],[-31,45],[-46,20],[-9,17],[-6,76],[-16,50],[-1,39],[12,48],[33,35],[21,92],[-8,61],[52,66],[-522,49],[-361,39],[-978,108],[-181,22],[-476,52],[-92,5],[18,35],[2,35],[-11,31],[50,65],[19,0],[21,33],[26,-11],[11,69],[30,27],[61,8],[3,50],[21,35],[-4,36],[12,24],[40,-6],[10,47],[16,16],[-7,85],[7,168],[23,27],[-3,43]],[[15425,25722],[23,59],[46,-41],[25,-11],[100,-1],[31,17],[36,-11],[51,13],[28,17],[25,-6],[239,81],[48,25],[53,-33],[17,8],[4,57],[73,17],[32,0],[62,28],[38,-37],[35,14],[33,-25],[17,-56],[47,-35],[22,9],[57,-4],[-2,-35],[49,0],[25,-44],[39,9],[55,-12],[81,19],[68,-34],[33,-1],[64,52],[29,11],[50,51],[50,3],[46,-29],[29,-29],[12,-33],[46,-29],[38,-13],[15,-31],[41,-42],[25,-84],[32,-42],[13,-49],[27,-20],[37,-53],[3,-46],[45,-52],[43,-17],[-7,-34],[26,-22],[32,-58],[-5,-31],[8,-66],[41,3],[15,-15],[-4,-45],[44,3],[37,-25],[68,-31],[28,8],[130,5],[18,16],[44,-13],[32,12],[25,-8],[74,24],[26,32],[27,2],[26,-22],[67,6],[19,-19],[-4,-47],[62,-9],[44,-33],[51,18],[46,-23],[18,3],[26,37],[34,15],[48,-32],[38,8],[48,-2],[42,7],[12,20],[2,44],[41,5],[23,18],[46,-4],[72,43],[42,2],[18,-18],[29,15],[15,105],[23,-1],[36,48],[36,-1],[59,17],[40,51],[23,-18],[19,71],[33,30],[36,0],[33,18],[34,-1],[21,-35],[59,-23],[22,34],[25,-2],[26,25],[19,36],[52,6],[27,-18],[47,7],[36,18],[45,-1],[44,-27],[47,21],[74,1],[33,16],[71,7],[44,55],[-14,24],[7,39],[25,43],[56,23],[42,35],[32,7],[21,63],[17,5],[46,-18],[37,-54],[32,0],[1,-25],[41,-18],[21,-25],[25,30],[22,-4],[78,75],[35,47],[52,5],[16,28],[68,21],[2,20],[66,83],[40,4],[31,44],[29,5],[20,25],[-6,36],[30,20],[8,-38],[34,4],[60,-39],[49,-8],[25,-31],[36,-19],[81,23],[44,-2],[-166,104],[-44,706],[-20,352],[-7,158],[-11,116],[-356,431],[-69,81],[-14,284],[0,65]],[[23114,21862],[-16,-14],[-72,-14],[-47,13],[-12,-33],[-29,-32],[-27,2],[-18,26],[-48,11],[-24,23],[-72,46],[-25,9],[-40,-5],[-45,-21],[-29,31],[-64,39]],[[22546,21943],[-49,20],[12,28],[-27,29],[-27,11],[-16,40],[-64,33],[-37,0],[-21,16],[-82,5],[-18,-30],[-40,30],[-1,19],[-36,7],[-17,58],[-36,9],[7,27],[-56,15],[-22,19],[-80,-18],[-26,14],[-70,38],[-61,8],[-99,86],[-69,31],[-45,-10],[-32,30],[-49,-40],[-45,4],[-34,-27],[-34,-65],[-44,21],[-22,-41],[-28,8],[-30,-8],[-59,19],[-12,-16],[-40,24],[-123,60],[-82,70],[-36,14],[-38,-2],[-84,7],[-24,21],[-15,-38],[-40,3],[-30,44],[-81,-37],[-16,33],[-49,4],[-65,-111],[-36,-50],[67,-26],[-26,-46],[60,12],[25,-8],[83,-9],[1,-43],[43,-21],[38,16],[-36,-28],[-60,5],[-20,10],[-127,-6],[-38,-12],[-16,-29],[-11,-64],[3,-30],[-51,-57],[-3,-76],[55,-21],[-52,-28],[-1,-32],[36,-12],[-41,-30],[-33,-9],[2,-23],[-57,-18],[16,-43],[-72,-35],[-5,-15],[-16,-22],[37,-56],[-76,-49],[-248,-124],[0,-2],[-30,-25],[-66,41],[-55,9],[-38,-48],[-35,-74],[-21,-23],[-63,-23],[-23,-28],[-60,-18],[-21,5],[-143,-8],[-27,-18],[-87,6],[-7,-40],[-35,-4],[-22,15],[-65,1],[-101,38],[-48,48],[-56,0],[-57,27],[-32,27],[-44,12],[-67,-22],[-71,20],[-84,-7],[-42,-14],[-129,4],[-990,158]],[[17376,21483],[-2,1]],[[17374,21484],[-3,1]],[[17371,21485],[-1,1],[-1,1],[-362,218],[-401,241],[-120,73],[-23,21],[4,22],[-60,43]],[[16407,22105],[-43,34],[-29,65],[-18,8],[-14,42],[-68,52],[109,73],[106,-1],[98,30],[18,27],[90,26],[94,6],[76,35],[30,30],[55,12],[72,34],[7,80],[29,5],[65,-8],[52,67],[101,91],[-5,42],[6,63],[71,68],[35,18],[27,28],[64,31],[65,-12],[45,26],[-19,38],[57,5],[1,76],[27,34],[3,43],[17,26],[-4,30],[30,4],[12,48],[-23,30],[92,69]],[[22546,21943],[-25,-21],[-22,-53],[-58,-41],[-10,-33],[-29,4],[-31,-15],[-27,-37],[-50,13],[-8,14],[-52,13],[-38,-29],[-50,-17],[-20,-24],[-34,-17],[-45,-55],[-3,-41],[-25,-12],[-9,-49],[5,-26],[-51,-14],[-19,-24],[-40,-13],[-9,-70],[0,-72],[-16,-48],[-93,-149],[6,-22],[-15,-37],[-41,-12],[-29,3],[-33,-18],[-23,-61],[-44,-29],[-13,-26],[-59,-42],[-40,5],[-22,-18],[-68,25],[-83,4],[-87,-11],[-57,0],[-65,11],[-41,31],[-61,0],[-47,8],[-35,-12],[-20,-39],[-1,-50],[-48,-68],[-18,-61],[26,-17],[0,-37],[-21,-3],[-46,-101],[31,-34],[-53,-50],[30,-24],[4,-35],[-25,-36],[1,-62],[-24,-14],[0,-52],[-64,-66],[-81,-11]],[[20621,20166],[-33,9],[-25,-11],[-24,19],[9,38],[-35,12],[-34,-5],[-14,29],[-30,10],[-2,46],[-54,12],[4,49],[29,22],[2,39],[-35,18],[23,65],[-20,33],[-26,16],[-28,-25],[-37,-9],[1,-28],[-13,-48],[-27,-26],[5,-53],[-61,-25],[-24,-24],[-25,-53],[-56,-1],[-53,-55],[-40,-26],[0,-22],[-98,-65],[-47,-15],[-17,-23],[-25,9],[-57,-18],[-54,-1],[-15,13],[-74,3],[-77,-27],[-33,4],[-18,24],[-73,17],[-6,14],[-43,10],[-17,21],[-47,31],[-57,4],[-46,18],[-20,29],[-58,35],[-38,36],[-3,25],[-32,28],[-41,-3],[-47,13],[-9,15],[-57,1],[-77,48],[-17,25],[-28,-1],[-53,29],[-19,-11],[-58,25],[-16,12],[-667,529],[-578,457]],[[20621,20166],[-6,-29],[-33,-67],[-40,-45],[-40,-38],[-20,-52],[-76,-148],[-35,-56],[-33,-75],[31,-93],[-11,-75],[-16,-56],[24,-19],[77,-54],[-6,-17],[93,-95],[17,-13],[-31,-34],[-50,-38],[-70,-34],[-2,-45],[13,-79],[-4,-39],[49,-20],[-28,-89],[12,-27],[57,-1],[10,-71],[12,-17],[-22,-63],[-53,-92],[-50,-29],[9,-59],[-45,-13],[-22,-71],[20,-20],[-67,-46],[-25,7],[-109,-7]],[[20151,18347],[-34,6],[-34,-14],[-24,35],[-38,4],[-22,-16],[-44,2],[-22,16],[-40,-57],[-38,-30],[-41,-14],[-45,21],[-70,-9],[-12,49],[-30,42],[-13,72],[-21,46],[-59,20],[-38,-26],[-62,2],[-74,-24],[2,-20],[-33,-29],[-51,0],[-9,-108],[-36,-68],[-10,-32],[-55,-38],[-14,-4],[-67,26],[-28,-16],[-21,25],[-36,2],[-13,-60],[-36,6],[-21,-18],[-60,-4],[-17,-32],[-26,8],[-45,-24],[23,-21],[-24,-40],[-60,8],[-60,-12],[-23,21],[-43,-44],[-70,-22],[-25,-33],[18,-49],[-12,-24],[-76,-24],[-12,12],[-2,50],[-67,20],[-33,-17],[-62,26],[-33,24],[-34,36],[15,46],[-38,16],[-28,-10],[-13,21],[-34,-4],[-38,18],[-6,22],[-59,5],[-22,-19],[-89,34],[20,28],[-23,16],[-38,-10],[-26,-21],[-50,8],[-56,-8],[0,25],[-35,8],[-35,22],[-31,6],[-35,-10],[-43,17],[-33,-21],[-51,17],[-35,32],[-33,81],[-52,36],[10,46],[-29,30],[-31,11],[-44,51],[-90,-21]],[[17167,18469],[-2,35],[48,111],[105,6],[35,18],[58,5],[12,-43],[15,-15],[29,-23],[106,-35],[61,12],[3,40],[65,-13],[85,52],[95,24],[82,3],[116,79],[95,-15],[4,28],[38,15],[74,-15],[38,-16],[18,9],[-38,54],[-57,40],[9,86],[-29,61],[14,8],[6,42],[-29,96],[31,42],[4,49],[40,32],[-1,60],[-45,72],[37,56],[-47,61],[-10,59],[-56,13],[-9,25],[-44,4],[-30,29],[-2,58],[-60,46],[-41,53],[-9,31],[25,38],[-34,66],[12,42],[13,38],[-3,84],[-27,13],[18,67],[-11,43],[-1,5],[-257,548],[-342,732]],[[23531,8039],[-1,116],[-35,11],[-3,36],[-23,24],[-17,38],[-46,-3],[-8,45],[-40,79],[-30,38],[2,24],[-55,19],[23,40],[-9,23],[-53,8],[10,47],[-33,19],[5,28],[-39,17],[-21,29],[16,24],[-3,37],[-18,35],[-6,49],[-40,26],[21,35],[6,43],[41,20],[7,16],[-31,52],[-3,23],[-39,76],[-24,29],[-11,51],[-30,44],[-45,111],[-36,66],[-19,67],[-26,47],[3,25],[-78,68],[2,36],[-24,17],[-3,32],[-47,121],[-19,31],[-14,55],[-39,13],[-24,83],[-15,20],[32,42],[-33,22],[-46,13],[6,26],[-21,38],[5,35],[-15,13],[-5,44],[-22,12],[-4,51],[-42,11],[-34,51],[-39,21],[-37,155],[-9,11],[-31,114],[-14,11],[-110,13],[-35,39],[-35,7],[-19,34],[-58,22],[-16,73],[-45,130],[-59,5],[-16,30],[-50,42],[-59,0],[-115,51],[-19,26],[-67,6],[-55,11],[-22,17],[-19,18],[-7,50],[-30,6],[5,75],[-37,10],[-26,47],[-38,0],[-26,14],[-5,32],[-23,15],[-46,57],[0,36],[-15,73],[-26,29],[30,24],[-36,15],[-36,69],[-7,46],[-32,27],[12,36],[-35,31],[-36,-1],[-47,21],[-26,63],[-19,12],[-71,-31],[-85,-16],[-37,-20],[-73,-25],[-17,99],[-50,62],[2,46],[12,44],[-2,31],[15,21],[-10,29],[15,82],[-8,65],[-24,32],[4,39],[-19,50],[-35,9],[-28,25],[23,40],[-25,26],[9,40],[-24,16],[6,23],[-46,30],[-54,144],[11,13],[-17,35],[13,28],[-13,43],[-26,42],[18,84],[25,19],[1,33],[-53,-8],[-24,13],[7,44],[-20,51],[-10,48],[2,45],[-41,14],[-30,-2],[-15,40],[17,33],[29,20],[-34,30],[-31,7],[-68,71],[-21,14],[-91,86],[-40,81],[-1,36],[19,16],[41,-11],[24,28],[9,48],[-11,63],[-16,48],[-31,41],[6,34],[-25,22],[-25,-1],[9,94],[-30,9],[-9,21],[-55,20],[14,47],[-12,29],[-52,27],[-34,79],[-23,42],[-33,31],[-7,32],[-35,37],[-7,30],[-31,41],[-22,59],[-42,15],[-59,70]],[[19675,14762],[-24,60],[-30,1],[-42,41],[-48,95],[-26,9],[-34,61],[-67,10],[-31,47],[37,34],[52,11],[35,-22],[93,-15],[123,38],[69,6],[21,21],[12,48],[44,33],[47,46],[55,38],[36,15],[-30,97],[0,21],[-27,81],[-5,44],[-24,5],[-51,71],[-38,24],[-29,48],[-45,26],[-45,7],[-44,-16],[-22,6],[-8,34],[-24,11],[-17,29],[-23,7],[1,21],[-54,111],[-42,105],[-27,14],[-22,51],[-39,40],[5,14],[-40,73],[-3,37],[-21,32],[-37,5],[-106,126],[-11,31],[-27,16],[-14,43],[-48,97],[-54,70],[-35,42],[-54,19],[-32,-5],[-16,45],[-19,4],[-12,215],[83,1],[152,10],[104,10],[220,16],[63,8],[137,2],[39,-43],[225,-185],[43,47],[30,72],[2,35],[56,58],[9,44],[34,-3],[24,17],[21,44],[39,34],[24,44],[-10,59],[12,15],[7,96],[-14,44],[24,34],[58,33],[32,28],[-22,37],[-33,16],[-47,-2],[27,36],[-11,39],[-26,18],[30,36],[-6,25],[-63,62],[-3,51],[-26,10],[-24,29],[-53,7],[20,22],[-11,62],[37,53],[-3,25],[14,40],[33,27],[42,51],[-17,28],[42,10],[-6,54],[-22,14],[7,37]],[[19675,14762],[-42,-13],[-45,-28],[-28,-27],[21,-13],[-2,-44],[-36,-20],[4,-25],[-50,-31],[-40,26],[-47,86],[-39,13],[-53,-27],[-16,-28],[-14,-76],[25,-44],[-10,-33],[-49,-34],[-17,-40],[-40,-14],[-23,35],[-6,34],[-32,7],[-33,95],[-6,61],[-17,35],[-36,-5],[-36,34],[-25,44],[0,23],[-24,21],[-23,-11],[-17,24],[-34,17],[-22,29],[-26,-27],[-41,-14],[-27,-26],[-13,38],[-61,-10],[-69,73],[25,19],[-22,18],[-34,-19],[-44,3],[-49,16],[-23,-6],[-43,64],[-29,-15],[-56,15],[-57,42],[-142,-17],[-38,-22],[-15,-25],[-74,-14],[-72,9],[-116,46],[-58,3],[-37,3],[-42,-47],[-34,-16],[-13,-22],[-61,-58],[-3,45],[21,49],[-18,28],[-39,-20],[-43,-38],[-11,-21],[-43,-6],[-30,-21],[-12,-25],[-34,15],[-19,-34],[-44,-19],[-71,-17],[-29,-15],[-127,27],[-18,-15],[-93,-120],[-17,-15],[-156,-62],[-115,-58],[-90,156],[-39,81],[-56,27],[-330,-168],[-242,-124]],[[15934,14494],[-118,145],[-31,-24],[-48,58],[33,22],[-55,68],[-44,66],[-33,7],[14,45],[-26,27],[31,41],[-9,22],[12,29],[51,30],[-7,28],[20,31],[-7,39],[32,-6],[28,70],[23,5],[20,52],[-5,30],[22,44],[-6,59],[-19,25],[0,44],[-48,11],[-1,-30],[-18,-29],[-48,-36],[-65,28],[-36,-1],[-40,23]],[[15556,15417],[-46,38],[-7,47],[-20,42],[-71,44],[-27,0],[-13,42],[-36,59],[-26,35],[37,27],[36,23],[-15,18],[74,62],[39,22],[6,24],[56,15],[53,38],[102,16],[-49,118],[0,1],[108,38],[37,-91],[127,41],[209,-45],[27,4],[1,31],[20,39],[37,12],[19,28],[55,20],[24,24],[1,37]],[[16314,16226],[38,8],[-4,54],[50,-4],[-3,45],[45,25],[46,-2],[31,36],[45,-1],[21,22],[5,42],[20,35],[-18,27],[-3,11],[52,36],[39,67],[42,35],[-3,44],[25,50],[-13,17],[20,28],[-41,48],[-18,60],[36,33],[27,11],[16,45],[50,28],[58,52],[57,4],[51,17],[66,-15],[0,0],[19,-5],[68,63],[40,-8],[63,6],[35,-20],[47,-6],[78,-70],[11,-23],[52,-28],[8,-14],[72,-61],[10,-22],[104,111]],[[17658,17007],[0,1],[129,171],[78,51],[94,59],[-10,14],[-68,90],[-226,116],[-56,5],[-27,49],[50,27],[-52,62],[-14,-15],[-42,11],[-28,30],[-25,102],[-37,38],[10,15],[-100,64],[-93,43],[-95,96],[-56,74],[-49,0],[-11,13],[-76,29],[36,67],[129,1],[18,145],[3,68],[25,36]],[[17165,18469],[2,0]],[[17800,14370],[27,-53],[24,-13],[6,-39],[23,-20],[9,-42],[27,-15],[-57,-29],[-17,3],[-43,-24],[-73,-29],[-70,5],[-38,-12],[-46,6],[-145,-26],[-31,40],[-130,-78],[73,-165],[-44,8],[-29,-26],[-39,-52],[-73,36],[-110,116],[-13,-14],[-179,43],[-52,29],[-11,187],[-14,142],[-8,22],[69,29],[38,24],[9,19],[39,24],[-2,22],[43,38],[25,42],[39,-77],[55,11],[3,-64],[69,54],[62,-24],[22,-38],[33,38],[27,-59],[34,1],[78,-48],[86,4],[71,-24],[18,-14],[84,-13],[31,28],[66,24],[34,3]],[[20627,9044],[-42,45],[-17,63],[0,41],[14,10],[6,75],[-35,72],[-17,15],[-57,2],[-41,13],[-43,124],[-73,68],[-18,31],[-27,41],[-35,79],[-75,119],[-177,185],[-251,265],[-168,188],[-438,462],[-129,134],[-141,151],[56,15],[-2,28],[51,28],[37,-34],[70,29],[45,10],[15,23],[48,20],[33,-17],[36,57],[5,42],[30,28],[-12,19],[11,28],[1,50],[-13,14],[-7,54],[46,20],[24,41],[35,28],[53,69],[87,36],[-72,24],[-10,45],[-40,41],[-31,-2],[-136,44],[-18,0],[-206,-25],[-27,1],[-124,35],[-104,74],[-44,51],[-66,-1],[-46,22],[6,32],[-36,22],[-13,22],[-61,23],[-108,40],[-105,34],[-117,46],[-36,13],[-102,66],[-259,174],[-98,46],[-20,8],[-235,22],[-26,24],[-63,-1],[-88,45],[-18,81],[-40,50],[-13,32],[-40,4],[-50,35],[-19,35],[-48,38],[-62,12],[-67,4],[-23,-11],[-41,8],[-43,-11],[-36,25],[0,30],[-44,18],[-66,90],[-42,67],[29,7],[7,48],[13,9],[-4,78],[-27,27],[-2,22],[-69,48],[1,65],[13,21],[-19,26],[54,50],[-6,27],[46,72],[-10,19],[-33,8],[33,54],[-40,13],[-18,41],[10,50],[-12,23],[-33,4],[-30,-20],[-53,8],[-59,19],[-14,15],[-383,469],[-35,44]],[[11970,22195],[57,1],[105,62],[13,-41],[27,4],[22,57],[128,18],[-2,26],[74,21],[19,13],[29,-78],[186,60],[65,9],[-3,30],[33,12],[52,-3],[51,30],[-131,55],[111,127],[109,33],[79,165],[28,60],[82,-89],[155,-154],[37,-115],[26,-68],[29,8],[244,86],[3,-4],[70,-109],[11,-85],[54,-107],[32,-2],[81,29],[62,22],[67,-141],[-60,-6],[-249,-10],[-41,-7],[-26,-51],[-57,-45],[-24,-6],[-2,-26],[-26,-28],[0,-28],[-21,-42],[47,-36],[-26,-61],[33,6],[50,-67],[7,-5],[111,7],[209,-21],[106,-220],[20,3]],[[14026,21484],[155,-104],[-36,-4],[9,-44],[-169,-282],[-53,-96],[-50,-80],[-71,-114],[-16,-59],[-30,-70],[1,-44],[40,-69],[-59,-46],[3,-49],[53,-14],[77,-41],[-3,-24],[-37,-40],[51,-53],[89,-107],[2,-62],[1,-52],[59,-24],[23,-51],[-4,-40],[-34,-61],[106,-395],[-3,-48]],[[14130,19411],[-11,-87],[-25,-213],[-6,-40],[173,-169],[17,-22],[25,-68],[1,-54],[16,-41],[4,-67],[19,-67],[40,-47],[-6,-33],[-33,-31],[13,-32],[-10,-60]],[[14347,18380],[-55,68],[-57,64],[-77,70],[-70,21],[-31,-20],[-38,-22],[-23,16],[-36,-31],[12,-16],[50,7],[77,-24],[-270,-238],[5,-16],[-174,17],[13,-98],[52,-69],[-62,-124],[-49,-16],[-66,-42],[-22,-26],[46,-17],[-91,-47]],[[13481,17837],[-45,53],[10,53],[37,124],[-12,79],[47,62],[-10,18],[-68,241],[-81,276],[-50,89],[120,66],[-120,209],[27,16],[-15,63],[-34,17],[8,34],[-22,8],[-10,62],[-30,-58],[-84,-8],[-113,-10],[-62,69],[-24,220],[-42,-22],[-189,-21],[-7,3],[-11,63],[18,41],[-21,26],[6,39],[-18,11],[4,35],[22,22],[-26,37],[15,21],[-5,31],[-27,16],[6,62],[-29,63],[-9,49],[-19,26],[11,78],[-12,22],[-5,56],[-35,20],[8,57],[-14,30],[-62,35],[-9,13],[-23,78],[-127,-51],[-110,13],[-6,82],[-98,-25],[-93,-88],[-2,6],[-64,229],[-57,-4],[-45,-13],[-20,15],[-34,0],[-24,-39],[-16,31],[-18,76],[-39,169],[-4,58],[-2,56],[158,65],[14,6],[-31,85],[-22,40],[-61,84],[-41,14],[-23,23],[2,51],[-18,75],[-40,189],[26,32],[52,59],[18,20],[7,36],[39,-7],[-6,-38],[102,-17],[24,164],[-2,115],[-18,18],[25,39],[13,56],[-11,11],[23,45],[4,48],[18,56]],[[17371,21485],[-538,-1301],[3,-7],[-24,-21],[2,-43],[-61,-11],[-28,16],[-33,-20],[-2,-97],[-29,-97],[-37,-35],[39,-86],[-14,-31],[-64,-45],[-27,14],[-20,-18],[17,-45],[17,-5],[-20,-122],[-20,1],[-5,-32],[33,-33],[-5,-23],[51,-53],[38,-9],[20,-23],[40,-11],[8,-49],[-29,-28],[-25,-93]],[[16658,19178],[-23,4],[-53,-3],[-23,-12],[-56,6],[-62,-33],[-36,-5],[-101,45],[0,39],[-38,18],[-41,1],[-18,22],[-73,41],[-44,0],[-20,42],[-34,33],[-78,20],[-42,-1],[-50,30],[-104,0],[-11,39],[-47,5],[-42,-16],[-50,-35],[-48,-5],[-39,-30],[-61,-14],[-73,-36],[-21,6],[-24,-28],[-108,6],[-45,-13],[-17,15],[-81,15],[-30,-8],[-77,61],[-41,-4],[-81,52],[-63,14],[-6,43],[-43,13],[-27,-10],[-66,17],[-118,-5],[-51,-14],[-74,24],[-61,-23],[-83,-81],[13,-28],[1,-118],[-13,-39],[-38,27],[-81,106],[-26,50]],[[14026,21484],[265,82],[29,31],[191,41],[62,50],[16,-24],[124,35],[176,14],[21,-1],[3,-145],[85,-12],[68,-27],[-12,-49],[23,-21],[10,-46],[33,-45],[-33,-49],[-28,-6],[-47,-45],[-24,10],[-33,-11],[26,-66],[-6,-40],[68,-164],[74,37],[3,-22],[47,-33],[403,-111],[16,43],[36,14],[-8,18],[14,37],[28,13],[62,-10],[55,24],[32,37],[33,17],[15,42],[-27,48],[15,57],[13,16],[33,137],[-30,105],[-18,8],[-11,39],[-79,31],[-45,47],[-13,161],[-22,90],[1,29],[61,22],[52,9],[131,67],[10,21],[120,136],[14,41],[44,39],[33,-19],[18,39],[31,14],[-2,-41],[67,-74],[50,-36],[68,-63],[40,80]],[[17165,18469],[-8,5],[-16,19],[-3,62],[-11,7],[-17,64],[70,1],[-39,31],[14,19],[-41,40],[-10,67],[-62,62],[-25,127],[-25,58],[-47,-34],[-57,-72],[-18,40],[-32,25],[-5,33],[-9,27],[-97,-16],[-26,56],[-44,32],[16,21],[-15,35]],[[17658,17007],[-24,19],[-51,-3],[-50,58],[-23,-11],[-44,17],[-58,66],[-20,-13],[-59,60],[-32,22],[-100,108],[-22,10],[-24,35],[-75,-20],[-25,-16],[-34,4],[-36,29],[-30,-26],[-55,-32],[-4,-17],[-48,-5],[-35,-26],[-35,-12],[-77,43],[-16,-51],[-62,-21],[-37,-21],[-55,19],[-43,-4],[-18,10],[-56,-18],[-28,51],[-76,35],[-15,-14],[-30,18],[-45,6],[-29,3],[-57,44],[-34,-51],[-54,-6],[-51,8],[-38,17],[-49,77],[-29,11],[-61,52],[-79,48],[-46,47],[-80,23],[-34,43],[-22,45],[-39,22],[-164,94],[-43,81],[-76,12],[-43,73],[-71,32],[-20,-11],[-31,19],[-11,23],[-49,2],[-69,43],[-23,-2],[-61,55],[-21,1],[-28,29],[-113,55],[-22,22],[-68,37],[-104,-3],[-24,25],[-22,44],[-51,34],[-29,1],[-24,24]],[[16314,16226],[-13,21],[-68,10],[2,19],[48,16],[-44,61],[-41,-18],[-90,152],[-29,-19],[-22,11],[-43,-26],[-31,-1],[-73,-66],[-36,-2],[-32,-46],[-25,1],[-59,17],[-19,36],[-37,8],[-78,-28],[-41,9],[-26,-8],[-95,33],[-27,1],[-5,-3],[-49,22],[-50,50],[18,17],[11,12],[11,11],[1,1],[43,41],[14,14],[57,55],[-20,15],[-60,16],[-39,30],[-79,12],[-32,-5],[-50,-60],[26,-37],[5,-9],[31,-52],[3,-4],[0,-1],[-74,0],[-50,-14],[-71,41],[-9,-32],[-46,-29],[-16,-49],[-41,13],[-47,0],[11,-24],[-192,98],[-40,1],[-23,-55],[23,-14],[-24,-32],[-32,-53],[-41,3],[-71,36],[-6,-10],[-15,-23],[-1,-2],[-32,-51],[-92,13],[-7,-53],[-19,-1],[12,-19],[-23,-37],[-7,-33],[-23,18],[-68,10],[-48,-29],[14,-22],[-39,-66],[-25,-33],[-14,-43],[-31,-40],[-24,6],[-23,-41]],[[14057,15966],[-30,53],[-124,25],[-252,44],[-496,90],[112,134],[22,69],[80,260],[24,89]],[[13393,16730],[39,129],[116,124],[13,-10],[111,185],[2,32],[-20,64],[15,84],[23,81],[7,63],[-8,44],[-19,3],[-22,49],[5,46],[-40,82],[-35,21],[38,64],[-30,24],[-21,-19],[-84,13],[-2,28]],[[13726,33609],[-5,-203],[328,-143],[308,-137],[-9,-74],[7,-53],[-76,-50],[-5,-17],[33,-37],[-4,-42],[-19,-35],[17,-33],[-14,-40],[-34,-8],[-15,-33],[12,-48],[-8,-20],[-78,-15],[-86,-48],[-69,-60],[-85,-36],[-117,-25],[-142,-74],[-30,-36],[-10,-46],[-19,-48],[-68,-59],[5,-98],[-1,-2],[0,-32],[17,-98],[-68,-38],[-6,-42],[-22,-37],[-22,-4],[-11,-43],[17,-32],[0,-34],[-35,-15],[12,-78],[-20,-45],[-2,-32],[-23,-35],[-14,-45],[26,-11],[8,-181],[-5,-64],[-27,-11],[-42,-65],[-47,-40],[-1,-64],[7,-55],[42,-48],[-16,-56],[-33,-1],[23,-95],[56,-13],[5,-16],[-44,-94],[-32,-15],[-21,-57],[34,-29],[-1,-26],[43,5],[-51,-80],[-20,-14],[-65,-113],[-70,-54],[1,-41],[-19,-62],[-26,-38],[-2,-31],[-42,-59],[-7,-90],[-37,-96],[-81,17],[-32,-35],[-45,-109],[-44,-64],[-58,-67],[-68,-158],[-39,-15],[-30,40],[-28,19],[-22,36],[0,48],[-10,71],[21,34],[3,44],[-40,46],[-58,-48],[-4,-64],[-53,-9],[-50,14],[-31,-7],[-30,-23],[-76,-84],[-53,-25],[-15,-64],[-16,-32],[1,-103],[23,-61],[-56,-100],[19,-18],[127,31],[50,-28],[81,-92],[61,-42],[71,5],[89,30],[38,0],[46,-54],[41,-25],[60,-56],[29,-3],[4,-35],[51,16],[66,-10],[21,-51],[33,18],[27,-12],[2,-73],[-16,-42],[-112,-64],[-35,-41],[-62,-38],[-7,-52],[-42,-26],[-51,-60],[-32,6],[-19,-18],[26,-32],[33,-8],[8,-29],[46,-4],[28,-15],[33,23],[47,15],[10,-12],[-4,-50],[37,-59],[34,-36],[9,-75],[-18,-12],[-14,1],[-85,69],[-33,1],[-39,37],[-32,17],[-22,-20],[-46,15],[-11,-36],[-30,-27],[42,-43],[41,-13],[26,5],[52,-63],[6,-24],[-18,-41],[-26,27],[-36,-10],[-57,-49],[12,-44],[-4,-79],[-38,-33],[13,-58],[30,-7],[83,35],[29,26],[67,-34],[45,-8],[15,-17],[-11,-56],[-27,-46],[-7,-66],[28,-27],[23,-73],[-1,-30],[-19,-34],[-5,-95],[23,-43],[-11,-46],[13,-47],[-11,-53],[63,-139],[1,-65],[-26,-63],[-39,-83],[-94,-141],[-70,-65],[-86,-69],[5,-6]],[[12659,26518],[-11,8],[3,35],[-35,38],[9,15],[-1,86],[-19,8],[-2,16],[-98,23],[-7,23],[-61,12],[-23,38],[-12,63],[-20,29],[-120,-12],[-53,56],[-241,278],[-132,148],[-94,118],[-129,141],[-96,111],[-110,0],[-286,-7],[-252,361],[-162,229],[-91,135],[-106,148],[-100,149],[-52,66],[-66,102],[-135,197],[-383,547],[-261,376]],[[9513,30055],[-7,17],[-12,22],[-55,11],[-67,36],[-104,24],[-182,121],[-47,26],[-74,50],[-27,7],[-23,38],[-89,40],[-20,20],[-63,20],[-44,-1],[-40,19],[-60,2],[-53,54],[-24,8],[-61,-20],[-102,15],[-68,16],[-23,-10],[-61,-2],[-48,6],[-40,24],[-64,-16],[-45,12],[12,28],[-59,55],[-16,48],[-28,14],[-23,85],[12,26],[-8,61],[-35,31],[-69,25],[-42,43],[-340,301],[-36,31],[-39,12],[22,69],[40,28],[-64,138],[-31,122],[-18,51],[-41,70],[-24,71],[-16,182],[-13,52],[-23,44],[-4,87],[14,109],[-17,84],[-12,47],[-83,188],[-28,73],[-41,81],[-42,136],[-21,48],[-32,102],[-47,96],[-18,78],[-15,36],[-80,244],[-12,84],[-27,73],[6,64],[-45,58],[-10,42],[-37,68],[-5,86],[32,170],[4,113],[-1,71],[-24,31],[-114,77],[-92,89],[-72,96],[-104,54],[-77,15],[-38,0],[-26,-72],[0,-41],[-8,-48],[-36,-31],[-20,-42],[-41,-133],[-19,-118],[35,-89],[-14,-71],[-36,-57],[-25,-19],[-49,-6],[-39,8],[-6,-46],[-41,23],[-73,67],[-131,59],[-93,49],[-13,-240],[4,-30],[-26,-172],[-9,-26],[-33,-12],[-47,27],[-39,32],[-121,55]],[[5223,33848],[-84,191],[-34,101],[-100,0],[-35,116],[-38,197],[-23,45],[-73,-10],[-4,-80],[-56,-10],[-91,67],[-42,48],[-65,118],[-40,47],[-102,98],[-33,56],[-40,100],[-61,56],[-10,37],[13,44],[30,137],[-10,130],[-29,125],[-45,118],[-39,38],[-57,-10],[-39,101],[-25,34],[-40,27],[-71,18],[-31,45],[-43,7],[-35,-55],[-114,-1],[-79,14],[-18,16],[-56,140],[-6,29],[-28,22],[-129,44],[-54,27],[-22,69],[-31,168],[-6,121],[-54,94],[-11,92],[6,196],[-10,86],[-86,72],[-61,119],[-154,54],[-46,-4],[-69,-33],[-35,85],[-33,34],[-42,21],[-56,11],[-28,42],[5,89],[-27,106],[-2,63],[-11,85],[-3,103],[-15,54],[-91,245],[-49,70],[-90,77],[-8,28],[7,171],[67,57],[22,40],[-2,49],[-18,46],[-35,62],[-85,70],[-14,29],[13,31],[33,-22],[93,4],[49,9],[92,72],[47,73],[15,171],[8,84],[-10,141],[1,57],[28,145],[11,80],[-19,35],[-104,47],[-63,21],[-64,11],[-48,16],[-32,54],[-52,70],[-65,65],[-106,8],[-80,-9],[-89,-30],[-40,-56],[-42,-131],[-16,13],[16,77],[-19,44],[-94,66],[-63,54],[-31,35],[-57,104],[-46,54],[-50,5],[-27,-11],[-17,-29],[-33,40],[-58,-9],[-69,-30],[-131,-38],[-18,6],[-17,36],[117,39],[7,16],[-25,49],[-71,12],[-47,-14],[-42,13],[0,40],[59,30],[52,71],[87,16],[104,3],[49,-7],[24,37],[-7,77],[-44,118],[-18,8],[-121,-5],[-74,-12],[-55,-45],[-75,-5],[-45,10],[-129,-5],[-105,-33],[-32,-1],[-11,25],[4,56],[37,47],[88,35],[23,24],[30,66],[15,73],[33,122],[-11,25],[-107,52],[-51,37],[-34,40],[-65,61],[-109,40],[-11,73],[22,22],[102,24],[39,17],[10,49],[1,69],[-15,44],[-41,52],[-85,40],[-20,25],[-52,93],[4,32],[64,79],[4,16],[-91,163],[-94,80],[-45,26],[-154,110],[83,66],[229,205],[379,330],[524,462],[197,178],[135,108],[75,74],[129,102],[129,112],[163,151],[147,118],[166,150],[73,60],[286,266],[125,104],[109,80],[103,89],[111,85],[452,356],[333,265],[55,47],[295,231],[53,49],[421,376],[267,239],[401,326],[377,307],[488,681],[176,245],[712,28],[564,27],[249,0],[154,-115],[172,-54],[368,-16],[155,-66],[160,-93],[213,-21],[232,-137],[83,-81],[47,-33],[12,-44],[-71,-152],[-24,-82],[-6,-115],[54,-65],[53,-87],[6,-104],[-53,-822],[-22,-313],[0,-126],[16,-21],[133,-35],[94,-73],[74,-108],[22,-122],[31,-196],[7,-78],[5,-133],[17,-119],[2,-75],[21,-161],[14,-222],[9,-42],[28,-40],[42,-29],[26,-42],[11,-50],[7,-122],[33,-27],[40,-16],[20,-29],[-4,-21],[-66,-62],[-25,-41],[68,-70],[-51,-5],[-29,-53],[-12,-61],[15,-12],[41,-83],[-9,-113],[-31,-91],[-36,-56],[-20,-75],[12,-33],[-49,-94],[-19,-115],[-11,-110],[6,-33],[1,-125],[6,-87],[10,-47],[5,-83],[-13,-86],[27,-100],[-12,-38],[-6,-71],[0,-89],[10,-15],[4,-96],[14,-77],[28,-46],[-38,-68],[-110,-171],[-76,-138],[-66,-136],[-89,-139],[13,-74],[-38,-96],[-31,-61],[11,-77],[-2,-152],[30,-60],[19,-18],[-25,-82],[-4,-62],[15,-19],[1,-59],[-18,-70],[2,-43],[-22,-80],[5,-50],[-16,-47],[-3,-55],[-53,-75],[-35,-82],[-6,-64],[20,-47],[-10,-38],[7,-47],[17,-28],[-25,-123],[-10,-83],[6,-76],[13,-53],[20,-37],[43,-53],[113,-45],[65,-51],[35,-44],[56,-41],[46,-24],[11,-27],[-20,-55],[-29,-53],[-38,-46],[0,-50],[49,-18],[33,-44],[21,2],[32,-12],[56,31],[32,56],[-5,86],[-16,44],[-51,57],[12,32],[-36,36],[34,22],[43,-14],[31,-43],[30,-132],[8,-93],[0,-70],[16,-49],[-39,-112],[-7,-44],[-26,-99],[-2,-68],[16,-99],[-5,-36],[18,-160],[35,-63],[71,2],[71,-23],[92,-67],[65,-55],[28,-35],[40,-95],[27,-98],[20,-25],[63,-28],[70,-23],[72,-44],[47,-19],[46,2],[81,-26],[77,-5],[33,-31],[75,-18],[31,4],[-4,30],[19,31],[33,-24],[-2,-98],[-6,-45],[-55,-142],[-3,-38],[33,-23],[22,-38],[8,-97],[-12,-98],[14,-18],[-4,-46],[-20,-31],[-36,-6],[-8,-45],[16,-55],[-11,-75],[-20,-39],[-2,-66],[-31,-33],[-23,-31],[8,-14],[-16,-76],[73,-18],[-22,-45],[97,-3],[68,-10],[41,7],[32,-9],[62,10],[65,-34],[60,-7],[28,-15],[73,2],[53,-34],[69,16],[9,-77],[30,-65],[15,-69],[63,-74],[51,-24],[44,-1],[113,-64],[139,-54],[48,-4],[23,-12],[21,-32],[78,-72],[25,-44],[0,-32],[48,-102],[75,-111],[13,-32],[35,-46],[8,-61],[-2,-46],[30,-67],[27,-39],[74,-37],[1,-29],[-47,-52],[-16,-42],[11,-60],[-10,-81],[16,-37],[3,-40],[26,-49],[53,-63],[50,-12],[51,-2],[0,-33],[54,-60],[60,-77],[85,-48],[15,-15],[48,-154],[30,-26],[-4,-41],[7,-58],[-17,-79],[7,-52],[-20,-68],[-4,-44],[18,-50],[22,-31],[35,-114],[15,-18],[76,-36],[24,-4],[44,38],[37,-5],[51,16],[36,27],[51,-38]],[[9513,30055],[-43,-55],[21,-51],[39,-16],[7,-22],[-52,-10],[3,-33],[30,-39],[-29,-18],[8,-53],[-17,-20],[21,-37],[-39,-46],[-10,-91],[-28,-40],[5,-47],[-27,-8],[-12,-66],[-33,-13],[-20,-50],[-48,-5],[-15,-31],[-42,-49],[-61,-92],[20,-46],[-16,-36],[-39,-16],[-3,-25],[-26,-14],[10,-39],[-17,-12],[13,-37],[-6,-55],[22,-37],[-37,3],[-7,-26],[-20,-29],[20,-19],[-39,-44],[-3,-31],[-36,-56],[15,-31],[-16,-22],[19,-37],[47,-60],[-19,-35]],[[9053,28459],[-126,-19],[-142,-52],[-69,-19],[-6,-14],[-72,-39],[-22,-40],[-27,-10],[-86,16],[-57,45],[-51,2],[-53,-26],[-84,-4],[-133,-96],[-33,-23],[-146,-111],[-235,-181],[-70,-54],[8,-31],[26,-41],[24,-57],[46,-68],[26,-49],[-6,-45],[5,-44],[-1,-92],[19,-26],[9,-48],[-48,-14],[15,-74],[-6,-58],[11,-30],[29,-30],[43,4],[26,-17],[-5,-24],[46,-17],[-3,-76],[8,-30],[15,29],[76,-4],[38,25],[56,-9],[76,16],[55,2],[151,46],[39,-15],[52,5],[82,-8],[30,6],[92,14],[101,-32]],[[8776,27042],[-10,-62],[-30,-55],[20,-80],[-24,-33],[15,-27],[-5,-32],[-36,-31],[12,-30],[14,-116],[11,-14],[-12,-31],[-45,-20],[7,-82],[-27,-21],[23,-35],[-11,-25],[1,-52]],[[8679,26296],[-84,-17],[-3,0],[-140,16],[-62,-18],[-12,-23],[-136,-1],[-32,-9],[-29,-24],[-53,51],[-141,-55]],[[7987,26216],[13,40],[-24,58],[0,49],[-166,-2],[18,42],[18,15],[7,38],[22,22],[-93,11],[-184,23],[-2,24],[29,120],[-183,29],[-38,-40],[-96,40]],[[7308,26685],[-78,13],[-19,74],[-15,23],[10,25],[66,34],[-44,101],[2,15],[93,17],[4,47],[-55,21],[-190,61],[-11,6],[-210,119],[-153,57],[-125,192],[-40,8],[-45,4],[-101,152],[-115,147],[-45,91],[-129,-72],[-39,19],[-89,-14],[-69,-10],[-21,-71],[-19,25],[-55,30],[-31,0],[-98,71],[-48,46],[38,55],[-87,78],[-70,104],[-98,17],[-61,-25],[-65,-25],[-162,23],[-169,-5],[7,149],[-451,-103]],[[4521,28184],[61,44],[-12,17],[-4,107],[6,43],[-2,18],[-101,117],[-70,99],[-57,64],[9,23],[71,25],[0,34],[-60,69],[-23,70],[40,39],[110,60],[76,48],[22,29],[76,0],[69,28],[-1,95],[-5,13],[1,85],[-14,16],[36,124],[134,127],[83,-10],[86,45],[105,69],[31,44],[56,86],[164,295],[18,181],[11,115],[18,97],[-1,449],[40,116],[74,237],[11,37],[-89,101],[-85,105],[-45,71],[10,56],[15,19],[-88,248],[-20,49],[136,133],[10,31],[-84,304],[-66,163],[-15,19],[-108,192],[-38,60],[-74,173],[-40,75],[-33,83],[-46,136],[-61,148],[-18,64],[-2,41],[23,71],[68,81],[98,58],[73,28],[94,8],[29,-8]],[[15425,25722],[-53,-20],[-17,-37],[-31,-12],[-12,38],[-31,23],[-33,-1],[-50,-26],[-46,13],[-57,2],[-97,198],[-35,51],[16,25],[-52,28],[-5,60],[-72,131],[-1,62],[-130,73],[-68,-10],[-120,-42],[-103,-144],[-118,-47],[-58,13],[-85,-5],[-40,-16],[-323,-16],[-660,0],[-29,-1],[15,100],[17,54]],[[13147,26216],[-5,17],[-125,71],[-40,31],[-57,-2],[-83,61],[-31,40],[5,23],[-42,16],[-58,-2],[-50,22],[-2,25]],[[13726,33609],[19,-35],[25,-8],[57,18],[9,25],[-4,46],[44,-11],[41,-69],[25,1],[8,66],[31,29],[41,16],[14,36],[49,73],[66,61],[33,1],[17,-16],[37,5],[-10,36],[5,30],[20,26],[1,104],[-9,75]],[[7308,26685],[-53,-112],[-77,37],[-21,21],[-124,-202],[-16,35],[-24,8],[-24,45],[1,25],[-46,29],[-25,0],[-25,24],[-23,48],[-32,-1],[-68,25],[-36,-37],[-28,-4],[-56,-53],[-18,-3],[-26,-5],[-60,17],[-47,-2],[-22,16],[-47,-5],[-52,-22],[-45,12],[-49,-21],[-61,-3],[-24,15],[-31,-10],[-27,8],[-9,-35],[-28,-4],[-30,-30],[5,-25],[-18,-36],[13,-38],[-14,-14],[1,-1],[0,-3]],[[6042,26384],[-60,-37],[-25,23],[-59,13],[-25,31],[8,25],[-39,27],[-64,-10],[-59,27],[-111,-41],[-28,7],[-25,-39]],[[5555,26410],[-109,-20],[-69,-13],[9,23],[-110,-30],[5,-22],[-82,-20],[-46,2],[-40,-79],[-26,7],[-80,-41],[-222,-101],[0,0],[-247,-72],[-72,-18],[15,71],[-33,83],[-1,27],[-29,18],[-16,40],[-5,26],[5,18],[-36,83],[-11,43],[70,62],[-17,45],[-62,47],[-43,2],[-46,-16],[-126,64],[-23,17],[-102,128],[-40,55],[-119,136],[-62,83],[-105,134],[-29,16],[57,129],[-45,3],[-60,31],[-49,12],[-80,55],[-38,33],[-52,62],[-100,118]],[[3284,27651],[173,50],[37,34],[88,23],[92,55],[42,38],[27,73],[181,39],[54,1],[145,26],[40,-6],[37,8],[47,-10],[84,24],[63,-10],[56,43],[31,42],[10,38],[23,12],[7,53]],[[7987,26216],[-4,-21],[-43,-92],[60,5],[32,-16],[4,-69],[0,-232],[-34,-138],[30,-62],[30,-14],[-13,-44],[-274,7],[-206,-2],[115,-185],[32,-39],[115,-152],[108,-165],[-20,-113],[-25,-110],[-46,-172],[-12,-312],[9,-57],[80,-83],[3,-75],[7,-10],[7,-18],[-15,-39],[-34,-21],[-16,-32],[21,-29],[44,-26],[2,-30],[29,-6],[41,-33],[8,-36],[-11,-48],[3,-3],[4,-3],[0,-35],[16,-82],[-1,-101],[-22,-23],[-21,-51],[19,-28],[-48,-33],[53,-89],[48,-33],[42,17],[77,7],[33,-5],[29,-23],[-48,-22],[-27,-41],[-33,-38],[-1,-25],[-30,-46],[216,9],[70,40],[0,-53],[34,-10],[13,-23],[58,-47]],[[8495,23006],[13,-104],[-80,-162],[-4,-60],[-163,12],[-20,-119],[29,-32],[-33,-41],[4,-78],[-66,-5],[-10,-66],[-12,-79]],[[8153,22272],[-35,-3],[-13,-35],[-77,10],[-21,23],[-74,3],[-113,-25],[7,20],[60,25],[-24,38],[-148,-39]],[[7715,22289],[-14,31],[-26,63],[-82,182],[-68,141],[-31,-1],[-37,-25],[-38,57],[-31,23],[-15,39],[-58,12],[-126,66],[0,76],[32,55],[-7,112],[48,-5],[63,-18],[20,14],[-34,26],[-33,44],[-56,-2],[-26,29],[-129,-16],[-2,45],[-28,24],[-55,22],[-35,24],[-150,203],[-73,97],[-101,137],[-147,231],[-23,36],[-56,122],[-25,56],[-28,16],[-107,147],[-50,90],[52,60],[43,95],[10,91],[23,106],[-52,-39],[-81,-12],[-40,33],[-38,12],[-51,3],[-41,22],[-17,28],[-25,-81],[-148,56],[-134,53],[-204,-15],[-117,-11],[-349,-27],[-326,-21]],[[4692,24795],[233,253],[-23,19],[-5,13],[39,-10],[42,-42],[69,-19],[74,56],[47,20],[40,-1],[24,12],[33,-5],[53,43],[34,40],[72,14],[37,34],[133,-111],[22,14],[19,55],[32,19],[1,35],[56,-17],[8,-18],[50,6],[57,-13],[76,3],[80,76],[58,-27],[2,25],[41,34],[46,4],[44,29],[41,-7],[25,22],[-14,16],[19,27],[-1,142],[1,178],[-59,-3],[3,44],[2,372],[-69,15],[-31,-11],[-3,-43],[-28,90],[-18,63],[-12,143]],[[9053,28459],[7,-27],[-10,-46],[0,-65],[-8,-11],[42,-64],[23,-12],[-19,-46],[-20,-20],[15,-82],[-16,-27],[24,-38],[-37,-58],[3,-61],[28,-16],[0,-70],[12,-77],[-8,-20],[10,-40],[-1,-101],[-23,-24],[6,-26],[-26,-56],[10,-30],[-36,-8],[-34,-29],[-32,-42],[-29,-89],[7,-48],[-37,-55],[18,-7],[-34,-53],[-22,2],[-68,-32],[-22,-39]],[[8679,26296],[7,-40],[87,-79],[-17,-14],[-6,-48],[25,-14],[-4,-29],[-21,-12],[-27,-47],[12,-34],[0,-65],[-17,-60],[-12,-6],[-22,-66],[7,-36],[-30,-34],[9,-50],[42,-47],[17,-56],[-11,-75],[-43,-33],[4,-22],[-104,-49],[1,-32],[26,-88],[-50,-63],[-15,-33],[-6,-61],[8,-41],[81,-56],[-5,-23],[10,-33],[-18,-51],[-32,-38],[-10,-48],[18,-41],[-19,-39],[51,-46],[11,-25],[-5,-44],[90,-51],[8,-75],[36,-34],[21,-33],[22,-70],[22,-27],[17,-63],[-6,-34],[36,-81],[-30,-60],[31,-47],[17,-10],[89,-66],[33,-3],[45,-34],[18,1],[51,-28],[57,-19],[9,-22],[-20,-30],[18,-15],[-15,-48],[-37,-70],[10,-150],[-9,-71],[-17,-33],[0,-29],[37,-47],[25,-54],[8,-63],[-3,-48],[-29,-27],[-47,-10],[-31,-45],[-36,-24],[-14,-15],[17,-35],[-1,-9],[-114,-34],[-434,1]],[[7715,22289],[-114,-63],[-16,-17],[-41,-113],[6,-21],[95,-240],[-114,-41],[-16,-11],[-47,-40],[-85,-54],[-16,-4],[-154,8],[-62,29],[-108,77],[-149,-62],[-270,-34]],[[6624,21703],[3,183],[-33,136],[-30,29],[-24,2],[-54,28],[-41,1],[-17,-13],[-52,-3],[-26,4],[-60,-17],[-17,-24],[-65,15],[-209,135],[-13,-31],[-11,-75],[-24,-10],[-17,-52],[-28,-38],[-67,-28],[-48,-58],[-31,61],[-32,-6],[-237,5],[1,4],[3,116],[-100,49],[0,-23],[-51,-3],[-75,-38],[-36,30],[-37,-22],[-47,-14],[-41,-11],[-51,-2],[-20,15],[14,36],[-67,-13],[-92,16],[-69,-8],[-260,-6],[-90,27],[-19,20],[6,34],[33,47],[54,15],[57,-6],[49,36],[76,17],[18,21],[71,1],[53,28],[2,66],[-11,36],[-64,12],[-36,-20],[-37,30],[-6,42],[-44,0]],[[4675,22479],[-12,26],[35,42],[9,29],[24,22],[-14,50],[10,48],[-12,15],[9,44],[67,69],[53,26],[6,28],[95,47],[41,4],[20,5],[38,66],[-24,17],[19,31],[32,95]],[[5071,23143],[21,43],[69,0],[69,156],[27,-4],[86,6],[-1,9],[-6,27],[-49,93],[-66,125],[-67,140],[-13,90],[-10,78],[58,-30],[34,88],[6,151],[0,63],[-19,32],[-69,126],[-71,115],[-52,48],[0,0],[-37,33],[-11,68],[-96,72],[-70,37],[-22,25],[-90,61]],[[13147,26216],[-76,-43],[-24,-64],[-336,-501],[-295,-269],[-302,-74],[-3,-4],[-57,-61],[10,-44],[47,-180],[27,-94],[-67,-148],[-125,-250],[-102,-209],[29,-63],[18,-78],[43,-60],[16,-89],[12,-10],[-1,-47],[6,-184],[-61,-34],[-34,-38],[40,-58],[50,-38],[27,-62],[72,-15],[13,-36],[-14,-49],[37,-7],[51,-40],[72,-39],[-22,-44],[19,-23],[-53,-47],[20,-30],[43,-28],[45,-53],[37,-55],[36,-11],[-5,-39],[-18,-38],[-16,-75],[-31,-12],[-31,-82],[-23,-21],[-42,29],[-82,-5]],[[12097,22794],[-29,76],[-57,98],[-37,54],[-45,46],[-89,126],[-117,79],[-56,42],[-113,-24],[-2,-16],[37,-25],[34,-4],[16,-32],[6,-62],[-3,-4],[-257,-68],[-42,-275],[-21,-57],[-23,-119],[-19,-148],[-112,11],[30,-204],[6,-62],[-53,-42],[-53,-33],[-65,19],[-73,30],[-63,18],[-63,80],[-41,5],[-138,43],[-35,140],[-177,-18],[-13,117],[-10,32],[-23,8],[-83,28],[-26,-61],[-26,-61],[170,-174],[36,-40],[31,-18],[9,-35],[-20,-49],[-8,-51],[-15,-31],[-52,-53],[4,-19],[-31,-38],[-30,-67],[-54,-33],[-15,-37],[-39,-17],[4,-31],[-60,-24],[-81,158],[-37,-11],[-87,72],[-55,-76],[-100,-146],[-133,-173],[-71,89],[-23,3],[-42,-53],[-23,-7],[3,-86],[-3,-153],[-26,-41],[-70,-106],[36,-15],[-25,-41],[-54,-85],[-37,-12],[-54,34],[-55,-3],[-44,32],[-18,60],[-2,124],[36,77],[-85,124],[-38,35],[-15,31],[-53,50],[-21,66],[8,40],[-8,51],[-122,0],[-84,-28],[-12,50],[-31,38]],[[8766,21912],[0,1],[0,0],[-29,32],[19,18],[-37,70],[-109,15],[-143,118],[-62,-17],[-12,14],[-128,-1],[-22,26],[-90,84]],[[11970,22195],[20,102],[20,3],[-35,66],[-29,92],[73,164],[87,105],[-9,67]],[[13393,16730],[-9,0],[-220,157],[-467,202],[-344,147]],[[12353,17236],[-50,89],[-120,200],[-202,339],[-73,-18],[-228,-70],[-56,88],[-50,2],[25,27],[-18,33],[-77,129],[-68,184],[156,150],[13,95],[-38,26],[47,54],[-57,42],[-58,30],[-11,24],[-46,24],[-1,40],[-22,27],[-13,36],[7,24],[-34,19],[-24,-18],[-221,183],[-7,87],[-5,80],[-51,-17],[-123,-55],[-86,-47],[-97,-60],[-86,75],[-59,-46],[-70,-43],[-113,-83],[-98,-66],[-78,38],[1,37],[-195,229],[-19,-1],[-58,-6],[-12,62],[208,11],[179,-145],[164,166],[-158,295],[-25,24],[-13,41],[-45,-7],[-15,28],[-107,8],[-41,14],[-67,90],[-5,7],[-193,92],[7,8],[-71,34],[-44,14],[37,100],[-13,29],[-23,2],[-21,-29],[-68,-15],[6,48],[-17,37],[-43,11],[-34,-3],[-16,-48],[0,-37],[-85,-186],[-26,-114],[-124,25],[-44,10],[-38,-24],[-47,-60],[-36,-22],[-31,-4],[-12,-27],[24,-57],[-27,-70],[-79,-72],[-34,-98],[-6,-73],[-21,-45],[2,-22],[-21,-34],[-29,-2],[-33,-41],[-12,-62],[-53,-24],[-14,-44],[-42,-33],[-29,41],[-42,43],[-87,51],[-18,18],[-51,69],[-43,237],[-45,-22],[-50,35],[-21,33],[-58,-13]],[[8328,19367],[-84,136],[52,89],[50,40],[-119,178],[-82,119],[-70,108],[-71,112],[-220,328]],[[7784,20477],[-43,65],[-149,223],[195,70],[98,50],[65,11],[108,27],[21,-9],[87,5],[22,48],[143,-58],[20,-11],[59,-43],[-14,-95],[60,-23],[20,81],[37,30],[20,36],[27,-24],[18,-51],[29,18],[34,-1],[17,-19],[57,30],[3,52],[47,25],[27,1],[23,32],[34,140],[-12,62],[11,81],[23,5],[10,42],[52,29],[-42,15],[23,98],[-13,8],[-74,-6],[-11,41],[-20,18],[-38,6],[-60,-11],[-14,10],[-46,-17],[-31,-22],[-34,27],[-18,42],[0,50],[-15,12],[2,39],[28,3],[49,24],[1,32],[53,35],[-7,34],[-33,23],[1,35],[48,17],[21,33],[63,60]],[[12353,17236],[6,-57],[48,-451],[9,-96],[-47,-48],[-387,-381],[-337,-331],[-88,-86],[-431,-415],[-140,-136],[-112,-111],[51,-33],[5,-42],[19,-37],[59,-149],[43,-63],[9,-60],[-28,-46],[-6,-47],[-34,-2],[-17,-31],[-31,-77],[-23,-28],[-37,-90],[-7,-68],[19,-52],[20,-33],[-20,-27],[25,-21],[30,-57],[-37,-37],[-13,-32],[-37,24],[-28,-32],[26,-40],[5,-44],[-25,-7],[-15,-44],[-25,-10],[-23,-123],[-31,-28],[14,-37],[-1,-45],[-21,-32],[-38,-24],[62,-34],[8,-74],[46,20],[25,-42],[-13,-16],[40,-37],[-7,-32],[14,-47],[-10,-37],[17,-27],[-35,-41],[-34,8],[-4,-51],[-27,7],[-32,-18],[28,-30],[2,-25],[45,-19],[13,-18],[-49,-18],[19,-21],[-6,-48],[20,-8],[15,-33],[-13,-43],[-21,-9],[26,-50],[-25,-66],[15,-3],[-16,-102],[0,-56],[-46,-77],[-31,-39],[4,-46],[24,-10],[0,-194],[-136,1],[-2,-99]],[[10618,12216],[-800,415],[-544,280],[-385,201],[-461,239],[-253,129],[-177,96],[-249,127],[-299,155],[-87,43],[-580,302],[-47,20],[-375,193],[-821,431],[-80,42],[-567,294],[-493,256],[-339,177]],[[4061,15616],[-70,216],[-35,135],[-16,31],[7,42],[-27,102],[-15,42],[-24,81],[-42,181],[-38,-4],[-38,11],[-4,56],[-24,13],[-34,33],[-39,12],[-5,52],[-60,56],[-19,4],[-28,3],[-31,40],[3,0],[34,77],[-13,71],[-41,51],[4,26],[-18,55],[-26,39],[19,57],[-88,84],[-16,28],[-24,42],[-15,120],[165,144],[101,92]],[[3604,17608],[36,10],[39,-9],[41,-23],[34,6],[24,-7],[193,41],[164,36],[40,10],[225,52],[48,11],[129,30],[73,17],[125,28],[252,58],[186,44],[190,43],[25,6],[93,19]],[[5521,17980],[360,-77],[175,-132],[0,0],[311,-236],[215,-166],[115,-87],[31,6],[25,23],[34,12],[19,33],[34,-11],[84,44],[61,40],[32,3],[34,19],[26,37],[106,76],[22,-10],[35,38],[31,14],[85,-22],[38,28],[10,31],[54,13],[50,1],[38,36],[41,17],[44,5],[13,20],[11,41],[-8,66],[20,4],[-23,57],[28,3],[1,29],[31,7],[29,28],[-13,15],[84,26],[3,28],[23,10],[16,52],[24,1],[21,35],[24,11],[18,69],[40,27],[51,46],[59,2],[20,32],[21,-5],[22,42],[67,32],[64,66],[-11,23],[-56,32],[-126,15],[-38,13],[-119,43],[-78,58],[-153,110],[-43,31],[-24,62],[-123,300],[822,221]],[[19376,7113],[-21,-2],[-7,46],[-93,523],[-475,296],[-238,141],[-79,44],[-209,111],[-90,46],[-571,291],[-517,268],[-585,302],[-266,136],[-258,137],[-715,369],[-442,228],[-204,103],[-410,199],[-355,187],[-539,280],[-276,145],[-290,150],[-585,303],[-429,222],[-145,73],[-567,294],[-392,202],[0,9]],[[14057,15966],[-10,-23],[80,-46],[51,-95],[23,-19],[46,5],[51,-37],[29,-32],[72,-52],[60,-16],[21,-14],[87,-6],[18,-15],[50,11],[28,-13],[45,17],[18,-10],[60,-2],[42,30],[27,-7],[42,-20],[83,1],[2,-21],[26,-24],[36,-9],[33,-25],[45,-17],[44,7],[50,-38],[214,-87],[61,-3],[35,-23],[51,-2],[-21,36]],[[7784,20477],[-49,-58],[-25,-9],[-78,-74],[-29,-42],[-22,-13],[-46,26],[-71,-20],[-36,15],[-27,-16],[-68,-1],[-14,-11],[-58,-8],[-84,15],[-57,-62],[-35,-9],[-23,-20],[-45,-11],[-64,14],[-17,21],[-62,2],[-72,-31],[-53,20],[-69,-16],[-23,9],[-23,-39],[-47,-116],[-58,-60],[70,-23],[-30,-37],[-43,-1],[-54,-19],[-14,10],[-52,-18],[-9,10],[-27,-57],[7,-28],[53,-15],[22,-20],[-20,-46],[16,-27],[34,-11],[-7,-38],[23,-41],[22,-27],[-25,-25],[-34,-81],[3,-16],[34,-41],[48,-41],[61,-20],[37,-45],[6,-38],[-7,-3],[-94,-59],[-58,-44],[-28,-43],[-85,-35],[-28,-19],[-101,-6],[-48,-9],[-58,3],[-10,-10],[-78,-15],[-22,26],[-19,-27],[-58,4],[-37,-40],[-31,12],[-31,51],[22,33],[-12,18],[8,43],[30,72],[-18,35],[15,39],[-27,11],[5,52],[-20,4],[-47,-29],[-33,-52],[-30,-15]],[[5750,19285],[27,34],[-4,24],[-29,31],[-27,52],[-18,64],[17,33],[-6,80],[16,15],[-19,26],[20,16],[-6,35],[-20,18],[22,26],[3,31],[20,26],[-21,31],[-2,2],[-50,1],[-49,16],[3,55],[32,5],[16,88],[-4,40],[21,14],[-4,37],[-34,38],[2,35],[-18,27],[-37,44],[-44,17]],[[5557,20246],[8,37],[-18,36],[-39,32]],[[5508,20351],[-19,65],[-15,121],[14,36],[-8,23],[25,37],[75,35],[26,27],[94,75],[16,26],[7,64],[18,68],[6,65],[5,91],[24,70],[6,18],[46,41],[160,35],[84,140],[42,77],[9,3],[38,-28],[45,-4],[67,-19],[33,17],[53,-3],[47,-12],[12,28],[26,-17],[34,3],[36,-35],[42,-15],[23,-36],[11,-60],[35,-17],[26,11],[37,-32],[35,-12],[38,-65],[38,-27],[6,-35],[39,-33],[123,3],[44,-20],[23,5],[35,-38],[44,-1],[113,49],[-36,143],[-26,82],[-3,67],[-31,2],[-147,0],[-31,49],[-40,1],[15,41],[-36,57],[-36,-39],[-90,156],[-97,1],[-45,60],[1,8]],[[5521,17980],[0,3]],[[5521,17983],[-2,44],[32,39],[32,-17],[3,63],[-22,62],[55,13],[66,-37],[241,246],[-166,330],[-54,109],[3,33],[65,33],[31,-1],[20,20],[-14,38],[-37,39],[6,21],[-34,36],[-9,34],[3,50],[16,38],[25,18],[4,22],[-37,45],[2,24]],[[5071,23143],[-40,5],[-51,-26],[-19,5],[-59,56],[-32,-13],[0,-26],[-79,3],[-4,-21],[-54,14],[-2,-28],[-41,-13],[0,-23],[-63,-3],[-4,4],[-29,-7],[-41,16],[-38,-2],[-40,-18],[27,-31],[3,-67],[-36,-39],[-25,35],[-45,3],[-29,-25],[-25,12],[-36,-44],[-44,12],[-16,-34],[-30,-15],[-78,-22],[-45,25],[2,31],[-76,-42],[-22,10],[-74,-32],[-45,-9],[-41,-45],[-35,1],[-17,25],[-64,-11],[-10,-13],[-140,16],[-82,-11],[-91,-23],[-33,-19],[-57,-11],[-1,-37],[-61,-49],[-59,-2],[-22,-25]],[[3168,22630],[-12,37],[17,45],[-24,1],[-31,42],[36,44],[-29,22],[-20,33],[-59,-11],[-20,-39],[-32,-16],[-55,16],[-4,-29],[-23,-21],[-64,-30],[-7,-47],[-36,16],[-43,2],[-25,-10],[7,74],[-59,20],[-33,3],[-8,34],[86,2],[60,53],[-13,43],[-37,25],[-39,5],[-74,-19],[-50,-28],[-51,-9],[-45,30],[56,26],[32,46],[-61,49],[-3,56],[34,60],[50,5],[29,20],[-21,39],[-20,14],[-76,-26],[-38,-40],[-41,-17],[-48,-66],[-84,-33],[-16,0],[34,77],[5,54],[-8,42],[-36,58],[72,23],[12,28],[-11,47],[18,62],[-52,38],[-11,21],[38,35]],[[2335,23536],[53,11],[43,19],[-2,21],[20,40],[-13,41],[-36,37],[31,46],[26,25],[-4,49],[-14,55],[69,91],[15,3],[48,44],[31,10],[39,31],[6,35],[22,35],[16,77],[-18,31],[-16,-25],[-59,-9],[-47,11],[-23,29],[-28,14],[-85,25],[2,-26],[-17,-60],[-53,-7],[-22,-25],[-75,-44],[-88,0],[-37,46],[-56,46],[69,56],[43,25],[14,67],[16,13],[34,10],[27,-9],[39,16],[6,27]],[[2311,24417],[70,37],[77,-1],[55,-44],[49,-10],[36,22],[39,-1],[0,0],[38,5],[38,43],[23,12],[56,17],[57,-87],[13,-39],[46,3],[42,-40],[54,-11],[26,-20],[32,53],[-2,27],[38,35],[34,15],[66,-59],[53,-2],[30,-14],[4,-108],[36,-27],[13,-29],[16,63],[-14,14],[25,37],[54,32],[41,-38],[24,67],[71,17],[6,-39],[58,-10],[33,26],[23,-12],[25,35],[35,0],[40,53],[22,11],[-16,45],[67,11],[28,41],[1,21],[40,39],[38,-14],[43,29],[18,-16],[34,20],[31,33],[22,64],[25,24],[40,13],[51,44],[29,38],[-6,34],[30,2],[41,42],[49,11],[46,39],[61,12],[11,4],[-58,57],[29,41],[22,-6],[28,43],[43,11],[48,36],[5,38],[16,16],[-17,47],[30,33],[22,59],[45,19],[37,31],[26,37],[92,-9],[29,21],[27,16],[24,-19],[66,-3],[16,29],[21,4],[17,33],[22,0],[27,39],[-42,79],[34,62],[38,22],[27,-5],[45,53],[33,-15],[22,14],[44,1],[40,19],[24,-18],[21,8],[35,-37],[41,-15],[38,19],[25,30],[43,-51],[41,15],[-8,17],[76,6],[-16,22],[45,32],[33,6],[44,-6],[23,20],[-7,52],[11,25],[-19,24],[0,43],[-37,25],[-28,5],[-40,51],[-13,32],[-50,7],[-23,36],[-3,73],[-7,37],[-57,36],[-4,13],[23,54],[10,60]],[[4675,22479],[-49,-63],[-17,-67],[-41,-6],[-51,16],[-48,-25],[-22,-33],[-29,17],[-51,-33],[-15,-25],[-28,-5],[-11,-24],[-84,-39],[-16,23],[1,30],[-30,2],[-34,-27],[-35,-2],[-7,-24],[27,-47],[10,-50],[-35,-8],[-50,69],[-20,21],[-44,-11],[-37,-61],[-76,3],[-12,28],[-25,16],[-39,-10],[-48,-14],[-116,45],[-2,4],[-63,22],[-65,2],[-79,15],[-30,46],[-27,-20],[-47,-36],[17,-38],[-43,-88],[-1,-32],[-38,-26],[-55,-19],[-24,28],[0,65],[-32,16],[-37,-20],[-74,34]],[[3043,22128],[43,52],[-43,39],[57,26],[-6,21],[26,18],[7,79],[18,17],[14,43],[23,-3],[-16,46],[9,65],[-16,66],[9,33]],[[2311,24417],[-8,6],[-24,94],[7,30],[21,20],[70,6],[16,12],[-7,46],[-30,30],[-49,93],[-17,7],[-1,0],[-100,100],[45,85],[-31,48],[-1,85],[29,-2],[15,27],[-1,51],[29,50],[-4,39],[17,14],[159,70],[-37,86],[-5,17],[35,38],[-18,47],[-45,120],[77,18],[69,-6],[11,41],[-3,33],[-50,79],[1,34],[-62,1],[-11,-30],[-28,-23],[-31,-1],[-61,51],[-20,33],[-62,-6],[-51,23]],[[2155,25883],[60,47],[18,45],[37,-14],[0,35],[28,17],[37,-8],[92,41],[-18,23],[14,23],[-23,15],[1,37],[33,15],[0,37],[59,52],[88,25],[16,25],[0,63],[29,82],[-8,36],[31,3],[9,25],[33,20],[73,118],[16,111],[26,65],[9,48],[-9,27],[5,93],[18,90],[5,50],[38,91],[14,55],[50,45],[25,38],[12,43],[36,45],[248,-21],[27,226]],[[2335,23536],[-10,35],[-59,47],[-18,31],[-37,11],[-25,-22],[-92,14],[-91,19],[-55,-7],[-131,0],[-36,-9],[-59,15],[-58,-14],[-55,25],[-35,-1],[-42,-70],[-27,-29],[-155,-25],[3,-51],[-22,-33],[-75,33],[-20,50],[-45,46],[-40,12],[-32,10],[-4,1],[-2,-47],[-49,-75],[-7,-20],[-53,-69],[-23,-21],[-79,-37],[-10,-44],[1,-66],[-14,-47],[-24,-26],[6,-23],[-27,-69],[35,-44],[-6,-69],[9,-60],[-3,-57],[-24,-39],[-27,-21],[5,36],[-34,5],[-61,-49],[-67,-15],[8,-30],[-2,-56],[-21,-27],[-117,-383],[-14,-52],[-34,-59],[-34,-46],[-70,-48],[-39,5]],[[338,22071],[-12,80],[3,24],[-33,10],[-37,40],[-22,37],[-39,137],[-28,34],[-43,33],[-37,-16],[-32,11],[-12,47],[12,37],[-58,74],[101,46],[47,28],[28,-3],[39,37],[7,46],[-20,5],[-3,48],[54,36],[22,37],[-28,41],[-30,-8],[-4,32],[27,17],[53,124],[-29,47],[34,54],[28,48],[32,16],[-4,20],[-32,26],[52,81],[27,12],[19,71],[52,5],[30,38],[-10,53],[56,32],[6,52],[38,15],[1,57],[60,6],[52,32],[47,57],[50,27],[-1,39],[20,26],[28,35],[-2,54],[-17,77],[-18,23],[-7,49],[-57,70],[11,71],[-6,48],[-5,20],[45,51],[35,19],[32,30],[46,26],[-13,130],[28,26],[-33,32],[54,77],[6,97],[50,116],[28,-3],[52,15],[46,57],[62,25],[20,23],[30,-13],[7,28],[33,40],[39,29],[33,-11],[13,19],[46,-16],[19,36],[49,-24],[51,15],[8,21],[53,-17],[53,36],[89,36],[-4,76],[15,18],[-19,49],[26,34],[26,-4],[39,19],[21,30],[23,-1],[11,18],[41,13],[-22,39],[-10,72],[17,144],[18,49],[22,13],[79,8],[59,28],[46,-1],[38,13]],[[3043,22128],[-30,-24],[-53,-17],[-53,-16],[-118,-20],[-112,-49],[-75,-63],[-111,-66],[-50,-29],[-21,-14],[-6,-29],[64,-161],[10,-12],[31,-121],[49,-130]],[[2568,21377],[-42,-7],[-45,8],[-43,-25],[-30,-48],[-32,24],[-44,-11],[-25,6],[-63,-17],[-41,-22],[-29,6],[-53,-17],[-41,16],[-11,-56],[-27,-21],[34,-15],[15,-34],[59,-64],[26,-13],[46,-4],[39,21],[33,-44],[20,-90],[41,-81],[16,-11],[-31,-85],[-56,-62],[-46,11],[-22,-29],[-8,-29],[-27,-4],[-46,-69],[-66,-32],[18,-25],[-47,-38],[-37,2],[-36,-27],[6,-32],[-20,-30],[-53,1],[0,-50],[27,-17],[-72,-62],[-14,29],[-35,0],[-33,-19],[-15,57],[9,32],[30,-8],[22,35],[35,10],[-44,60],[5,26],[-38,39],[-39,-18],[-43,8],[-3,33],[13,48],[-15,12],[-64,-1],[32,26],[7,28],[-42,9],[23,28],[-4,30],[-66,-2],[10,70],[-11,25],[49,8],[8,41],[51,43],[-13,37],[-40,-6],[-57,91],[-13,12],[-37,-14],[-48,26],[-49,-10],[-6,-41],[-43,9],[-23,16],[-3,35],[-18,29],[3,57],[-38,25],[-54,-6],[20,44],[45,41],[-36,20],[-51,-20],[-16,-27],[-39,-9],[-69,20],[-10,-34],[-38,-18],[-45,56],[-28,9],[-14,41],[-36,-23],[-36,12],[30,43],[-36,51],[-38,-4],[-21,13],[-32,52],[-37,35],[45,6],[61,35],[19,28],[6,55],[18,15],[21,-37],[70,-16],[79,49],[-49,31],[-93,-9],[-47,5],[-3,36],[41,28],[42,-7],[36,9],[22,21],[10,61],[-30,0],[-27,18],[2,40],[22,6],[32,37],[-27,25],[-58,-52],[-81,-45],[-42,48],[-41,1],[-52,-14],[-46,-28],[41,-29],[3,-49],[-65,-30],[55,-41],[-16,-15],[-50,-4],[-59,30],[23,44],[37,18],[1,18],[-24,63],[-16,12],[-42,-32],[-48,-15],[-35,22],[11,56],[-21,70],[-46,36],[-53,-16],[-39,6],[-6,69]],[[1049,21128],[18,-32],[-24,-20],[-19,30],[25,22]],[[792,21631],[23,-20],[7,-42],[-39,2],[-22,42],[31,18]],[[319,21624],[49,-27],[20,6],[24,-26],[26,-4],[3,-43],[-40,11],[-45,-6],[-20,16],[-32,0],[-25,15],[-72,-3],[12,24],[37,12],[44,30],[19,-5]],[[5508,20351],[-17,-41],[-26,-33],[-22,3],[-52,-21],[-5,-21],[-34,3],[-23,17],[-42,-11],[-19,-13],[-61,-7],[-90,26],[-23,-6],[-17,48],[-29,-10],[-36,6],[10,55],[-32,14],[-80,-24],[-26,-33],[-12,15],[-55,1],[-89,24],[-97,-3],[-25,12],[-61,12],[-11,40],[7,36],[-22,22],[-42,52],[-65,10],[-40,27],[-40,67],[28,36],[-46,44],[-61,25],[15,14]],[[4268,20737],[74,102],[31,-8],[23,-68],[71,-82],[46,-43],[74,27],[51,47],[26,18],[9,50],[12,8],[8,58],[-35,78],[-46,-14],[-74,12],[-17,35],[-9,52],[-75,186],[-51,81],[-56,23],[-42,62],[4,15],[-26,10],[-81,67],[-50,12],[-15,32],[-49,42],[44,30],[5,39],[19,123],[37,46],[-35,22],[-26,-10],[-34,-36],[-51,-44],[-32,-5],[-40,35],[-51,30],[-60,0],[-27,-17],[-28,-11],[-29,-48],[-51,-25],[-79,-6],[-55,-42],[-7,-19],[-87,-86],[-19,-1],[-61,-29],[9,32],[-40,22],[-40,-16],[-48,3],[-56,-16],[-15,22],[-44,10],[-22,-36],[17,-20],[0,0],[1,0],[3,-4],[0,0],[1,-1],[2,-1],[1,0],[1,0],[0,-2],[0,-2],[-15,-22],[-41,0],[-36,-18],[-15,-22],[-32,-7],[-18,-59],[-57,-10],[-24,-39],[-39,-11],[-23,22],[-31,7],[-17,46],[-41,-18],[-70,12],[-47,64],[-15,2],[-38,-29],[-47,-17]],[[5557,20246],[-104,-79],[-170,-63],[-128,-100],[-67,-33],[-116,-54],[-137,-33],[-98,-64]],[[4737,19820],[-65,-46],[-134,-37],[-64,-19],[-83,-38],[-58,-29],[-7,-2],[-91,-44],[-23,-20],[-66,-45],[-82,25],[-37,-20],[-65,5],[-6,-62],[-35,-21],[-67,-90],[-29,-35],[-121,-10],[-4,-1],[-90,-133],[-33,-141]],[[3577,19057],[-50,30],[-53,17],[-101,16],[-56,-4],[-6,-37],[-82,-20],[-45,-12],[-23,-17],[-2,-4],[13,-20],[-50,-72],[-38,-29],[-9,-40],[-12,-98],[1,-30],[-1,-19],[-33,-71],[-35,-45],[-35,2],[-49,-11],[3,-35],[-22,-29],[-52,-48],[-19,-6],[-25,-13],[10,-29],[-29,-4],[69,-47],[12,-30],[-37,-28],[-32,-39],[-37,-27],[-9,-39],[5,-46],[-55,-89],[-31,17],[-46,41],[-58,28],[-44,28],[-37,44],[-173,89],[-12,-36],[22,-24],[-51,-94],[-16,13],[-37,-5],[-16,-44],[-83,24],[-94,-20],[-55,-26],[-1,-33],[-13,2],[-50,48],[-64,84],[-54,38],[-15,21],[-48,13],[-16,15],[-38,28],[-85,22],[-41,48],[-49,84],[-25,11],[-40,38],[-31,15],[-21,46],[-31,28],[-21,-10],[-31,-44],[-22,-3],[-60,24],[-17,-44],[-36,-16],[-66,30],[-22,-5],[-32,-50],[-118,-23],[-17,18],[-54,-22],[-52,-6],[-77,-73]],[[715,18403],[-26,-11],[-23,45],[30,55],[22,12],[-11,52],[-27,10],[-6,87],[7,38],[-23,37],[-36,26],[-24,9],[-31,-25],[-38,0],[-24,-40],[-38,6],[30,37],[46,32],[19,1],[38,33],[-6,25],[-30,11],[1,45],[-14,37],[22,25],[-15,27],[25,14],[-3,34],[-27,30],[27,47],[-13,38],[26,63],[21,-1],[57,20],[50,36],[32,58],[33,22],[-1,16],[-10,28],[-96,7],[20,29],[-15,25],[-41,3],[2,37],[-32,31],[37,14],[21,21],[58,-41],[50,5],[21,29],[53,24],[5,81],[43,17],[14,-59],[75,-9],[34,33],[57,14],[29,-10],[20,25],[4,59],[-5,69],[-11,47],[20,30],[-5,43],[10,18],[76,79],[69,45],[24,58],[31,54],[2,63],[-63,1],[-39,-14],[-27,-42],[-61,-29],[-22,-32],[-39,41],[-62,39],[-18,1],[-34,-49],[-18,0],[-57,54],[-6,20],[9,50],[88,-15],[22,9],[33,57],[34,-2],[35,27],[5,48],[-19,33],[16,12],[64,-14],[34,-31],[80,-25],[23,-38],[42,23],[18,68],[-7,63],[48,29],[17,32],[28,-30],[-21,-32],[-36,-90],[-11,-97],[-49,-45],[-5,-21],[20,-18],[14,-52],[39,-20],[40,15],[48,-26],[52,15],[48,3],[1,-29],[26,-7],[5,-29],[68,-34],[63,-74],[32,-1],[24,-2],[54,-24],[14,29],[-43,19],[109,69],[-1,-29],[30,-40],[38,-13],[3,-91],[65,-42],[17,16],[2,62],[78,24],[0,66],[-28,21],[9,25],[48,8],[17,-13],[75,-15],[59,10],[2,-49],[27,-10],[-15,-36],[34,-34],[25,-8],[-1,-31],[14,-33],[53,26],[24,-6],[17,-35],[-20,-27],[-45,1],[-35,-46],[-13,-59],[16,-12],[25,-25],[52,36],[85,24],[61,20],[76,42],[41,11],[30,37],[9,29],[43,20],[26,9],[36,54],[1,29],[-17,22],[-124,80],[-7,16],[-68,45],[-15,35],[-77,60],[-22,84],[0,72],[20,24],[43,115],[76,38],[64,3],[78,36],[48,6],[24,28],[58,5],[32,15],[43,4],[93,-3],[31,-12],[25,-25],[40,-22],[26,-19],[115,-19],[34,36],[73,5],[25,-45],[19,-4],[40,0],[48,-12],[25,-16],[49,12],[30,-15],[40,0],[22,28],[66,-15],[49,18],[39,-19],[94,-2],[13,12],[71,5],[35,-7],[26,23],[17,73],[-4,29],[-71,35],[-11,67],[28,50],[32,-8],[32,6],[51,-31],[-32,-23],[1,-27]],[[792,19984],[9,-5],[-88,-74],[3,59],[76,20]],[[442,20202],[29,-22],[67,-78],[53,-29],[30,-80],[27,-28],[-49,-58],[-106,-35],[-19,1],[-73,-21],[-40,-4],[-79,8],[-18,27],[-45,40],[-22,-5],[-59,33],[-37,-13],[-16,31],[-22,-9],[-35,15],[42,25],[-16,71],[36,-11],[5,36],[30,23],[33,-13],[25,-34],[36,7],[13,21],[54,25],[71,8],[61,61],[24,8]],[[1275,20566],[16,-34],[-22,-43],[-21,8],[12,69],[15,0]],[[473,18659],[-11,-37],[-34,27],[45,10]],[[747,19747],[36,-43],[-3,-20],[-47,-5],[-11,62],[25,6]],[[4061,15616],[-310,160],[-161,84],[-296,153],[-314,163],[-172,90],[-156,80],[-429,222],[2,7],[-2,-7],[-295,152],[-302,159],[-380,198],[-41,21],[-394,204],[-42,21],[63,15],[19,38],[-12,30],[-35,42],[-64,-11],[-41,7],[-20,-24],[-50,-35],[-43,0],[-20,-52],[-26,13],[22,26],[0,29],[-36,18],[6,30],[67,2],[42,12],[60,1],[16,29],[-19,41],[4,42],[67,-36],[54,-67],[37,12],[76,-70],[47,-9],[21,21],[-21,62],[-21,11],[-37,51],[35,28],[29,6],[10,38],[-41,44],[3,32],[38,50],[12,58],[-4,32],[63,60],[55,66],[85,35],[44,-36],[20,19],[11,53],[1,52],[-11,11],[-25,43],[9,21],[-47,10],[-26,30],[-107,-8],[-17,42],[-40,9],[-81,69],[-41,12],[-9,23],[-38,38],[-27,-1],[-36,-22],[-39,39],[-36,-1]],[[3577,19057],[-6,-31],[34,-170],[-62,-108],[-10,-71],[-13,-85],[-12,-148],[-14,-238],[-19,-11],[-32,-67],[36,-66],[-14,-44],[-1,-36],[15,-19],[3,-46],[53,-221],[1,-78],[26,7],[42,-17]],[[4737,19820],[39,-18],[1,-64],[15,-74],[28,-71],[4,-54],[-28,-69],[45,-56],[6,-28],[38,-42],[-12,-44],[-4,-11],[-75,31],[-54,-5],[-48,58],[-49,-16],[-53,-27],[-9,-44],[-61,-53],[-9,-25],[-7,-12],[-46,-87],[11,-73],[-55,12],[-34,-6],[-16,-46],[25,-36],[35,-32],[42,13],[57,-27],[17,-21],[2,-34],[27,1],[34,-19],[46,-40],[76,-48],[49,-36],[71,-34],[39,-9],[35,-6],[45,-44],[36,-23],[31,-1],[47,-27],[52,-9],[32,-28],[36,-54],[25,-39],[73,-113],[225,-347]]],"transform":{"scale":[0.0001936341245815606,0.00021069791727858372],"translate":[33.94458593985886,-4.679179615065595]},"objects":{"counties.final":{"type":"GeometryCollection","geometries":[{"arcs":[[[0,1,2]],[[3,4]],[[5,6]],[[7]]],"type":"MultiPolygon","properties":{"code":"001","name":"Mombasa"}},{"arcs":[[[-1,8,-6,9,10,11]],[[12]],[[13]],[[14]]],"type":"MultiPolygon","properties":{"code":"002","name":"Kwale"}},{"arcs":[[[-12,15,16,17,-4,18,-2]],[[19]],[[20]]],"type":"MultiPolygon","properties":{"code":"003","name":"Kilifi"}},{"arcs":[[21,22,23,24,25,26,27,-17]],"type":"Polygon","properties":{"code":"004","name":"Tana River"}},{"arcs":[[[28,29,-27]],[[30]],[[31]],[[32]],[[33]],[[34]],[[35]],[[36]],[[37]],[[38]],[[39]],[[40]],[[41]],[[42]],[[43]],[[44]],[[45]]],"type":"MultiPolygon","properties":{"code":"005","name":"Lamu"}},{"arcs":[[46,47,48,49,-22,-16,-11]],"type":"Polygon","properties":{"code":"006","name":"Taita Taveta"}},{"arcs":[[-26,50,51,52,-29]],"type":"Polygon","properties":{"code":"007","name":"Garissa"}},{"arcs":[[53,54,55,56,57,-52]],"type":"Polygon","properties":{"code":"008","name":"Wajir"}},{"arcs":[[58,-57]],"type":"Polygon","properties":{"code":"009","name":"Mandera"}},{"arcs":[[-55,59,60,61]],"type":"Polygon","properties":{"code":"010","name":"Marsabit"}},{"arcs":[[-25,62,63,64,-60,-54,-51]],"type":"Polygon","properties":{"code":"011","name":"Isiolo"}},{"arcs":[[-24,65,66,67,68,69,70,-63]],"type":"Polygon","properties":{"code":"012","name":"Meru"}},{"arcs":[[71,72,-67]],"type":"Polygon","properties":{"code":"013","name":"Tharaka-Nithi"}},{"arcs":[[-68,-73,73,74,75]],"type":"Polygon","properties":{"code":"014","name":"Embu"}},{"arcs":[[-50,76,77,-74,-72,-66,-23]],"type":"Polygon","properties":{"code":"015","name":"Kitui"}},{"arcs":[[[-78,78,79,80,81,82,83,-75]],[[84]]],"type":"MultiPolygon","properties":{"code":"016","name":"Machakos"}},{"arcs":[[-49,85,-79,-77],[-85]],"type":"Polygon","properties":{"code":"017","name":"Makueni"}},{"arcs":[[86,87,88,89,90]],"type":"Polygon","properties":{"code":"018","name":"Nyandarua"}},{"arcs":[[91,92,-88,93,-70]],"type":"Polygon","properties":{"code":"019","name":"Nyeri"}},{"arcs":[[-69,-76,-84,94,-92]],"type":"Polygon","properties":{"code":"020","name":"Kirinyaga"}},{"arcs":[[95,-89,-93,-95,-83]],"type":"Polygon","properties":{"code":"021","name":"Murang'a"}},{"arcs":[[-82,96,97,98,-90,-96]],"type":"Polygon","properties":{"code":"022","name":"Kiambu"}},{"arcs":[[99,100,101,102]],"type":"Polygon","properties":{"code":"023","name":"Turkana"}},{"arcs":[[103,104,105,106,107,108,109,-102]],"type":"Polygon","properties":{"code":"024","name":"West Pokot"}},{"arcs":[[-65,110,111,-100,112,-61]],"type":"Polygon","properties":{"code":"025","name":"Samburu"}},{"arcs":[[113,114,115,116,-109]],"type":"Polygon","properties":{"code":"026","name":"Trans Nzoia"}},{"arcs":[[117,118,119,120,121,-114,-108]],"type":"Polygon","properties":{"code":"027","name":"Uasin Gishu"}},{"arcs":[[[122,-105]],[[123,-118,-107]]],"type":"MultiPolygon","properties":{"code":"028","name":"Elegeyo-Marakwet"}},{"arcs":[[124,125,126,127,-121]],"type":"Polygon","properties":{"code":"029","name":"Nandi"}},{"arcs":[[-112,128,129,130,-119,-124,-106,-123,-104,-101]],"type":"Polygon","properties":{"code":"030","name":"Baringo"}},{"arcs":[[-71,-94,-87,131,-129,-111,-64]],"type":"Polygon","properties":{"code":"031","name":"Laikipia"}},{"arcs":[[-99,132,133,134,135,-130,-132,-91]],"type":"Polygon","properties":{"code":"032","name":"Nakuru"}},{"arcs":[[136,137,138,139,140,-134]],"type":"Polygon","properties":{"code":"033","name":"Narok"}},{"arcs":[[141,-137,-133,-98,142,-80,-86,-48]],"type":"Polygon","properties":{"code":"034","name":"Kajiado"}},{"arcs":[[-120,-131,-136,143,144,145,146,-125]],"type":"Polygon","properties":{"code":"035","name":"Kericho"}},{"arcs":[[-141,147,148,-144,-135]],"type":"Polygon","properties":{"code":"036","name":"Bomet"}},{"arcs":[[-115,-122,-128,149,150,151,152]],"type":"Polygon","properties":{"code":"037","name":"Kakamega"}},{"arcs":[[153,154,-150,-127]],"type":"Polygon","properties":{"code":"038","name":"Vihiga"}},{"arcs":[[-116,-153,155,156]],"type":"Polygon","properties":{"code":"039","name":"Bungoma"}},{"arcs":[[157,158,-156,-152]],"type":"Polygon","properties":{"code":"040","name":"Busia"}},{"arcs":[[[-155,159,160,-158,-151]],[[161]],[[162]],[[163]]],"type":"MultiPolygon","properties":{"code":"041","name":"Siaya"}},{"arcs":[[-147,164,165,-160,-154,-126]],"type":"Polygon","properties":{"code":"042","name":"Kisumu"}},{"arcs":[[[-146,166,167,168,169,-165]],[[170]],[[171]],[[172]],[[173]],[[174]]],"type":"MultiPolygon","properties":{"code":"043","name":"Homa Bay"}},{"arcs":[[175,-169,176,-139]],"type":"Polygon","properties":{"code":"044","name":"Migori"}},{"arcs":[[-177,-168,177,-148,-140]],"type":"Polygon","properties":{"code":"045","name":"Kisii"}},{"arcs":[[-149,-178,-167,-145]],"type":"Polygon","properties":{"code":"046","name":"Nyamira"}},{"arcs":[[-81,-143,-97]],"type":"Polygon","properties":{"code":"047","name":"Nairobi"}}]}}}